id,name,city,country,operator,source,latitude,longitude
wd_Q21997555,Aba-Sárkeresztúr vasútállomás,Aba,Hungary,MÁV Magyar Államvasutak Zrt.,Wikidata,47.023729,18.542433
wd_Q21998903,Abaliget vasútállomás,Abaliget,Hungary,MÁV Magyar Államvasutak Zrt.,Wikidata,46.152726,18.075268
wd_Q116978570,Abapuszta megállóhely,,Hungary,MÁV Magyar Államvasutak Zrt.,Wikidata,47.709375,21.867027
wd_Q22075340,Abaújkér megállóhely,Abaújkér,Hungary,MÁV Magyar Államvasutak Zrt.,Wikidata,48.308883333,21.197988888
wd_Q22075333,Abaújszántó vasútállomás,Abaújszántó,Hungary,MÁV Magyar Államvasutak Zrt.,Wikidata,48.286544444,21.181238888
wd_Q22075334,Abaújszántói fürdő megállóhely,Abaújszántó,Hungary,MÁV Magyar Államvasutak Zrt.,Wikidata,48.268705555,21.179561111
wd_Q21891724,Abda megállóhely,Abda,Hungary,MÁV Magyar Államvasutak Zrt.,Wikidata,47.690741,17.540713
wd_Q21921450,Abony vasútállomás,Abony,Hungary,MÁV Magyar Államvasutak Zrt.,Wikidata,47.173179,20.01606
wd_Q21923407,Abonyi út megállóhely,Szolnok,Hungary,MÁV Magyar Államvasutak Zrt.,Wikidata,47.206564,20.125062
wd_Q22047683,Abádszalók megállóhely,Abádszalók,Hungary,MÁV Magyar Államvasutak Zrt.,Wikidata,47.455329,20.553206
wd_Q22025882,Acsa-Erdőkürt vasútállomás,Acsa,Hungary,MÁV Magyar Államvasutak Zrt.,Wikidata,47.801025,19.386081
wd_Q21887974,Acsád vasútállomás,Acsád,Hungary,Győr–Sopron–Ebenfurti Vasút,Wikidata,47.308357,16.734674
wd_Q21997269,Adony vasútállomás,Adony,Hungary,MÁV Magyar Államvasutak Zrt.,Wikidata,47.106162,18.84789
wd_Q116978571,Adorjánpuszta megállóhely,,Hungary,MÁV Magyar Államvasutak Zrt.,Wikidata,46.630917,18.33953
wd_Q22041536,Adács megállóhely,Adács,Hungary,MÁV Magyar Államvasutak Zrt.,Wikidata,47.696687,19.9756
wd_Q21876959,Agárd megállóhely,Gárdony,Hungary,MÁV Magyar Államvasutak Zrt.,Wikidata,47.198221,18.606208
wd_Q102243074,Agárdytelep megállóhely,Izsák,Hungary,MÁV Magyar Államvasutak Zrt.,Wikidata,46.819361111,19.385611111
wd_Q22054870,Ajak megállóhely,Ajak,Hungary,MÁV Magyar Államvasutak Zrt.,Wikidata,48.185516,22.046444
wd_Q21876831,Ajka vasútállomás,Ajka,Hungary,MÁV Magyar Államvasutak Zrt.,Wikidata,47.105952777,17.573044444
wd_Q22116497,Ajka-Gyártelep megállóhely,Ajka,Hungary,MÁV Magyar Államvasutak Zrt.,Wikidata,47.0968,17.555316666
wd_Q61268570,Akadémiaújtelep megállóhely,Budapest XVII. kerülete,Hungary,MÁV Magyar Államvasutak Zrt.,Wikidata,47.485833333,19.222777777
wd_Q21867991,Alagimajor megállóhely,Dunakeszi,Hungary,MÁV Magyar Államvasutak Zrt.,Wikidata,47.601815,19.153961
wd_Q22132508,Alap megállóhely,Alap,Hungary,MÁV Magyar Államvasutak Zrt.,Wikidata,46.832038888,18.6574
wd_Q3096082,Albertfalva megállóhely,Budapest XI. kerülete,Hungary,MÁV Magyar Államvasutak Zrt.,Wikidata,47.4407924,19.0339592
wd_Q21921442,Albertirsa vasútállomás,Albertirsa,Hungary,MÁV Magyar Államvasutak Zrt.,Wikidata,47.239999,19.606813
wd_Q30308617,Aldebrő megállóhely,Aldebrő,Hungary,MÁV Magyar Államvasutak Zrt.,Wikidata,47.784321,20.22429
wd_Q22044058,Algyő vasútállomás,Algyő,Hungary,MÁV Magyar Államvasutak Zrt.,Wikidata,46.335497,20.195954
wd_Q22040989,Almár megállóhely,Eger,Hungary,MÁV Magyar Államvasutak Zrt.,Wikidata,47.954923,20.357738
wd_Q22039034,Almás megállóhely,Bácsalmás,Hungary,MÁV Magyar Államvasutak Zrt.,Wikidata,46.116201,19.328559
wd_Q21876919,Almásfüzitő felső vasútállomás,Almásfüzitő,Hungary,MÁV Magyar Államvasutak Zrt.,Wikidata,47.731329,18.217001
wd_Q21876917,Almásfüzitő vasútállomás,Almásfüzitő,Hungary,MÁV Magyar Államvasutak Zrt.,Wikidata,47.725301,18.262004
wd_Q22073969,Alsóboldva megállóhely,Boldva,Hungary,MÁV Magyar Államvasutak Zrt.,Wikidata,48.212608333,20.792202777
wd_Q21877047,Alsóbélatelep megállóhely,Fonyód,Hungary,MÁV Magyar Államvasutak Zrt.,Wikidata,46.724244444,17.516341666
wd_Q21876905,Alsógalla megállóhely,Tatabánya,Hungary,MÁV Magyar Államvasutak Zrt.,Wikidata,47.563365,18.424538
wd_Q22117175,Alsógyenes megállóhely,Gyenesdiás,Hungary,MÁV Magyar Államvasutak Zrt.,Wikidata,46.765944444,17.276638888
wd_Q21866909,Alsógöd megállóhely,Göd,Hungary,MÁV Magyar Államvasutak Zrt.,Wikidata,47.677952,19.134706
wd_Q116978573,Alsómajsa megállóhely,,Hungary,MÁV Magyar Államvasutak Zrt.,Wikidata,46.609294,18.401447
wd_Q22086729,Alsóméntelek megállóhely,Kecskemét,Hungary,MÁV Magyar Államvasutak Zrt.,Wikidata,46.961638888,19.579008333
wd_Q22117532,Alsónemesapáti megállóhely,Alsónemesapáti,Hungary,MÁV Magyar Államvasutak Zrt.,Wikidata,46.854247222,16.936411111
wd_Q21997993,Alsónyék megállóhely,Alsónyék,Hungary,MÁV Magyar Államvasutak Zrt.,Wikidata,46.199353,18.738207
wd_Q21888109,Alsórönök vasútállomás,Rönök,Hungary,Győr–Sopron–Ebenfurti Vasút,Wikidata,46.96426,16.378158
wd_Q22091776,Alsóörs vasútállomás,Alsóörs,Hungary,MÁV Magyar Államvasutak Zrt.,Wikidata,46.985211111,17.975905555
wd_Q22059265,Alsóúrrét megállóhely,Kecskemét,Hungary,MÁV Magyar Államvasutak Zrt.,Wikidata,46.898542,19.779728
wd_Q22227195,Ambrózfalva megállóhely,Ambrózfalva,Hungary,MÁV Magyar Államvasutak Zrt.,Wikidata,46.35305,20.740580555
wd_Q22121912,Andocs megállóhely,Andocs,Hungary,MÁV Magyar Államvasutak Zrt.,Wikidata,46.647333333,17.892194444
wd_Q22039493,Andornaktálya megállóhely,Andornaktálya,Hungary,MÁV Magyar Államvasutak Zrt.,Wikidata,47.852351,20.40216
wd_Q22115854,Andráshida vasútállomás,Andráshida,Hungary,MÁV Magyar Államvasutak Zrt.,Wikidata,46.862580555,16.779361111
wd_Q3095635,Angyalföld vasútállomás,Budapest XIII. kerülete,Hungary,MÁV Magyar Államvasutak Zrt.,Wikidata,47.55,19.0892
wd_Q25835899,Angyalisziget,Szigetszentmárton,Hungary,MÁV-HÉV Helyiérdekű Vasút Zrt.,Wikidata,47.199909,18.944957
wd_Q22054780,Apafa vasútállomás,Debrecen,Hungary,MÁV Magyar Államvasutak Zrt.,Wikidata,47.584035,21.655774
wd_Q22056064,Apagy megállóhely,Apagy,Hungary,MÁV Magyar Államvasutak Zrt.,Wikidata,47.95385,21.939064
wd_Q22071308,Apc-Zagyvaszántó vasútállomás,Apc,Hungary,MÁV Magyar Államvasutak Zrt.,Wikidata,47.791280555,19.668138888
wd_Q102243671,Apostag vasútállomás,Apostag,Hungary,MÁV Magyar Államvasutak Zrt.,Wikidata,46.886416666,18.97775
wd_Q22227154,Apátfalva vasútállomás,Apátfalva,Hungary,MÁV Magyar Államvasutak Zrt.,Wikidata,46.175163888,20.580552777
wd_Q16010730,Aquincum,Budapest III. kerülete,Hungary,MÁV-HÉV Helyiérdekű Vasút Zrt.,Wikidata,47.56811,19.048536
wd_Q3095658,Aquincum megállóhely,Budapest III. kerülete,Hungary,MÁV Magyar Államvasutak Zrt.,Wikidata,47.5661788,19.0480768
wd_Q22077097,Aradványpuszta megállóhely,Nyíradony,Hungary,MÁV Magyar Államvasutak Zrt.,Wikidata,47.662855555,21.842711111
wd_Q2525170,Arany János utca,Budapest,Hungary,,Wikidata,47.503055555,19.054444444
wd_Q22056398,Aranyosapáti megállóhely,Aranyosapáti,Hungary,MÁV Magyar Államvasutak Zrt.,Wikidata,48.211426,22.253548
wd_Q19570095,Aranyvölgy megállóhely,Budapest III. kerülete,Hungary,MÁV Magyar Államvasutak Zrt.,Wikidata,47.575,19.014167
wd_Q31190724,Artézi fürdő metróállomás,Budapest,Hungary,,Wikidata,47.5174,19.0808
wd_Q779210,Astoria,Budapest,Hungary,,Wikidata,47.494444444,19.06
wd_Q22071387,Aszaló megállóhely,Aszaló,Hungary,MÁV Magyar Államvasutak Zrt.,Wikidata,48.220105,20.96178
wd_Q21877015,Aszód vasútállomás,Aszód,Hungary,MÁV Magyar Államvasutak Zrt.,Wikidata,47.647775,19.492439
wd_Q22091786,Aszófő vasútállomás,Aszófő,Hungary,MÁV Magyar Államvasutak Zrt.,Wikidata,46.925444444,17.832483333
wd_Q22222643,Attala megállóhely,Attala,Hungary,MÁV Magyar Államvasutak Zrt.,Wikidata,46.368658333,18.067452777
005510009,BUDAPEST*,Budapest,Hungary,MÁV,known_stations,,
005513007,BUDAPEST-DÉLI,Budapest,Hungary,MÁV,known_stations,,
005513005,BUDAPEST-KELETI,Budapest,Hungary,MÁV,known_stations,,
005513006,BUDAPEST-NYUGATI,Budapest,Hungary,MÁV,known_stations,,
wd_Q22003647,Babócsa vasútállomás,Babócsa,Hungary,MÁV Magyar Államvasutak Zrt.,Wikidata,46.028391,17.342501
wd_Q22092254,Badacsony megállóhely,Badacsonytomaj,Hungary,MÁV Magyar Államvasutak Zrt.,Wikidata,46.788463888,17.506477777
wd_Q22092250,Badacsonylábdihegy megállóhely,Badacsonytördemic,Hungary,MÁV Magyar Államvasutak Zrt.,Wikidata,46.790669444,17.474119444
wd_Q22092253,Badacsonytomaj vasútállomás,Badacsonytomaj,Hungary,MÁV Magyar Államvasutak Zrt.,Wikidata,46.804641666,17.518166666
wd_Q22092255,Badacsonytördemic-Szigliget vasútállomás,Badacsonytördemic,Hungary,MÁV Magyar Államvasutak Zrt.,Wikidata,46.809841666,17.468997222
wd_Q22092251,Badacsonyörs megállóhely,Badacsonytomaj,Hungary,MÁV Magyar Államvasutak Zrt.,Wikidata,46.806483333,17.529894444
wd_Q21877013,Bag megállóhely,Bag,Hungary,MÁV Magyar Államvasutak Zrt.,Wikidata,47.641183,19.471777
wd_Q22061490,Bagimajor megállóhely,Kengyel,Hungary,MÁV Magyar Államvasutak Zrt.,Wikidata,47.060255555,20.315697222
wd_Q22115855,Bagod megállóhely,Bagod,Hungary,MÁV Magyar Államvasutak Zrt.,Wikidata,46.874972222,16.746013888
wd_Q21877059,Baja vasútállomás,Baja,Hungary,MÁV Magyar Államvasutak Zrt.,Wikidata,46.187196,18.957293
wd_Q21998000,Baja-Dunafürdő megállóhely,Baja,Hungary,MÁV Magyar Államvasutak Zrt.,Wikidata,46.19313,18.921064
wd_Q114985222,Baja-Dunapart vasútállomás,Baja,Hungary,MÁV Magyar Államvasutak Zrt.,Wikidata,46.1835849,18.9272121
wd_Q1028985,Bajcsy-Zsilinszky út,Budapest,Hungary,Budapesti Közlekedési Zrt.,Wikidata,47.499444444,19.055
wd_Q2414439,Bajza utca,Budapest VI. kerülete,Hungary,Budapesti Közlekedési Zrt.,Wikidata,47.511111111,19.072222222
wd_Q22115940,Bajánsenye megállóhely,Bajánsenye,Hungary,MÁV Magyar Államvasutak Zrt.,Wikidata,46.818097222,16.358091666
wd_Q22116527,Bak vasútállomás,Bak,Hungary,MÁV Magyar Államvasutak Zrt.,Wikidata,46.732013888,16.8492
wd_Q26833612,Bakonybánk megállóhely,Bakonybánk,Hungary,MÁV Magyar Államvasutak Zrt.,Wikidata,47.471605555,17.913830555
wd_Q21876818,Bakonygyirót megállóhely,Bakonygyirót,Hungary,MÁV Magyar Államvasutak Zrt.,Wikidata,47.41611,17.811788
wd_Q21876821,Bakonypéterd megállóhely,Bakonypéterd,Hungary,MÁV Magyar Államvasutak Zrt.,Wikidata,47.474062,17.804966
wd_Q21876810,Bakonyszentlászló vasútállomás,Bakonyszentlászló,Hungary,MÁV Magyar Államvasutak Zrt.,Wikidata,47.396032,17.817652
wd_Q26831275,Bakonyszombathely megállóhely,Bakonyszombathely,Hungary,MÁV Magyar Államvasutak Zrt.,Wikidata,47.479802777,17.950155555
wd_Q21996835,Bakonysárkány vasútállomás,Bakonysárkány,Hungary,MÁV Magyar Államvasutak Zrt.,Wikidata,47.443936,18.103187
wd_Q26833677,Bakonytamási megállóhely,Bakonytamási,Hungary,MÁV Magyar Államvasutak Zrt.,Wikidata,47.414327777,17.723302777
wd_Q22056073,Baktalórántháza vasútállomás,Baktalórántháza,Hungary,MÁV Magyar Államvasutak Zrt.,Wikidata,47.988572,22.083416
wd_Q22116537,Baktüttös megállóhely,Baktüttös,Hungary,MÁV Magyar Államvasutak Zrt.,Wikidata,46.690738888,16.824716666
wd_Q17299303,Balassagyarmat vasútállomás,Balassagyarmat,Hungary,MÁV Pályaműködtetési Zrt.,Wikidata,48.071388888,19.293611111
wd_Q22091908,Balatonakali-Dörgicse vasútállomás,Balatonakali,Hungary,MÁV Magyar Államvasutak Zrt.,Wikidata,46.879783333,17.748061111
wd_Q22091058,Balatonakarattya megállóhely,Balatonakarattya,Hungary,MÁV Magyar Államvasutak Zrt.,Wikidata,47.017394444,18.167788888
wd_Q21877030,Balatonaliga vasútállomás,Balatonvilágos,Hungary,MÁV Magyar Államvasutak Zrt.,Wikidata,46.984322222,18.170758333
wd_Q22091065,Balatonalmádi vasútállomás,Balatonalmádi,Hungary,MÁV Magyar Államvasutak Zrt.,Wikidata,47.028319444,18.015044444
wd_Q22091781,Balatonarács megállóhely,Balatonfüred,Hungary,MÁV Magyar Államvasutak Zrt.,Wikidata,46.962527777,17.897538888
wd_Q21877052,Balatonberény megállóhely,Balatonberény,Hungary,MÁV Magyar Államvasutak Zrt.,Wikidata,46.713758333,17.317225
wd_Q21877044,Balatonboglár vasútállomás,Balatonboglár,Hungary,MÁV Magyar Államvasutak Zrt.,Wikidata,46.776069444,17.647241666
wd_Q22117172,Balatonederics vasútállomás,Balatonederics,Hungary,MÁV Magyar Államvasutak Zrt.,Wikidata,46.802597222,17.384488888
wd_Q22222762,Balatonfenyves GV vasútállomás,Balatonfenyves,Hungary,MÁV Magyar Államvasutak Zrt.,Wikidata,46.712463888,17.479483333
wd_Q21877049,Balatonfenyves alsó megállóhely,Balatonfenyves,Hungary,MÁV Magyar Államvasutak Zrt.,Wikidata,46.708288888,17.453838888
wd_Q21877048,Balatonfenyves vasútállomás,Balatonfenyves,Hungary,MÁV Magyar Államvasutak Zrt.,Wikidata,46.713588888,17.482625
wd_Q21877039,Balatonföldvár megállóhely,Balatonföldvár,Hungary,MÁV Magyar Államvasutak Zrt.,Wikidata,46.853280555,17.879888888
wd_Q22091782,Balatonfüred vasútállomás,Balatonfüred,Hungary,MÁV Magyar Államvasutak Zrt.,Wikidata,46.956094444,17.883091666
wd_Q22091050,Balatonfőkajár felső megállóhely,Balatonfőkajár,Hungary,MÁV Magyar Államvasutak Zrt.,Wikidata,47.031166666,18.214247222
wd_Q114985230,Balatonfőkajár megállóhely,Balatonfőkajár,Hungary,MÁV Magyar Államvasutak Zrt.,Wikidata,47.0135432,18.2034928
wd_Q22091062,Balatonfűzfő vasútállomás,Balatonfűzfő,Hungary,MÁV Magyar Államvasutak Zrt.,Wikidata,47.059866666,18.0426
wd_Q22117174,Balatongyörök megállóhely,Balatongyörök,Hungary,MÁV Magyar Államvasutak Zrt.,Wikidata,46.751966666,17.354213888
wd_Q22091060,Balatonkenese vasútállomás,Balatonkenese,Hungary,MÁV Magyar Államvasutak Zrt.,Wikidata,47.032511111,18.105494444
wd_Q57315256,Balatonkeresztúr vasútállomás,Balatonkeresztúr,Hungary,MÁV Magyar Államvasutak Zrt.,Wikidata,46.703816666,17.368713888
wd_Q21877042,Balatonlelle felső vasútállomás,Balatonlelle,Hungary,MÁV Magyar Államvasutak Zrt.,Wikidata,46.794719444,17.720105555
wd_Q21877043,Balatonlelle megállóhely,Balatonlelle,Hungary,MÁV Magyar Államvasutak Zrt.,Wikidata,46.787544444,17.694533333
wd_Q21877051,Balatonmáriafürdő vasútállomás,Balatonmáriafürdő,Hungary,MÁV Magyar Államvasutak Zrt.,Wikidata,46.704208333,17.375255555
wd_Q22092243,Balatonrendes megállóhely,Balatonrendes,Hungary,MÁV Magyar Államvasutak Zrt.,Wikidata,46.825497222,17.584077777
wd_Q21877041,Balatonszemes vasútállomás,Balatonszemes,Hungary,MÁV Magyar Államvasutak Zrt.,Wikidata,46.811913888,17.776508333
wd_Q21876861,Balatonszentgyörgy vasútállomás,Balatonszentgyörgy,Hungary,MÁV Magyar Államvasutak Zrt.,Wikidata,46.692616666,17.28885
wd_Q114985241,Balatonszentmihály megállóhely,Balatongyörök,Hungary,MÁV Magyar Államvasutak Zrt.,Wikidata,46.7544473,17.3339313
wd_Q22091808,Balatonszepezd megállóhely,Balatonszepezd,Hungary,MÁV Magyar Államvasutak Zrt.,Wikidata,46.851169444,17.663286111
wd_Q21877040,Balatonszárszó vasútállomás,Balatonszárszó,Hungary,MÁV Magyar Államvasutak Zrt.,Wikidata,46.832080555,17.830355555
wd_Q21877035,Balatonszéplak alsó megállóhely,Zamárdi,Hungary,MÁV Magyar Államvasutak Zrt.,Wikidata,46.891858333,17.993288888
wd_Q21877034,Balatonszéplak felső megállóhely,Siófok,Hungary,MÁV Magyar Államvasutak Zrt.,Wikidata,46.897944444,18.018027777
wd_Q22091897,Balatonudvari megállóhely,Balatonudvari,Hungary,MÁV Magyar Államvasutak Zrt.,Wikidata,46.904611111,17.807705555
wd_Q22119579,Balatonvilágos megállóhely,Balatonvilágos,Hungary,MÁV Magyar Államvasutak Zrt.,Wikidata,46.963852777,18.157555555
wd_Q57315257,Balatonújlak megállóhely,Balatonújlak,Hungary,MÁV Magyar Államvasutak Zrt.,Wikidata,46.675205555,17.397541666
wd_Q116978576,Balffürdő megállóhely,Sopron,Hungary,Győr–Sopron–Ebenfurti Vasút,Wikidata,47.644067,16.6543341
wd_Q131169453,Balinka vasútállomás,Balinka,Hungary,MÁV Magyar Államvasutak Zrt.,Wikidata,47.319519,18.154175
wd_Q116978577,Balkány megállóhely,,Hungary,MÁV Magyar Államvasutak Zrt.,Wikidata,47.771501,21.848971
wd_Q22669712,Ballószög megállóhely,Ballószög,Hungary,MÁV Magyar Államvasutak Zrt.,Wikidata,46.857480555,19.571488888
wd_Q22076180,Balmazújváros vasútállomás,Balmazújváros,Hungary,MÁV Magyar Államvasutak Zrt.,Wikidata,47.613869444,21.347963888
wd_Q22031445,Balotaszállás vasútállomás,Balotaszállás,Hungary,MÁV Magyar Államvasutak Zrt.,Wikidata,46.349329,19.533122
wd_Q116978579,Balsa Tiszapart vasútállomás,Balsa,Hungary,MÁV Magyar Államvasutak Zrt.,Wikidata,48.175972863,21.548722324
wd_Q116978578,Balsa megállóhely,,Hungary,MÁV Magyar Államvasutak Zrt.,Wikidata,,
wd_Q22160071,Balástya vasútállomás,Balástya,Hungary,MÁV Magyar Államvasutak Zrt.,Wikidata,46.413455555,20.001427777
wd_Q21876940,Baracska megállóhely,Baracska,Hungary,MÁV Magyar Államvasutak Zrt.,Wikidata,47.298402,18.754856
wd_Q22003441,Barcs felső megállóhely,Barcs,Hungary,MÁV Magyar Államvasutak Zrt.,Wikidata,45.958309,17.486156
wd_Q22003439,Barcs vasútállomás,Barcs,Hungary,MÁV Magyar Államvasutak Zrt.,Wikidata,45.951819,17.446885
wd_Q19569311,Barosstelep megállóhely,Budapest XXII. kerülete,Hungary,MÁV Magyar Államvasutak Zrt.,Wikidata,47.398659,18.988885
wd_Q22074508,Bashalom megállóhely,Tiszaeszlár,Hungary,MÁV Magyar Államvasutak Zrt.,Wikidata,48.026194444,21.514516666
wd_Q16507935,Batthyány tér,Budapest I. kerülete,Hungary,MÁV-HÉV Helyiérdekű Vasút Zrt.,Wikidata,47.5068,19.0393
wd_Q22227455,Battonya vasútállomás,Battonya,Hungary,MÁV Magyar Államvasutak Zrt.,Wikidata,46.282,21.004
wd_Q22222638,Baté vasútállomás,Baté,Hungary,MÁV Magyar Államvasutak Zrt.,Wikidata,46.355605555,17.960902777
wd_Q22117173,Becehegy megállóhely,Balatongyörök,Hungary,MÁV Magyar Államvasutak Zrt.,Wikidata,46.776063888,17.372622222
wd_Q22025884,Becske alsó megállóhely,Becske,Hungary,MÁV Magyar Államvasutak Zrt.,Wikidata,47.895622,19.36726
wd_Q63301802,Becske vasútállomás,Becske,Hungary,,Wikidata,47.9255812,19.3477335
wd_Q22002086,Belecska megállóhely,Belecska,Hungary,MÁV Magyar Államvasutak Zrt.,Wikidata,46.639598,18.411317
wd_Q22138356,Beled vasútállomás,Beled,Hungary,Győr–Sopron–Ebenfurti Vasút,Wikidata,47.466652777,17.084683333
wd_Q22222666,Beleg vasútállomás,Beleg,Hungary,MÁV Magyar Államvasutak Zrt.,Wikidata,46.316655555,17.420586111
wd_Q22121261,Belezna megállóhely,Murakeresztúr,Hungary,MÁV Magyar Államvasutak Zrt.,Wikidata,46.326325,16.877519444
wd_Q21997553,Belsőbáránd megállóhely,Aba,Hungary,MÁV Magyar Államvasutak Zrt.,Wikidata,47.102856,18.499737
wd_Q22227171,Belsőkamaráspuszta megállóhely,Mezőhegyes,Hungary,MÁV Magyar Államvasutak Zrt.,Wikidata,46.341291666,20.848508333
wd_Q22227453,Belsőperegpuszta megállóhely,Mezőhegyes,Hungary,MÁV Magyar Államvasutak Zrt.,Wikidata,46.320283333,20.906697222
wd_Q22047647,Berekfürdő megállóhely,Karcag,Hungary,MÁV Magyar Államvasutak Zrt.,Wikidata,47.374923,20.827246
wd_Q116978582,Beremendi Cementmű vasútállomás,Nagyharsány,Hungary,MÁV Magyar Államvasutak Zrt.,Wikidata,45.832239,18.395011
wd_Q22071960,Berente megállóhely,Berente,Hungary,MÁV Magyar Államvasutak Zrt.,Wikidata,48.238894444,20.672463888
wd_Q119302673,Berente-Rendező vasútállomás,Berente,Hungary,BorsodChem,Wikidata,48.242357642,20.66803855
wd_Q21898143,Berettyóújfalu vasútállomás,Berettyóújfalu,Hungary,MÁV Magyar Államvasutak Zrt.,Wikidata,47.21216,21.532141
wd_Q116978583,Berhida megállóhely,,Hungary,MÁV Magyar Államvasutak Zrt.,Wikidata,47.104814,18.129338
wd_Q22023371,Berkenye megállóhely,Berkenye,Hungary,MÁV Magyar Államvasutak Zrt.,Wikidata,47.885529,19.071312
wd_Q22003650,Berzence vasútállomás,Berzence,Hungary,MÁV Magyar Államvasutak Zrt.,Wikidata,46.201187,17.143537
wd_Q21891719,Bezenye megállóhely,Rajka,Hungary,Győr–Sopron–Ebenfurti Vasút,Wikidata,47.973388,17.20778
wd_Q25834304,Beöthy utca,Budapest IX. kerülete,Hungary,MÁV-HÉV Helyiérdekű Vasút Zrt.,Wikidata,47.460662,19.081884
wd_Q21876893,Biatorbágy vasútállomás,Biatorbágy,Hungary,MÁV Magyar Államvasutak Zrt.,Wikidata,47.480494,18.834032
wd_Q22046606,Bicere vasútállomás,Gyula,Hungary,MÁV Magyar Államvasutak Zrt.,Wikidata,46.659809,21.179498
wd_Q21876898,Bicske alsó megállóhely,Bicske,Hungary,MÁV Magyar Államvasutak Zrt.,Wikidata,47.486712,18.643327
wd_Q21876886,Bicske vasútállomás,Bicske,Hungary,MÁV Magyar Államvasutak Zrt.,Wikidata,47.484084,18.61875
wd_Q21998914,Bicsérd vasútállomás,Bicsérd,Hungary,MÁV Magyar Államvasutak Zrt.,Wikidata,46.041042,18.053953
wd_Q21877073,Biharkeresztes vasútállomás,Biharkeresztes,Hungary,MÁV Magyar Államvasutak Zrt.,Wikidata,47.135506,21.721866
wd_Q22046812,Biharnagybajom vasútállomás,Biharnagybajom,Hungary,MÁV Magyar Államvasutak Zrt.,Wikidata,47.208761,21.221784
wd_Q3546888,Bikás park,Budapest XI. kerülete,Hungary,,Wikidata,47.465,19.033275
wd_Q116978584,Biri megállóhely,,Hungary,MÁV Magyar Államvasutak Zrt.,Wikidata,47.81527,21.848566
wd_Q285913,Blaha Lujza tér,Budapest,Hungary,,Wikidata,47.497222222,19.070555555
wd_Q15144461,Boba vasútállomás,Boba,Hungary,MÁV Magyar Államvasutak Zrt.,Wikidata,47.1825,17.191388888
wd_Q22116526,Bocfölde megállóhely,Bocfölde,Hungary,MÁV Magyar Államvasutak Zrt.,Wikidata,46.778258333,16.853402777
wd_Q22054782,Bocskaikert megállóhely,Bocskaikert,Hungary,MÁV Magyar Államvasutak Zrt.,Wikidata,47.640262,21.666037
wd_Q131169452,Bodajk felső megállóhely,Bodajk,Hungary,MÁV Magyar Államvasutak Zrt.,Wikidata,47.328887,18.235532
wd_Q21996832,Bodajk vasútállomás,Bodajk,Hungary,MÁV Magyar Államvasutak Zrt.,Wikidata,47.318112,18.251864
wd_Q116978585,Bodakajtor-Felsőszentiván megállóhely,,Hungary,MÁV Magyar Államvasutak Zrt.,Wikidata,47.072405,18.510077
wd_Q22122283,Bodolyabér megállóhely,Bodolyabér,Hungary,MÁV Magyar Államvasutak Zrt.,Wikidata,46.199983333,18.128933333
wd_Q22074885,Bodrogkeresztúr vasútállomás,Bodrogkisfalud,Hungary,MÁV Magyar Államvasutak Zrt.,Wikidata,48.175277777,21.3539
wd_Q22074889,Bodrogolaszi megállóhely,Bodrogolaszi,Hungary,MÁV Magyar Államvasutak Zrt.,Wikidata,48.285441666,21.512113888
wd_Q116978588,Bogdása megállóhely,Bogdása,Hungary,MÁV Magyar Államvasutak Zrt.,Wikidata,45.869419,17.782101
wd_Q116978586,Bogárzó megállóhely,Orosháza,Hungary,MÁV Magyar Államvasutak Zrt.,Wikidata,46.540713,20.677296
wd_Q26833729,Bokod megállóhely,Dad,Hungary,MÁV Magyar Államvasutak Zrt.,Wikidata,47.516416,18.271341
wd_Q22075341,Boldogkőváralja megállóhely,Boldogkőváralja,Hungary,MÁV Magyar Államvasutak Zrt.,Wikidata,48.344980555,21.208738888
wd_Q22073970,Boldva megállóhely,Boldva,Hungary,MÁV Magyar Államvasutak Zrt.,Wikidata,48.223171,20.790591
wd_Q22222671,Bolhás megállóhely,Bolhás,Hungary,MÁV Magyar Államvasutak Zrt.,Wikidata,46.282116666,17.275413888
wd_Q22121913,Bonnya megállóhely,Kisbárapáti,Hungary,MÁV Magyar Államvasutak Zrt.,Wikidata,46.609113888,17.910744444
wd_Q131934599,Bonyhád vasútállomás,Bonyhád,Hungary,,Wikidata,46.295663,18.533394
wd_Q22059421,Borsihalom megállóhely,Tiszaalpár,Hungary,MÁV Magyar Államvasutak Zrt.,Wikidata,46.769864,19.91286
wd_Q22073974,Borsodszirák megállóhely,Borsodszirák,Hungary,MÁV Magyar Államvasutak Zrt.,Wikidata,48.258738888,20.771013888
wd_Q22023393,Borsosberény megállóhely,Borsosberény,Hungary,MÁV Magyar Államvasutak Zrt.,Wikidata,47.973256,19.094736
wd_Q25840054,Boráros tér,Budapest IX. kerülete,Hungary,MÁV-HÉV Helyiérdekű Vasút Zrt.,Wikidata,47.479169444,19.066511111
wd_Q48338998,Buda-Császárfürdő,Budapest II. kerülete,Hungary,,Wikidata,47.520555555,19.038333333
wd_Q22115858,Budafa megállóhely,Zalalövő,Hungary,MÁV Magyar Államvasutak Zrt.,Wikidata,46.851580555,16.625008333
wd_Q3096085,Budafok megállóhely,Budapest XXII. kerülete,Hungary,MÁV Magyar Államvasutak Zrt.,Wikidata,47.4238,19.0413
wd_Q96029894,Budai indóház,Budapest I. kerülete,Hungary,,Wikidata,47.499444444,19.025
wd_Q21921447,Budai út megállóhely,Cegléd,Hungary,MÁV Magyar Államvasutak Zrt.,Wikidata,47.208424,19.732378
wd_Q16507993,Budakalász,Budakalász,Hungary,MÁV-HÉV Helyiérdekű Vasút Zrt.,Wikidata,47.6162,19.0549
wd_Q16507994,"Budakalász, Lenfonó",Budakalász,Hungary,MÁV-HÉV Helyiérdekű Vasút Zrt.,Wikidata,47.621666666,19.046666666
wd_Q112811000,Budapest-Dunapart teherpályaudvar,Budapest IX. kerülete,Hungary,,Wikidata,47.472,19.07033
wd_Q1102875,Budapest-Józsefváros pályaudvar,Budapest VIII. kerülete,Hungary,,Wikidata,47.4908,19.0911
wd_Q800998,Budapest-Kelenföld vasútállomás,Budapest XI. kerülete,Hungary,MÁV Magyar Államvasutak Zrt.,Wikidata,47.465,19.02166667
wd_Q841167,Budapest-Keleti pályaudvar,Budapest,Hungary,MÁV Magyar Államvasutak Zrt.,Wikidata,47.500555555,19.083611111
wd_Q3096087,Budatétény megállóhely,Budapest XXII. kerülete,Hungary,MÁV Magyar Államvasutak Zrt.,Wikidata,47.4051,19.0165
wd_Q21876888,Budaörs vasútállomás,Budaörs,Hungary,MÁV Magyar Államvasutak Zrt.,Wikidata,47.447525,18.964999
wd_Q116978590,Bugac felső vasútállomás,Bugac,Hungary,MÁV Magyar Államvasutak Zrt.,Wikidata,46.661024549,19.659762825
wd_Q116978589,Bugac vasútállomás,Bugac,Hungary,MÁV Magyar Államvasutak Zrt.,Wikidata,46.684650416,19.676692134
wd_Q116978591,Bugacpuszta megállóhely,,Hungary,MÁV Magyar Államvasutak Zrt.,Wikidata,,
wd_Q116978592,Buj megállóhely,,Hungary,MÁV Magyar Államvasutak Zrt.,Wikidata,,
wd_Q22121890,Bábonymegyer megállóhely,Bábonymegyer,Hungary,MÁV Magyar Államvasutak Zrt.,Wikidata,46.746133333,18.110088888
wd_Q22039035,Bácsalmás vasútállomás,Bácsalmás,Hungary,MÁV Magyar Államvasutak Zrt.,Wikidata,46.11764,19.346516
wd_Q22038931,Bácsbokod-Bácsborsód vasútállomás,Bácsbokod,Hungary,MÁV Magyar Államvasutak Zrt.,Wikidata,46.115571,19.160076
wd_Q116978575,Bágyogszovát megállóhely,,Hungary,Győr–Sopron–Ebenfurti Vasút,Wikidata,47.623322,17.321887
wd_Q22047676,Bánhalma-Halastó megállóhely,Kunhegyes,Hungary,MÁV Magyar Államvasutak Zrt.,Wikidata,47.324905,20.665452
wd_Q21877375,Bánhida megállóhely,Tatabánya,Hungary,MÁV Magyar Államvasutak Zrt.,Wikidata,47.573837,18.371953
wd_Q97656395,Bánk megállóhely,Bánk,Hungary,MÁV Magyar Államvasutak Zrt.,Wikidata,47.9210568,19.1849979
wd_Q22227178,Bánkút megállóhely,Medgyesegyháza,Hungary,MÁV Magyar Államvasutak Zrt.,Wikidata,46.505441666,21.093877777
wd_Q22072961,Bánréve vasútállomás,Bánréve,Hungary,MÁV Magyar Államvasutak Zrt.,Wikidata,48.299844444,20.351972222
wd_Q22072965,Bánrévei Vízmű megállóhely,Serényfalva,Hungary,MÁV Magyar Államvasutak Zrt.,Wikidata,48.283877777,20.368080555
wd_Q21898142,Báránd vasútállomás,Báránd,Hungary,MÁV Magyar Államvasutak Zrt.,Wikidata,47.299766,21.235269
wd_Q21877058,Bátaszék vasútállomás,Bátaszék,Hungary,MÁV Magyar Államvasutak Zrt.,Wikidata,46.202455,18.71561
wd_Q16507937,Békásmegyer,Budapest III. kerülete,Hungary,MÁV-HÉV Helyiérdekű Vasút Zrt.,Wikidata,47.5985,19.0549
wd_Q94782776,Békés vasútállomás,Békés,Hungary,MÁV Magyar Államvasutak Zrt.,Wikidata,46.772641666,21.122375
wd_Q21871991,Békéscsaba vasútállomás,Békéscsaba,Hungary,MÁV Magyar Államvasutak Zrt.,Wikidata,46.669743,21.081495
wd_Q22040990,Bélapátfalva vasútállomás,Bélapátfalva,Hungary,MÁV Magyar Államvasutak Zrt.,Wikidata,48.055869,20.340643
wd_Q116978581,Bélapátfalvai Cementgyár megállóhely,,Hungary,MÁV Magyar Államvasutak Zrt.,Wikidata,48.057591,20.353008
wd_Q22040987,Bélapátfalvi Cementgyár megállóhely,Bélapátfalva,Hungary,MÁV Magyar Államvasutak Zrt.,Wikidata,48.058409,20.355583
wd_Q21877046,Bélatelep megállóhely,Fonyód,Hungary,MÁV Magyar Államvasutak Zrt.,Wikidata,46.737641666,17.534913888
wd_Q22003646,Bélavár megállóhely,Bélavár,Hungary,MÁV Magyar Államvasutak Zrt.,Wikidata,46.122928,17.207832
wd_Q22073984,Bódvaszilas vasútállomás,Bódvaszilas,Hungary,MÁV Magyar Államvasutak Zrt.,Wikidata,48.537488888,20.737930555
wd_Q22002388,Bóly megállóhely,Bóly,Hungary,MÁV Magyar Államvasutak Zrt.,Wikidata,45.937634,18.538342
wd_Q57315249,Böhönye megállóhely,Böhönye,Hungary,MÁV Magyar Államvasutak Zrt.,Wikidata,46.409752777,17.406675
wd_Q102108483,Bölcske megállóhely,Bölcske,Hungary,MÁV Magyar Államvasutak Zrt.,Wikidata,46.729638888,18.926555555
wd_Q21997324,Börgönd vasútállomás,Székesfehérvár,Hungary,MÁV Magyar Államvasutak Zrt.,Wikidata,47.140054,18.515118
wd_Q22031390,Bösztör vasútállomás,Kunszentmiklós,Hungary,MÁV Magyar Államvasutak Zrt.,Wikidata,46.938316,19.159695
wd_Q22117383,Búcsúszentlászló vasútállomás,Búcsúszentlászló,Hungary,MÁV Magyar Államvasutak Zrt.,Wikidata,46.792336111,16.932722222
wd_Q22073978,Büdöskútpuszta megállóhely,Szendrő,Hungary,MÁV Magyar Államvasutak Zrt.,Wikidata,48.374077777,20.725594444
wd_Q21887973,Bük vasútállomás,Bük,Hungary,Győr–Sopron–Ebenfurti Vasút,Wikidata,47.388626,16.752152
wd_Q116978593,Bükkábrány vasútállomás,Bükkábrány,Hungary,MÁV Magyar Államvasutak Zrt.,Wikidata,47.869885,20.685039
wd_Q21998913,Bükkösd vasútállomás,Bükkösd,Hungary,MÁV Magyar Államvasutak Zrt.,Wikidata,46.113045,17.999445
wd_Q22138760,Bősárkány vasútállomás,Bősárkány,Hungary,Győr–Sopron–Ebenfurti Vasút,Wikidata,47.685438888,17.234152777
wd_Q21997748,Cece vasútállomás,Cece,Hungary,MÁV Magyar Államvasutak Zrt.,Wikidata,46.772291,18.623613
wd_Q4746650,Cegléd vasútállomás,Cegléd,Hungary,MÁV Magyar Államvasutak Zrt.,Wikidata,47.1831,19.8053
wd_Q21921444,Ceglédbercel megállóhely,Ceglédbercel,Hungary,MÁV Magyar Államvasutak Zrt.,Wikidata,47.216291,19.657681
wd_Q21921446,Ceglédbercel-Cserő vasútállomás,Ceglédbercel,Hungary,MÁV Magyar Államvasutak Zrt.,Wikidata,47.210838,19.686085
wd_Q22159966,Ceglédi szállások megállóhely,Cegléd,Hungary,MÁV Magyar Államvasutak Zrt.,Wikidata,47.168366666,19.826394444
wd_Q21876421,Celldömölk vasútállomás,Celldömölk,Hungary,MÁV Magyar Államvasutak Zrt.,Wikidata,47.261236111,17.152733333
wd_Q116978594,Celldömölk-Rendező vasútállomás,Celldömölk,Hungary,MÁV Magyar Államvasutak Zrt.,Wikidata,47.248149,17.169436
wd_Q116978596,Center alsó megállóhely,,Hungary,MÁV Magyar Államvasutak Zrt.,Wikidata,48.26239,20.357054
wd_Q116978595,Center vasútállomás,Ózd,Hungary,MÁV Magyar Államvasutak Zrt.,Wikidata,48.25269,20.344936
wd_Q116978597,Cibak megállóhely,,Hungary,MÁV Magyar Államvasutak Zrt.,Wikidata,47.75862,21.84721
wd_Q21998442,Cikó megállóhely,Cikó,Hungary,MÁV Magyar Államvasutak Zrt.,Wikidata,46.263462,18.557368
wd_Q25385512,Cinkota,Budapest XVI. kerülete,Hungary,MÁV-HÉV Helyiérdekű Vasút Zrt.,Wikidata,47.519730555,19.218008333
wd_Q25840301,Cinkota alsó,Budapest XVI. kerülete,Hungary,MÁV-HÉV Helyiérdekű Vasút Zrt.,Wikidata,47.526369444,19.221002777
wd_Q2523443,Corvin-negyed,Budapest,Hungary,,Wikidata,47.485833333,19.07
wd_Q22227361,Csabacsűd felső megállóhely,Csabacsűd,Hungary,MÁV Magyar Államvasutak Zrt.,Wikidata,46.829227777,20.649283333
wd_Q22227360,Csabacsűd vasútállomás,Csabacsűd,Hungary,MÁV Magyar Államvasutak Zrt.,Wikidata,46.8228,20.663252777
wd_Q104771351,Csajág felső megállóhely,Csajág,Hungary,MÁV Magyar Államvasutak Zrt.,Wikidata,47.043458,18.179359
wd_Q22091054,Csajág vasútállomás,Csajág,Hungary,MÁV Magyar Államvasutak Zrt.,Wikidata,47.033763888,18.186183333
wd_Q22227158,Csanádpalota megállóhely,Csanádpalota,Hungary,MÁV Magyar Államvasutak Zrt.,Wikidata,46.235983333,20.732566666
wd_Q21996125,Csengele vasútállomás,Kistelek,Hungary,MÁV Magyar Államvasutak Zrt.,Wikidata,46.538347,19.908969
wd_Q22078563,Csenger vasútállomás,Csenger,Hungary,MÁV Magyar Államvasutak Zrt.,Wikidata,47.82625,22.666527777
wd_Q22031525,Csengőd vasútállomás,Csengőd,Hungary,MÁV Magyar Államvasutak Zrt.,Wikidata,46.717464,19.27451
wd_Q25840081,Csepel,Budapest XXI. kerülete,Hungary,MÁV-HÉV Helyiérdekű Vasút Zrt.,Wikidata,47.421741666,19.066302777
wd_Q35142698,"Csepel, korzó",Budapest XXI. kerülete,Hungary,,Wikidata,47.432277777,19.067833333
wd_Q21998912,Cserdi-Helesfa megállóhely,Cserdi,Hungary,MÁV Magyar Államvasutak Zrt.,Wikidata,46.085506,17.987435
wd_Q22002092,Csibrák megállóhely,Csibrák,Hungary,MÁV Magyar Államvasutak Zrt.,Wikidata,46.466243,18.335559
wd_Q116978600,Csikóstöttös megállóhely,,Hungary,MÁV Magyar Államvasutak Zrt.,Wikidata,46.337108,18.152607
wd_Q21998393,Csikóstőttős megállóhely,Csikóstőttős,Hungary,,Wikidata,46.337103,18.152788
wd_Q16507992,Csillaghegy,Budapest III. kerülete,Hungary,MÁV-HÉV Helyiérdekű Vasút Zrt.,Wikidata,47.585764,19.044734
wd_Q23292616,Csillebérc vasútállomás,Budapest,Hungary,MÁV Magyar Államvasutak Zrt.,Wikidata,47.4981,18.961691666
wd_Q22074423,Csincse megállóhely,Csincse,Hungary,MÁV Magyar Államvasutak Zrt.,Wikidata,47.890794444,20.763905555
wd_Q107392219,Csisztafürdő vasútállomás,Buzsák,Hungary,MÁV Magyar Államvasutak Zrt.,Wikidata,46.682141,17.560995
wd_Q22091059,Csittényhegy megállóhely,Balatonakarattya,Hungary,MÁV Magyar Államvasutak Zrt.,Wikidata,47.025302777,18.137508333
wd_Q22071389,Csobád megállóhely,Csobád,Hungary,MÁV Magyar Államvasutak Zrt.,Wikidata,48.277242,21.034076
wd_Q102245605,Csokvaomány megállóhely,Csokvaomány,Hungary,MÁV Magyar Államvasutak Zrt.,Wikidata,48.165472222,20.39825
wd_Q22222635,Csoma-Szabadi vasútállomás,Csoma,Hungary,MÁV Magyar Államvasutak Zrt.,Wikidata,46.36655,18.045025
wd_Q21869579,Csomád vasútállomás,Fót,Hungary,MÁV Magyar Államvasutak Zrt.,Wikidata,47.635584,19.22289
wd_Q22043406,Csongrád alsó megállóhely,Csongrád,Hungary,MÁV Magyar Államvasutak Zrt.,Wikidata,46.711414,20.12778
wd_Q22043407,Csongrád vasútállomás,Csongrád,Hungary,MÁV Magyar Államvasutak Zrt.,Wikidata,46.704418,20.140379
wd_Q22043403,Csongrádi úti tanyák megállóhely,Kiskunfélegyháza,Hungary,MÁV Magyar Államvasutak Zrt.,Wikidata,46.690207,19.922862
wd_Q22091777,Csopak megállóhely,Csopak,Hungary,MÁV Magyar Államvasutak Zrt.,Wikidata,46.974544444,17.931166666
wd_Q21876823,Csorna vasútállomás,Csorna,Hungary,Győr–Sopron–Ebenfurti Vasút,Wikidata,47.602058,17.24931
wd_Q22044063,Csorvás alsó megállóhely,Gerendás,Hungary,MÁV Magyar Államvasutak Zrt.,Wikidata,46.635132,20.889752
wd_Q22044062,Csorvás vasútállomás,Csorvás,Hungary,MÁV Magyar Államvasutak Zrt.,Wikidata,46.623509,20.840883
wd_Q21922911,Csugar megállóhely,Mezőtúr,Hungary,MÁV Magyar Államvasutak Zrt.,Wikidata,47.050295,20.54139
wd_Q22222673,Csurgó vasútállomás,Csurgó,Hungary,MÁV Magyar Államvasutak Zrt.,Wikidata,46.261180555,17.0916
wd_Q21888107,Csákánydoroszló vasútállomás,Csákánydoroszló,Hungary,Győr–Sopron–Ebenfurti Vasút,Wikidata,46.978331,16.499684
wd_Q22138354,Csánig megállóhely,Csánig,Hungary,Győr–Sopron–Ebenfurti Vasút,Wikidata,47.430305555,17.026055555
wd_Q116978598,Csányoszró megállóhely,Csányoszró,Hungary,MÁV Magyar Államvasutak Zrt.,Wikidata,45.884316,17.909856
wd_Q21877078,Csárdaszállás vasútállomás,Csárdaszállás,Hungary,MÁV Magyar Államvasutak Zrt.,Wikidata,46.862308,20.930047
wd_Q26833719,Császár megállóhely,Császár,Hungary,MÁV Magyar Államvasutak Zrt.,Wikidata,47.508536111,18.149422222
wd_Q116978599,Császárszállás vasútállomás,Nyíregyháza,Hungary,MÁV Magyar Államvasutak Zrt.,Wikidata,47.888413,21.715287
wd_Q102145253,Csémpuszta megállóhely,Csém,Hungary,MÁV Magyar Államvasutak Zrt.,Wikidata,47.704444444,18.106333333
wd_Q22059471,Csépa megállóhely,Csépa,Hungary,MÁV Magyar Államvasutak Zrt.,Wikidata,46.812454,20.134959
wd_Q21996837,Csókakő megállóhely,Csókakő,Hungary,MÁV Magyar Államvasutak Zrt.,Wikidata,47.329939,18.237649
wd_Q116978601,Csór-Nádasdladány vasútállomás,Várpalota,Hungary,MÁV Magyar Államvasutak Zrt.,Wikidata,47.174054,18.220406
wd_Q22116524,Csömödér-Páka vasútállomás,Csömödér,Hungary,MÁV Magyar Államvasutak Zrt.,Wikidata,46.607825,16.641841666
wd_Q25840221,Csömör,Csömör,Hungary,MÁV-HÉV Helyiérdekű Vasút Zrt.,Wikidata,47.545077777,19.224947222
wd_Q21869606,Csörög megállóhely,Csörög,Hungary,MÁV Magyar Államvasutak Zrt.,Wikidata,47.735969,19.196349
005516001,DEBRECEN,Debrecen,Hungary,MÁV,known_stations,,
wd_Q21876117,Dabas vasútállomás,Dabas,Hungary,MÁV Magyar Államvasutak Zrt.,Wikidata,47.194736,19.329077
wd_Q22115692,Dabronc megállóhely,Dabronc,Hungary,MÁV Magyar Államvasutak Zrt.,Wikidata,47.025847222,17.166938888
wd_Q26833717,Dad megállóhely,Dad,Hungary,MÁV Magyar Államvasutak Zrt.,Wikidata,47.523130555,18.227891666
wd_Q22003448,Darány vasútállomás,Darány,Hungary,MÁV Magyar Államvasutak Zrt.,Wikidata,45.992187,17.598578
wd_Q22121895,Daránypuszta megállóhely,Som,Hungary,MÁV Magyar Államvasutak Zrt.,Wikidata,46.766713888,18.146941666
wd_Q1215247,Debrecen vasútállomás,Debrecen,Hungary,MÁV Magyar Államvasutak Zrt.,Wikidata,47.520555555,21.628055555
wd_Q22054773,Debrecen-Csapókert megállóhely,Debrecen,Hungary,MÁV Magyar Államvasutak Zrt.,Wikidata,47.540477,21.647921
wd_Q22076758,Debrecen-Szabadságtelep megállóhely,Debrecen,Hungary,MÁV Magyar Államvasutak Zrt.,Wikidata,47.527658333,21.658708333
wd_Q21997812,Decs vasútállomás,Decs,Hungary,MÁV Magyar Államvasutak Zrt.,Wikidata,46.283844,18.756065
wd_Q22023391,Dejtár vasútállomás,Dejtár,Hungary,MÁV Magyar Államvasutak Zrt.,Wikidata,48.045511,19.19643
wd_Q22054864,Demecser vasútállomás,Demecser,Hungary,MÁV Magyar Államvasutak Zrt.,Wikidata,48.111633,21.926905
wd_Q22057713,Derecske megállóhely,Derecske,Hungary,MÁV Magyar Államvasutak Zrt.,Wikidata,47.364033,21.583308
wd_Q22057717,Derecske-Vásártér megállóhely,Derecske,Hungary,MÁV Magyar Államvasutak Zrt.,Wikidata,47.351569,21.581032
wd_Q22227134,Deszk megállóhely,Deszk,Hungary,MÁV Magyar Államvasutak Zrt.,Wikidata,46.209994444,20.246408333
wd_Q22116498,Devecser vasútállomás,Devecser,Hungary,MÁV Magyar Államvasutak Zrt.,Wikidata,47.112297222,17.435727777
wd_Q1028696,Deák Ferenc tér,Budapest V. kerülete,Hungary,Budapesti Közlekedési Zrt.,Wikidata,47.4975,19.054722222
wd_Q21876961,Dinnyés megállóhely,Gárdony,Hungary,MÁV Magyar Államvasutak Zrt.,Wikidata,47.180408,18.562646
wd_Q116978602,Diósgyőr-Vasgyár vasútállomás,Miskolc,Hungary,MÁV Magyar Államvasutak Zrt.,Wikidata,48.091071,20.750482
wd_Q21877021,Diósjenő vasútállomás,Diósjenő,Hungary,MÁV Magyar Államvasutak Zrt.,Wikidata,47.940068,19.04961
wd_Q116978603,Dobaipuszta megállóhely,Komádi,Hungary,MÁV Magyar Államvasutak Zrt.,Wikidata,46.975262,21.453991
wd_Q98398756,Dombaytó megállóhely,Pécsvárad,Hungary,MÁV Magyar Államvasutak Zrt.,Wikidata,46.145161111,18.399313888
wd_Q22077100,Dombostanya megállóhely,Debrecen,Hungary,MÁV Magyar Államvasutak Zrt.,Wikidata,47.602894444,21.706513888
wd_Q116978604,Dombrád megállóhely,,Hungary,MÁV Magyar Államvasutak Zrt.,Wikidata,,
wd_Q22222633,Dombóvár alsó vasútállomás,Dombóvár,Hungary,MÁV Magyar Államvasutak Zrt.,Wikidata,46.363794444,18.134072222
wd_Q19953491,Dombóvár vasútállomás,Dombóvár,Hungary,MÁV Magyar Államvasutak Zrt.,Wikidata,46.370043,18.149514
wd_Q19960774,Dorog vasútállomás,Dorog,Hungary,MÁV Magyar Államvasutak Zrt.,Wikidata,47.723341666,18.732894444
wd_Q116978606,Drávacsepely megállóhely,Drávacsepely,Hungary,MÁV Magyar Államvasutak Zrt.,Wikidata,45.839032,18.132328
wd_Q116978607,Drávafok megállóhely,Drávafok,Hungary,MÁV Magyar Államvasutak Zrt.,Wikidata,45.887684,17.751932
wd_Q116978608,Drávatamási megállóhely,Drávatamási,Hungary,MÁV Magyar Államvasutak Zrt.,Wikidata,45.962642,17.579309
wd_Q22023388,Drégely megállóhely,Drégelypalánk,Hungary,MÁV Magyar Államvasutak Zrt.,Wikidata,48.042451,19.057012
wd_Q22023390,Drégelypalánk vasútállomás,Drégelypalánk,Hungary,MÁV Magyar Államvasutak Zrt.,Wikidata,48.054828,19.046748
wd_Q22023395,Drégelyvár megállóhely,Nagyoroszi,Hungary,MÁV Magyar Államvasutak Zrt.,Wikidata,48.002026,19.079606
wd_Q22072739,Dubicsány megállóhely,Dubicsány,Hungary,MÁV Magyar Államvasutak Zrt.,Wikidata,48.280655555,20.504508333
wd_Q26833847,Dudar megállóhely,Dudar,Hungary,MÁV Magyar Államvasutak Zrt.,Wikidata,47.305538888,17.929894444
wd_Q26833849,Dudar vasútállomás,Dudar,Hungary,MÁV Magyar Államvasutak Zrt.,Wikidata,47.296788888,17.943644444
wd_Q21996782,Dunaalmás megállóhely,Dunaalmás,Hungary,MÁV Magyar Államvasutak Zrt.,Wikidata,47.732984,18.326232
wd_Q102243729,Dunaegyháza megállóhely,Dunaegyháza,Hungary,MÁV Magyar Államvasutak Zrt.,Wikidata,46.844916666,19.004361111
wd_Q102108352,Dunaföldvár vasútállomás,Dunaföldvár,Hungary,MÁV Magyar Államvasutak Zrt.,Wikidata,46.793138888,18.912583333
wd_Q22030370,Dunaharaszti alsó megállóhely,Dunaharaszti,Hungary,MÁV Magyar Államvasutak Zrt.,Wikidata,47.340411,19.086993
wd_Q25834771,Dunaharaszti felső,Dunaharaszti,Hungary,MÁV-HÉV Helyiérdekű Vasút Zrt.,Wikidata,47.366457,19.092714
wd_Q25834777,Dunaharaszti külső,Dunaharaszti,Hungary,MÁV-HÉV Helyiérdekű Vasút Zrt.,Wikidata,47.360144,19.086401
wd_Q22030367,Dunaharaszti vasútállomás,Dunaharaszti,Hungary,MÁV Magyar Államvasutak Zrt.,Wikidata,47.352759,19.096621
wd_Q21876973,Dunai Finomító vasútállomás,Százhalombatta,Hungary,MÁV Magyar Államvasutak Zrt.,Wikidata,47.294444,18.878942
wd_Q21866889,Dunakeszi alsó megállóhely,Dunakeszi,Hungary,MÁV Magyar Államvasutak Zrt.,Wikidata,47.607549,19.128785
wd_Q21866904,Dunakeszi vasútállomás,Dunakeszi,Hungary,MÁV Magyar Államvasutak Zrt.,Wikidata,47.625803,19.136199
wd_Q21866905,Dunakeszi-Gyártelep megállóhely,Dunakeszi,Hungary,MÁV Magyar Államvasutak Zrt.,Wikidata,47.643386,19.134796
wd_Q102108679,Dunakömlőd megállóhely,Paks,Hungary,MÁV Magyar Államvasutak Zrt.,Wikidata,46.668638888,18.880583333
wd_Q102244336,Dunapataj megállóhely,Dunapataj,Hungary,MÁV Magyar Államvasutak Zrt.,Wikidata,46.646611111,19.008833333
wd_Q22030364,Dunavarsány megállóhely,Dunavarsány,Hungary,MÁV Magyar Államvasutak Zrt.,Wikidata,47.274498,19.06479
wd_Q102243583,Dunavecse vasútállomás,Dunavecse,Hungary,MÁV Magyar Államvasutak Zrt.,Wikidata,46.920305555,18.980333333
wd_Q21997274,Dunaújváros külső megállóhely,Dunaújváros,Hungary,,Wikidata,46.982897,18.903585
wd_Q21877060,Dunaújváros vasútállomás,Dunaújváros,Hungary,MÁV Magyar Államvasutak Zrt.,Wikidata,46.960656,18.914001
wd_Q116978609,Dunaújváros-Kikötő vasútállomás,Dunaújváros,Hungary,MÁV Magyar Államvasutak Zrt.,Wikidata,46.977221,18.943352
wd_Q22030371,Délegyháza vasútállomás,Délegyháza,Hungary,MÁV Magyar Államvasutak Zrt.,Wikidata,47.253581,19.060786
wd_Q2657040,Déli pályaudvar,Budapest,Hungary,,Wikidata,47.499444444,19.024722222
wd_Q22138355,Dénesfa megállóhely,Csánig,Hungary,Győr–Sopron–Ebenfurti Vasút,Wikidata,47.448747222,17.055033333
wd_Q21914405,Dévaványa vasútállomás,Dévaványa,Hungary,MÁV Magyar Államvasutak Zrt.,Wikidata,47.034252,20.94368
wd_Q22045695,Dónát megállóhely,Szentes,Hungary,MÁV Magyar Államvasutak Zrt.,Wikidata,46.669876,20.368231
wd_Q2633819,Dózsa György út,Budapest XIII. kerülete,Hungary,,Wikidata,47.5245,19.0632
wd_Q22002094,Döbrököz vasútállomás,Döbrököz,Hungary,MÁV Magyar Államvasutak Zrt.,Wikidata,46.416438,18.252956
wd_Q22030365,Dömsöd vasútállomás,Dömsöd,Hungary,MÁV Magyar Államvasutak Zrt.,Wikidata,47.110436,19.079404
wd_Q21866922,Dömösi átkelés megállóhely,Nagymaros,Hungary,MÁV Magyar Államvasutak Zrt.,Wikidata,47.770468,18.917598
wd_Q116978605,Dör megállóhely,,Hungary,Győr–Sopron–Ebenfurti Vasút,Wikidata,47.610847,17.277378
wd_Q22002127,Dúzs megállóhely,Dúzs,Hungary,MÁV Magyar Államvasutak Zrt.,Wikidata,46.49419,18.377448
wd_Q22053992,Ebes vasútállomás,Ebes,Hungary,MÁV Magyar Államvasutak Zrt.,Wikidata,47.462611,21.488646
wd_Q21924506,Ecser megállóhely,Ecser,Hungary,MÁV Magyar Államvasutak Zrt.,Wikidata,47.440568,19.314847
wd_Q2635058,Ecseri út,Budapest,Hungary,,Wikidata,47.471388888,19.11
wd_Q22073975,Edelény alsó megállóhely,Edelény,Hungary,MÁV Magyar Államvasutak Zrt.,Wikidata,48.278786111,20.760941666
wd_Q22073976,Edelény vasútállomás,Edelény,Hungary,MÁV Magyar Államvasutak Zrt.,Wikidata,48.299694444,20.749430555
wd_Q21877064,Eger vasútállomás,Eger,Hungary,MÁV Magyar Államvasutak Zrt.,Wikidata,47.89185,20.381595
wd_Q22040984,Eger-Felnémet vasútállomás,Eger,Hungary,MÁV Magyar Államvasutak Zrt.,Wikidata,47.936549,20.370654
wd_Q102245359,Eger-Rendező vasútállomás,Eger,Hungary,MÁV Magyar Államvasutak Zrt.,Wikidata,47.878805555,20.393361111
wd_Q54864587,Eger-Tihamér vasútállomás,Eger,Hungary,,Wikidata,47.888807,20.396915
wd_Q22076223,Egerfarmos megállóhely,Egerfarmos,Hungary,MÁV Magyar Államvasutak Zrt.,Wikidata,47.711516666,20.522447222
wd_Q22040983,Egervár megállóhely,Eger,Hungary,MÁV Magyar Államvasutak Zrt.,Wikidata,47.90754,20.380805
wd_Q22140066,Egervár-Vasboldogasszony vasútállomás,Vasboldogasszony,Hungary,Győr–Sopron–Ebenfurti Vasút,Wikidata,46.941886111,16.862541666
wd_Q22093547,Egyed-Rábacsanak vasútállomás,Rábacsanak,Hungary,MÁV Magyar Államvasutak Zrt.,Wikidata,47.522163888,17.316544444
wd_Q22076185,Egyek vasútállomás,Egyek,Hungary,MÁV Magyar Államvasutak Zrt.,Wikidata,47.616680555,20.883672222
wd_Q57576931,Egyetemi Tangazdaság,Szigetcsép,Hungary,Budapesti Közlekedési Zrt.,Wikidata,47.258194444,18.94925
wd_Q21888105,Egyházasrádóc vasútállomás,Egyházasrádóc,Hungary,Győr–Sopron–Ebenfurti Vasút,Wikidata,47.090958,16.619707
wd_Q22075991,Egyházerdő megállóhely,Tiszavasvári,Hungary,MÁV Magyar Államvasutak Zrt.,Wikidata,47.972497222,21.364977777
wd_Q22047686,Előhát megállóhely,Kunhegyes,Hungary,MÁV Magyar Államvasutak Zrt.,Wikidata,47.363366,20.654018
wd_Q102108190,Előszállás megállóhely,Előszállás,Hungary,MÁV Magyar Államvasutak Zrt.,Wikidata,46.832694444,18.832333333
wd_Q22074428,Emőd vasútállomás,Emőd,Hungary,MÁV Magyar Államvasutak Zrt.,Wikidata,47.930805555,20.822694444
wd_Q21890486,Enese vasútállomás,Enese,Hungary,Győr–Sopron–Ebenfurti Vasút,Wikidata,47.644153,17.424845
wd_Q116978610,Enying vasútállomás,Enying,Hungary,MÁV Magyar Államvasutak Zrt.,Wikidata,46.922909,18.257956
wd_Q22056401,Eperjeske alsó megállóhely,Eperjeske,Hungary,MÁV Magyar Államvasutak Zrt.,Wikidata,48.36057,22.190169
wd_Q116978612,Eperjeske-Rendező vasútállomás,Tiszabezdéd,Hungary,MÁV Magyar Államvasutak Zrt.,Wikidata,48.354706,22.167988
wd_Q116978611,Eperjeske-Átrakó vasútállomás,Tuzsér,Hungary,MÁV Magyar Államvasutak Zrt.,Wikidata,48.340070103,22.142830726
wd_Q21876816,Eplény vasútállomás,Eplény,Hungary,MÁV Magyar Államvasutak Zrt.,Wikidata,47.192676,17.921458
wd_Q21876975,Ercsi vasútállomás,Ercsi,Hungary,MÁV Magyar Államvasutak Zrt.,Wikidata,47.247183,18.875488
wd_Q88655700,Erdei iskola,Budapest,Hungary,Budapesti Közlekedési Zrt.,Wikidata,47.507277777,18.994555555
wd_Q22074886,Erdőbénye megállóhely,Szegilong,Hungary,MÁV Magyar Államvasutak Zrt.,Wikidata,48.218086111,21.401902777
wd_Q21869589,Erdőkertes megállóhely,Veresegyház,Hungary,MÁV Magyar Államvasutak Zrt.,Wikidata,47.66222,19.295896
wd_Q22039039,Erdőszél megállóhely,Kunfehértó,Hungary,MÁV Magyar Államvasutak Zrt.,Wikidata,46.329369,19.394855
wd_Q22047688,Erdőtelek megállóhely,Erdőtelek,Hungary,MÁV Magyar Államvasutak Zrt.,Wikidata,47.683177,20.302442
wd_Q19960780,Esztergom vasútállomás,Esztergom,Hungary,MÁV Magyar Államvasutak Zrt.,Wikidata,47.7781762,18.7432699
wd_Q19960778,Esztergom-Kertváros vasútállomás,Esztergom,Hungary,MÁV Magyar Államvasutak Zrt.,Wikidata,47.742946,18.717734
wd_Q19960779,Esztergom-Tábor megállóhely,Esztergom-Kertváros,Hungary,,Wikidata,47.750083333,18.729555555
wd_Q26833720,Ete megállóhely,Ete,Hungary,MÁV Magyar Államvasutak Zrt.,Wikidata,47.515669444,18.078111111
wd_Q21996765,Eternitgyár megállóhely,Nyergesújfalu,Hungary,MÁV Magyar Államvasutak Zrt.,Wikidata,47.755472,18.529966
wd_Q21924840,Farmos megállóhely,Farmos,Hungary,MÁV Magyar Államvasutak Zrt.,Wikidata,47.355384,19.837427
wd_Q21890488,Farád megállóhely,Farád,Hungary,Győr–Sopron–Ebenfurti Vasút,Wikidata,47.59601,17.196109
wd_Q22053977,Fegyvernek-Örményes vasútállomás,Örményes,Hungary,MÁV Magyar Államvasutak Zrt.,Wikidata,47.194404,20.557638
wd_Q22086182,Fehérgyarmat vasútállomás,Fehérgyarmat,Hungary,MÁV Magyar Államvasutak Zrt.,Wikidata,47.978838888,22.524311111
wd_Q102144277,Fehérvárcsurgó megállóhely,Fehérvárcsurgó,Hungary,MÁV Magyar Államvasutak Zrt.,Wikidata,47.285888888,18.291888888
wd_Q116978613,Feketebézseny megállóhely,,Hungary,MÁV Magyar Államvasutak Zrt.,Wikidata,46.719635,17.579186
wd_Q116978614,Feketehalom megállóhely,,Hungary,MÁV Magyar Államvasutak Zrt.,Wikidata,46.604065,19.329415
wd_Q30308612,Feldebrő megállóhely,Feldebrő,Hungary,MÁV Magyar Államvasutak Zrt.,Wikidata,47.811303,20.218782
wd_Q57315248,Felsőbogátpuszta megállóhely,Segesd,Hungary,MÁV Magyar Államvasutak Zrt.,Wikidata,46.356222222,17.37875
wd_Q26844525,Felsőgalla vasútállomás,Tatabánya,Hungary,MÁV Magyar Államvasutak Zrt.,Wikidata,47.551847222,18.448677777
wd_Q21866911,Felsőgöd megállóhely,Göd,Hungary,MÁV Magyar Államvasutak Zrt.,Wikidata,47.705479,19.143212
wd_Q22115936,Felsőjánosfa megállóhely,Felsőjánosfa,Hungary,MÁV Magyar Államvasutak Zrt.,Wikidata,46.841397222,16.543625
wd_Q116978615,Felsőkörtvélyes megállóhely,,Hungary,MÁV Magyar Államvasutak Zrt.,Wikidata,46.939599,18.595898
wd_Q21876153,Felsőlajos megállóhely,Felsőlajos,Hungary,MÁV Magyar Államvasutak Zrt.,Wikidata,47.069044,19.498275
wd_Q22121914,Felsőmocsolád megállóhely,Felsőmocsolád,Hungary,MÁV Magyar Államvasutak Zrt.,Wikidata,46.559263888,17.821638888
wd_Q22086725,Felsőméntelek megállóhely,Lajosmizse,Hungary,MÁV Magyar Államvasutak Zrt.,Wikidata,46.987016666,19.557847222
wd_Q21876077,Felsőpakony megállóhely,Felsőpakony,Hungary,MÁV Magyar Államvasutak Zrt.,Wikidata,47.343195,19.230579
wd_Q22117616,Felsőrajk vasútállomás,Felsőrajk,Hungary,MÁV Magyar Államvasutak Zrt.,Wikidata,46.666988888,16.982738888
wd_Q22071383,Felsőzsolca vasútállomás,Felsőzsolca,Hungary,MÁV Magyar Államvasutak Zrt.,Wikidata,48.08365,20.866088888
wd_Q21870140,Fenyveshegy megállóhely,Verőce,Hungary,MÁV Magyar Államvasutak Zrt.,Wikidata,47.818176,19.068332
wd_Q22117188,Fenékpuszta megállóhely,Keszthely,Hungary,MÁV Magyar Államvasutak Zrt.,Wikidata,46.711738888,17.248758333
wd_Q601096,Ferenciek tere,Budapest V. kerülete,Hungary,,Wikidata,47.4932,19.0558
wd_Q116978617,Ferencváros Keleti rendező vasútállomás,Budapest IX. kerülete,Hungary,MÁV Magyar Államvasutak Zrt.,Wikidata,47.464805555,19.091416666
wd_Q116978618,Ferencváros Nyugati rendező vasútállomás,Budapest IX. kerülete,Hungary,MÁV Magyar Államvasutak Zrt.,Wikidata,47.459702975,19.094736161
wd_Q1000474,Ferencváros vasútállomás,Budapest,Hungary,MÁV Magyar Államvasutak Zrt.,Wikidata,47.468583333,19.088555555
wd_Q3096424,Ferihegy megállóhely,Budapest XVIII. kerülete,Hungary,MÁV Magyar Államvasutak Zrt.,Wikidata,47.4374,19.2237
wd_Q21890498,Fertőboz vasútállomás,Fertőboz,Hungary,Győr–Sopron–Ebenfurti Vasút,Wikidata,47.625126,16.691552
wd_Q21876825,Fertőszentmiklós vasútállomás,Fertőszentmiklós,Hungary,Győr–Sopron–Ebenfurti Vasút,Wikidata,47.599783,16.8598
wd_Q21890523,Fertőszéplak-Fertőd megállóhely,Fertőd,Hungary,Győr–Sopron–Ebenfurti Vasút,Wikidata,47.61803,16.85067
wd_Q16507989,Filatorigát,Budapest III. kerülete,Hungary,MÁV-HÉV Helyiérdekű Vasút Zrt.,Wikidata,47.551867,19.046255
wd_Q22121260,Fityeház megállóhely,Fityeház,Hungary,MÁV Magyar Államvasutak Zrt.,Wikidata,46.379105555,16.921525
wd_Q116978619,Folyás megállóhely,Folyás,Hungary,MÁV Magyar Államvasutak Zrt.,Wikidata,47.80287,21.138701
wd_Q22075343,Fony megállóhely,Vilmány,Hungary,MÁV Magyar Államvasutak Zrt.,Wikidata,48.410952777,21.242366666
wd_Q21876865,Fonyód vasútállomás,Fonyód,Hungary,MÁV Magyar Államvasutak Zrt.,Wikidata,46.749658333,17.556433333
wd_Q21877045,Fonyódliget megállóhely,Fonyód,Hungary,MÁV Magyar Államvasutak Zrt.,Wikidata,46.759227777,17.592555555
wd_Q2632101,Forgách utca,Budapest XIII. kerülete,Hungary,,Wikidata,47.538333333,19.069166666
wd_Q22071391,Forró-Encs vasútállomás,Encs,Hungary,MÁV Magyar Államvasutak Zrt.,Wikidata,48.327541,21.117719
wd_Q26833681,Franciavágás vasútállomás,Ugod,Hungary,MÁV Magyar Államvasutak Zrt.,Wikidata,47.348558333,17.637391666
wd_Q22045697,Fábiánsebestyén megállóhely,Fábiánsebestyén,Hungary,MÁV Magyar Államvasutak Zrt.,Wikidata,46.670018,20.456555
wd_Q21997761,Fácánkert megállóhely,Fácánkert,Hungary,MÁV Magyar Államvasutak Zrt.,Wikidata,46.448891,18.735761
wd_Q22046608,Fényes megállóhely,Békéscsaba,Hungary,MÁV Magyar Államvasutak Zrt.,Wikidata,46.659985,21.165673
wd_Q22054873,Fényeslitke vasútállomás,Fényeslitke,Hungary,MÁV Magyar Államvasutak Zrt.,Wikidata,48.26742,22.107196
wd_Q116978616,Fényeslitke-Déli rendező vasútállomás,Fényeslitke,Hungary,MÁV Magyar Államvasutak Zrt.,Wikidata,48.281323,22.113125
wd_Q21869571,Fót vasútállomás,Fót,Hungary,MÁV Magyar Államvasutak Zrt.,Wikidata,47.611363,19.181819
wd_Q21869576,Fótfürdő megállóhely,Fót,Hungary,MÁV Magyar Államvasutak Zrt.,Wikidata,47.621735,19.200763
wd_Q21869574,Fótújfalu megállóhely,Fót,Hungary,MÁV Magyar Államvasutak Zrt.,Wikidata,47.614973,19.19283
wd_Q116978620,Földeák vasútállomás,Földeák,Hungary,MÁV Magyar Államvasutak Zrt.,Wikidata,46.313747,20.488309
wd_Q22091792,Fövenyes megállóhely,Balatonakali,Hungary,MÁV Magyar Államvasutak Zrt.,Wikidata,46.893536111,17.789633333
wd_Q22091043,Füle megállóhely,Füle,Hungary,MÁV Magyar Államvasutak Zrt.,Wikidata,47.050058333,18.255769444
wd_Q22031502,Fülöpszállás vasútállomás,Fülöpszállás,Hungary,MÁV Magyar Államvasutak Zrt.,Wikidata,46.821162,19.246884
wd_Q22044083,Fürjes megállóhely,Békéscsaba,Hungary,MÁV Magyar Államvasutak Zrt.,Wikidata,46.672361,21.023416
wd_Q21877063,Füzesabony vasútállomás,Füzesabony,Hungary,MÁV Magyar Államvasutak Zrt.,Wikidata,47.750706,20.412697
wd_Q22074497,Füzesbokor megállóhely,Nyíregyháza,Hungary,MÁV Magyar Államvasutak Zrt.,Wikidata,47.988797222,21.647566666
wd_Q22046811,Füzesgyarmat vasútállomás,Füzesgyarmat,Hungary,MÁV Magyar Államvasutak Zrt.,Wikidata,47.113059,21.194255
wd_Q22046809,Füzesgyarmatfürdő megállóhely,Füzesgyarmat,Hungary,MÁV Magyar Államvasutak Zrt.,Wikidata,47.093667,21.201592
wd_Q3092987,Fővám tér,Budapest,Hungary,,Wikidata,47.4871,19.0575
005519001,GYŐR,Győr,Hungary,MÁV,known_stations,,
wd_Q22086222,Gacsály megállóhely,Gacsály,Hungary,MÁV Magyar Államvasutak Zrt.,Wikidata,47.926325,22.745111111
wd_Q119451079,Gajdospuszta megállóhely,Hódmezővásárhely,Hungary,MÁV Magyar Államvasutak Zrt.,Wikidata,,
wd_Q22039101,Galambos vasútállomás,Petőfiszállás,Hungary,MÁV Magyar Államvasutak Zrt.,Wikidata,46.625185,19.801195
wd_Q22025883,Galgaguta megállóhely,Galgaguta,Hungary,MÁV Magyar Államvasutak Zrt.,Wikidata,47.846333,19.386148
wd_Q22025888,Galgagyörk megállóhely,Galgagyörk,Hungary,MÁV Magyar Államvasutak Zrt.,Wikidata,47.735322,19.372163
wd_Q21877019,Galgahévíz megállóhely,Galgahévíz,Hungary,MÁV Magyar Államvasutak Zrt.,Wikidata,47.632436,19.558486
wd_Q22025880,Galgamácsa vasútállomás,Galgamácsa,Hungary,MÁV Magyar Államvasutak Zrt.,Wikidata,47.694071,19.392509
wd_Q22093498,Gecse-Gyarmat vasútállomás,Gecse,Hungary,MÁV Magyar Államvasutak Zrt.,Wikidata,47.456227777,17.515122222
wd_Q22117385,Gelse vasútállomás,Gelse,Hungary,MÁV Magyar Államvasutak Zrt.,Wikidata,46.600336111,16.982669444
wd_Q22117634,Gencsapáti alsó megállóhely,Gencsapáti,Hungary,Győr–Sopron–Ebenfurti Vasút,Wikidata,47.285808333,16.600108333
wd_Q22117635,Gencsapáti felső megállóhely,Gencsapáti,Hungary,Győr–Sopron–Ebenfurti Vasút,Wikidata,47.299491666,16.593763888
wd_Q26833675,Gic-Hathalom megállóhely,Gic,Hungary,MÁV Magyar Államvasutak Zrt.,Wikidata,47.427991666,17.747963888
wd_Q21998894,Godisa vasútállomás,Mindszentgodisa,Hungary,MÁV Magyar Államvasutak Zrt.,Wikidata,46.223298,18.104705
wd_Q22075332,Golop megállóhely,Tállya,Hungary,MÁV Magyar Államvasutak Zrt.,Wikidata,48.242502777,21.204727777
wd_Q123478590,Gumigyár,Budapest VIII. kerülete,Hungary,Budapesti Közlekedési Zrt.,Wikidata,47.499701111,19.098118376
wd_Q22116528,Gutorfölde vasútállomás,Gutorfölde,Hungary,MÁV Magyar Államvasutak Zrt.,Wikidata,46.646886111,16.739955555
wd_Q22117165,Gyenesdiás megállóhely,Gyenesdiás,Hungary,MÁV Magyar Államvasutak Zrt.,Wikidata,46.763305555,17.292430555
wd_Q21877077,Gyoma vasútállomás,Gyomaendrőd,Hungary,MÁV Magyar Államvasutak Zrt.,Wikidata,46.927224,20.820879
wd_Q22045707,Gyopárosfürdő megállóhely,Orosháza,Hungary,MÁV Magyar Államvasutak Zrt.,Wikidata,46.567716,20.630574
wd_Q21877075,Gyula vasútállomás,Gyula,Hungary,MÁV Magyar Államvasutak Zrt.,Wikidata,46.6564,21.273342
wd_Q116978629,Gyula-Jánoszug megállóhely,Gyula,Hungary,MÁV Magyar Államvasutak Zrt.,Wikidata,46.659295,21.210324
wd_Q22046610,Gyulai városerdő megállóhely,Gyula,Hungary,MÁV Magyar Államvasutak Zrt.,Wikidata,46.694878,21.322777
wd_Q21875995,Gyál felső megállóhely,Gyál,Hungary,MÁV Magyar Államvasutak Zrt.,Wikidata,47.389404,19.205784
wd_Q21876032,Gyál vasútállomás,Gyál,Hungary,MÁV Magyar Államvasutak Zrt.,Wikidata,47.375965,19.220213
wd_Q19862682,Gyékényes vasútállomás,Zákány,Hungary,MÁV Magyar Államvasutak Zrt.,Wikidata,46.249361111,16.95525
wd_Q21876118,Gyón megállóhely,Dabas,Hungary,MÁV Magyar Államvasutak Zrt.,Wikidata,47.180649,19.351379
wd_Q116978624,Gyökérkút megállóhely,,Hungary,MÁV Magyar Államvasutak Zrt.,Wikidata,47.617651,21.006145
wd_Q21924521,Gyömrő vasútállomás,Gyömrő,Hungary,MÁV Magyar Államvasutak Zrt.,Wikidata,47.429632,19.393939
wd_Q22093497,Gyömöre vasútállomás,Gyömöre,Hungary,MÁV Magyar Államvasutak Zrt.,Wikidata,47.485288888,17.558777777
wd_Q22093496,Gyömöre-Tét megállóhely,Gyömöre,Hungary,MÁV Magyar Államvasutak Zrt.,Wikidata,47.501625,17.55955
wd_Q22002200,Gyöngyfa-Magyarmecske megállóhely,Királyegyháza,Hungary,MÁV Magyar Államvasutak Zrt.,Wikidata,45.983009,17.956922
wd_Q21877062,Gyöngyös vasútállomás,Gyöngyös,Hungary,MÁV Magyar Államvasutak Zrt.,Wikidata,47.783101,19.937274
wd_Q22117632,Gyöngyösfalu megállóhely,Gyöngyösfalu,Hungary,Győr–Sopron–Ebenfurti Vasút,Wikidata,47.316430555,16.588586111
wd_Q22039310,Gyöngyöshalász megállóhely,Gyöngyöshalász,Hungary,MÁV Magyar Államvasutak Zrt.,Wikidata,47.744313,19.932386
wd_Q22140083,Gyöngyöshermán megállóhely,Szombathely,Hungary,Győr–Sopron–Ebenfurti Vasút,Wikidata,47.202855555,16.657227777
wd_Q2981913,Gyöngyösi utca,Budapest XIII. kerülete,Hungary,,Wikidata,47.549166666,19.073333333
wd_Q22056391,Gyüre megállóhely,Gyüre,Hungary,MÁV Magyar Államvasutak Zrt.,Wikidata,48.171516,22.269244
wd_Q3096600,Győr vasútállomás,Győr,Hungary,MÁV Magyar Államvasutak Zrt.,Wikidata,47.682,17.634
wd_Q116978625,Győr-GYSEV vasútállomás,Győr,Hungary,Győr–Sopron–Ebenfurti Vasút,Wikidata,47.67239,17.62991
wd_Q21876804,Győr-Gyárváros megállóhely,Győr,Hungary,MÁV Magyar Államvasutak Zrt.,Wikidata,47.684512,17.663511
wd_Q116978627,Győr-Rendező vasútállomás,Győr,Hungary,MÁV Magyar Államvasutak Zrt.,Wikidata,47.685718,17.645142
wd_Q21886090,Győrasszonyfa megállóhely,Győrasszonyfa,Hungary,MÁV Magyar Államvasutak Zrt.,Wikidata,47.494036,17.79893
wd_Q47523398,Győri ipartelepek megállóhely,Győr,Hungary,,Wikidata,47.6845,17.664611111
wd_Q21876805,Győrszabadhegy vasútállomás,Győr,Hungary,MÁV Magyar Államvasutak Zrt.,Wikidata,47.663385,17.648203
wd_Q22093494,Győrszemere vasútállomás,Győrszemere,Hungary,MÁV Magyar Államvasutak Zrt.,Wikidata,47.567166666,17.584658333
wd_Q21876929,Győrszentiván vasútállomás,Győr,Hungary,MÁV Magyar Államvasutak Zrt.,Wikidata,47.688769,17.746093
wd_Q22078560,Győrtelek alsó megállóhely,Győrtelek,Hungary,MÁV Magyar Államvasutak Zrt.,Wikidata,47.921063888,22.443386111
wd_Q22078559,Győrtelek megállóhely,Győrtelek,Hungary,MÁV Magyar Államvasutak Zrt.,Wikidata,47.936847222,22.424730555
wd_Q22140055,Győrvár megállóhely,Győrvár,Hungary,Győr–Sopron–Ebenfurti Vasút,Wikidata,46.989730555,16.842155555
wd_Q22045703,Gádoros vasútállomás,Gádoros,Hungary,MÁV Magyar Államvasutak Zrt.,Wikidata,46.656626,20.588242
wd_Q21876957,Gárdony vasútállomás,Gárdony,Hungary,MÁV Magyar Államvasutak Zrt.,Wikidata,47.205996,18.624723
wd_Q22043404,Gátér megállóhely,Gátér,Hungary,MÁV Magyar Államvasutak Zrt.,Wikidata,46.685021,19.9623
wd_Q116978621,Gávavencsellő megállóhely,,Hungary,MÁV Magyar Államvasutak Zrt.,Wikidata,,
wd_Q22054865,Gégény megállóhely,Gégény,Hungary,MÁV Magyar Államvasutak Zrt.,Wikidata,48.128662,21.952557
wd_Q22117131,Gógánfa megállóhely,Gógánfa,Hungary,MÁV Magyar Államvasutak Zrt.,Wikidata,47.021166666,17.207666666
wd_Q21866910,Göd vasútállomás,Göd,Hungary,MÁV Magyar Államvasutak Zrt.,Wikidata,47.687847,19.137473
wd_Q25840220,Gödöllő,Gödöllő,Hungary,MÁV-HÉV Helyiérdekű Vasút Zrt.,Wikidata,47.593586111,19.357683333
wd_Q11703145,Gödöllő vasútállomás,Gödöllő,Hungary,MÁV Magyar Államvasutak Zrt.,Wikidata,47.5924,19.3589
wd_Q25849447,"Gödöllő, Erzsébet park",Gödöllő,Hungary,MÁV-HÉV Helyiérdekű Vasút Zrt.,Wikidata,47.595097222,19.341183333
wd_Q25849642,"Gödöllő, Palotakert",Gödöllő,Hungary,MÁV-HÉV Helyiérdekű Vasút Zrt.,Wikidata,47.5986045,19.3567712
wd_Q25849634,"Gödöllő, Szabadság tér",Gödöllő,Hungary,MÁV-HÉV Helyiérdekű Vasút Zrt.,Wikidata,47.5978,19.348205555
wd_Q22022519,Gödöllő-Állami telepek megállóhely,Gödöllő,Hungary,MÁV Magyar Államvasutak Zrt.,Wikidata,47.564312,19.375561
wd_Q22075347,Gönc megállóhely,Gönc,Hungary,MÁV Magyar Államvasutak Zrt.,Wikidata,48.470525,21.261575
wd_Q22075346,Göncruszka megállóhely,Göncruszka,Hungary,MÁV Magyar Államvasutak Zrt.,Wikidata,48.445402777,21.247069444
wd_Q2632500,Göncz Árpád városközpont,Budapest XIII. kerülete,Hungary,,Wikidata,47.5325,19.066666666
wd_Q116978622,Gönyű vasútállomás,Győr,Hungary,MÁV Magyar Államvasutak Zrt.,Wikidata,47.730667,17.767986
wd_Q116978623,Görénypuszta megállóhely,,Hungary,MÁV Magyar Államvasutak Zrt.,Wikidata,47.791764,21.850434
wd_Q22074495,Görögszállás vasútállomás,Nyírtelek,Hungary,MÁV Magyar Államvasutak Zrt.,Wikidata,48.039819444,21.555244444
wd_Q119265765,Hagymás megállóhely,http://www.wikidata.org/.well-known/genid/ec3b441b1e608bca1acc5be0af54c5b3,Hungary,MÁV Magyar Államvasutak Zrt.,Wikidata,,
wd_Q116978630,Hajdúbagos megállóhely,,Hungary,MÁV Magyar Államvasutak Zrt.,Wikidata,47.402818,21.662534
wd_Q22075978,Hajdúböszörmény vasútállomás,Hajdúböszörmény,Hungary,MÁV Magyar Államvasutak Zrt.,Wikidata,47.668780555,21.524047222
wd_Q22075982,Hajdúdorog vasútállomás,Hajdúdorog,Hungary,MÁV Magyar Államvasutak Zrt.,Wikidata,47.805377777,21.493119444
wd_Q22054786,Hajdúhadház vasútállomás,Hajdúhadház,Hungary,MÁV Magyar Államvasutak Zrt.,Wikidata,47.686794,21.679314
wd_Q22075980,Hajdúnánás vasútállomás,Hajdúnánás,Hungary,MÁV Magyar Államvasutak Zrt.,Wikidata,47.831852777,21.427605555
wd_Q22075981,Hajdúnánás-Vásártér megállóhely,Hajdúnánás,Hungary,MÁV Magyar Államvasutak Zrt.,Wikidata,47.8428,21.407586111
wd_Q22075974,Hajdúszentgyörgy megállóhely,Debrecen,Hungary,MÁV Magyar Államvasutak Zrt.,Wikidata,47.608158333,21.578430555
wd_Q22053991,Hajdúszoboszló vasútállomás,Hajdúszoboszló,Hungary,MÁV Magyar Államvasutak Zrt.,Wikidata,47.429305,21.40695
wd_Q22077099,Hajdúsámson vasútállomás,Hajdúsámson,Hungary,MÁV Magyar Államvasutak Zrt.,Wikidata,47.608072222,21.754847222
wd_Q22075977,Hajdúvid megállóhely,Hajdúböszörmény,Hungary,MÁV Magyar Államvasutak Zrt.,Wikidata,47.7486,21.508236111
wd_Q22115172,Hajmáskér vasútállomás,Hajmáskér,Hungary,MÁV Magyar Államvasutak Zrt.,Wikidata,47.141008333,18.009544444
wd_Q116978632,Hajmáskér-Újtelep megállóhely,,Hungary,MÁV Magyar Államvasutak Zrt.,Wikidata,47.147786,18.039239
wd_Q22074507,Hajnalos megállóhely,Tiszalök,Hungary,MÁV Magyar Államvasutak Zrt.,Wikidata,47.998866666,21.414586111
wd_Q116978633,Halesz megállóhely,Kiskunfélegyháza,Hungary,MÁV Magyar Államvasutak Zrt.,Wikidata,46.674265,19.822611
wd_Q22093495,Halipuszta megállóhely,Felpéc,Hungary,MÁV Magyar Államvasutak Zrt.,Wikidata,47.520188888,17.560591666
wd_Q22071388,Halmaj vasútállomás,Halmaj,Hungary,MÁV Magyar Államvasutak Zrt.,Wikidata,48.246022,20.99108
wd_Q22076764,Haláp megállóhely,Debrecen,Hungary,MÁV Magyar Államvasutak Zrt.,Wikidata,47.521644444,21.818738888
wd_Q22227364,Halászlak megállóhely,Szarvas,Hungary,MÁV Magyar Államvasutak Zrt.,Wikidata,46.911194444,20.562452777
wd_Q22138762,Hanság-Nagyerdő megállóhely,Jánossomorja,Hungary,Győr–Sopron–Ebenfurti Vasút,Wikidata,47.741141666,17.189111111
wd_Q22138761,Hanságliget megállóhely,Jánossomorja,Hungary,Győr–Sopron–Ebenfurti Vasút,Wikidata,47.719991666,17.215491666
wd_Q21888110,Haris megállóhely,Szentgotthárd,Hungary,Győr–Sopron–Ebenfurti Vasút,Wikidata,46.96463,16.282403
wd_Q28686073,Harka vasútállomás,Harka,Hungary,Győr–Sopron–Ebenfurti Vasút,Wikidata,47.641555555,16.619111111
wd_Q22039095,Harkakötöny vasútállomás,Harkakötöny,Hungary,MÁV Magyar Államvasutak Zrt.,Wikidata,46.458574,19.601938
wd_Q116978634,Harkány vasútállomás,Harkány,Hungary,MÁV Magyar Államvasutak Zrt.,Wikidata,45.854725,18.224757
wd_Q102244174,Harta megállóhely,Harta,Hungary,MÁV Magyar Államvasutak Zrt.,Wikidata,46.695472222,19.041166666
wd_Q5191800,Hatvan vasútállomás,Hatvan,Hungary,MÁV Magyar Államvasutak Zrt.,Wikidata,47.662888,19.672186
wd_Q116978635,Hatvan-Rendező vasútállomás,Hatvan,Hungary,MÁV Magyar Államvasutak Zrt.,Wikidata,47.65145,19.66283
wd_Q33184558,Határ út,Budapest IX. kerülete,Hungary,,Wikidata,47.443574,19.095804
wd_Q553145,Hegyeshalom vasútállomás,Hegyeshalom,Hungary,MÁV Magyar Államvasutak Zrt.,Wikidata,47.9125,17.1481
wd_Q22138345,Hegyfalu vasútállomás,Hegyfalu,Hungary,Győr–Sopron–Ebenfurti Vasút,Wikidata,47.357838888,16.898419444
wd_Q22075345,Hejce-Vilmány megállóhely,Vilmány,Hungary,MÁV Magyar Államvasutak Zrt.,Wikidata,48.419288888,21.245508333
wd_Q102246189,Hejőbába-Hejőpapi megállóhely,Hejőbába,Hungary,MÁV Magyar Államvasutak Zrt.,Wikidata,47.9095,20.916388888
wd_Q22041483,Hejőkeresztúr vasútállomás,Hejőkeresztúr,Hungary,MÁV Magyar Államvasutak Zrt.,Wikidata,47.960367,20.869678
wd_Q102246120,Hejőszalonta megállóhely,Hejőszalonta,Hungary,MÁV Magyar Államvasutak Zrt.,Wikidata,47.937111111,20.893194444
wd_Q102243321,Helvécia vasútállomás,Helvécia,Hungary,MÁV Magyar Államvasutak Zrt.,Wikidata,46.855944444,19.616055555
wd_Q21876896,Herceghalom vasútállomás,Herceghalom,Hungary,MÁV Magyar Államvasutak Zrt.,Wikidata,47.493876,18.744893
wd_Q22116493,Herend vasútállomás,Herend,Hungary,MÁV Magyar Államvasutak Zrt.,Wikidata,47.137033333,17.760719444
wd_Q116978636,Herminatanya vasútállomás,Buj,Hungary,MÁV Magyar Államvasutak Zrt.,Wikidata,48.11579,21.65682
wd_Q21876148,Hernád megállóhely,Újhartyán,Hungary,MÁV Magyar Államvasutak Zrt.,Wikidata,47.161394,19.401682
wd_Q22074407,Hernádnémeti-Bőcs vasútállomás,Bőcs,Hungary,MÁV Magyar Államvasutak Zrt.,Wikidata,48.051508333,20.985308333
wd_Q22071394,Hernádszurdok megállóhely,Hernádszurdok,Hungary,MÁV Magyar Államvasutak Zrt.,Wikidata,48.486775,21.213569444
wd_Q21998904,Hetvehely megállóhely,Hetvehely,Hungary,MÁV Magyar Államvasutak Zrt.,Wikidata,46.128242,18.044984
wd_Q36463378,Hetényegyháza alsó megállóhely,Kecskemét,Hungary,,Wikidata,46.9325049,19.567964
wd_Q22086730,Hetényegyháza vasútállomás,Kecskemét,Hungary,MÁV Magyar Államvasutak Zrt.,Wikidata,46.930897222,19.59495
wd_Q22047687,Heves vasútállomás,Heves,Hungary,MÁV Magyar Államvasutak Zrt.,Wikidata,47.609384,20.306192
wd_Q22047679,Hevesvezekény megállóhely,Hevesvezekény,Hungary,MÁV Magyar Államvasutak Zrt.,Wikidata,47.561788,20.366394
wd_Q21998441,Hidas-Bonyhád vasútállomás,Hidas,Hungary,MÁV Magyar Államvasutak Zrt.,Wikidata,46.269096,18.523309
wd_Q12814599,Hidasnémeti vasútállomás,Hidasnémeti,Hungary,MÁV Magyar Államvasutak Zrt.,Wikidata,48.5083,21.2297
wd_Q22077182,Hodász vasútállomás,Hodász,Hungary,MÁV Magyar Államvasutak Zrt.,Wikidata,47.896188888,22.213755555
wd_Q22061503,Homok megállóhely,Tiszaföldvár,Hungary,MÁV Magyar Államvasutak Zrt.,Wikidata,46.945817,20.269467
wd_Q116978638,Homokterenye megállóhely,Mátraterenye,Hungary,MÁV Magyar Államvasutak Zrt.,Wikidata,48.025065,19.956871
wd_Q25835894,Horgásztanyák,Szigetszentmárton,Hungary,MÁV-HÉV Helyiérdekű Vasút Zrt.,Wikidata,47.213671,18.952879
wd_Q22039452,Hort-Csány vasútállomás,Hort,Hungary,MÁV Magyar Államvasutak Zrt.,Wikidata,47.672306,19.797209
wd_Q22076182,Hortobágy vasútállomás,Hortobágy,Hungary,MÁV Magyar Államvasutak Zrt.,Wikidata,47.586133333,21.1541
wd_Q22076183,Hortobágyi Halastó megállóhely,Hortobágy,Hungary,MÁV Magyar Államvasutak Zrt.,Wikidata,47.603888888,21.074094444
wd_Q21888106,Horvátnádalja megállóhely,Körmend,Hungary,Győr–Sopron–Ebenfurti Vasút,Wikidata,47.005218,16.543746
wd_Q21921435,Hosszúberek-Péteri megállóhely,Üllő,Hungary,MÁV Magyar Államvasutak Zrt.,Wikidata,47.370322,19.390219
wd_Q98398731,Hosszúhetény megállóhely,Hosszúhetény,Hungary,MÁV Magyar Államvasutak Zrt.,Wikidata,46.135022222,18.366355555
wd_Q22046815,Hosszúhát megállóhely,Szerep,Hungary,,Wikidata,47.235618,21.10193
wd_Q116978639,Hosszúpályi megállóhely,,Hungary,MÁV Magyar Államvasutak Zrt.,Wikidata,47.399351,21.729171
wd_Q22025110,Hugyag megállóhely,Hugyag,Hungary,MÁV Magyar Államvasutak Zrt.,Wikidata,48.082917,19.423935
wd_Q25851200,Hungaroring,Kerepes,Hungary,,Wikidata,47.578705555,19.275372222
wd_Q123478606,Hungária út,Budapest XIV. kerülete,Hungary,Budapesti Közlekedési Zrt.,Wikidata,47.500195982,19.107308697
wd_Q3096084,Háros vasútállomás,Budapest XXII. kerülete,Hungary,MÁV Magyar Államvasutak Zrt.,Wikidata,47.4113,19.0327
wd_Q1057136,Hárshegy vasútállomás,Budapest II. kerülete,Hungary,MÁV Magyar Államvasutak Zrt.,Wikidata,47.5353454,18.9613497
wd_Q22043409,Hékéd megállóhely,Szentes,Hungary,MÁV Magyar Államvasutak Zrt.,Wikidata,46.675071,20.266907
wd_Q22022562,Hévízgyörk megállóhely,Hévízgyörk,Hungary,MÁV Magyar Államvasutak Zrt.,Wikidata,47.638878,19.525874
wd_Q21877080,Hódmezővásárhely vasútállomás,Hódmezővásárhely,Hungary,MÁV Magyar Államvasutak Zrt.,Wikidata,46.413281,20.339937
wd_Q116978637,Hódmezővásárhely-Ipartelepek megállóhely,Hódmezővásárhely,Hungary,MÁV Magyar Államvasutak Zrt.,Wikidata,46.407272,20.361689
wd_Q22043849,Hódmezővásárhelyi Népkert vasútállomás,Hódmezővásárhely,Hungary,MÁV Magyar Államvasutak Zrt.,Wikidata,46.403336,20.312836
wd_Q2301380,Hősök tere,Budapest,Hungary,Budapesti Közlekedési Zrt.,Wikidata,47.514444444,19.076944444
wd_Q23287275,Hűvösvölgy vasútállomás,Budapest,Hungary,MÁV Magyar Államvasutak Zrt.,Wikidata,47.5411402,18.9636779
wd_Q3347181,II. János Pál pápa tér,Budapest VIII. kerülete,Hungary,,Wikidata,47.4958,19.0775
wd_Q116978640,Ibrány megállóhely,,Hungary,MÁV Magyar Államvasutak Zrt.,Wikidata,,
wd_Q102246289,Igrici megállóhely,Igrici,Hungary,MÁV Magyar Államvasutak Zrt.,Wikidata,47.863916666,20.922138888
wd_Q22025858,Iklad-Domony felső megállóhely,Iklad,Hungary,MÁV Magyar Államvasutak Zrt.,Wikidata,47.667762,19.428446
wd_Q22025851,Iklad-Domony megállóhely,Iklad,Hungary,MÁV Magyar Államvasutak Zrt.,Wikidata,47.65824,19.444052
wd_Q22116525,Iklódbördőce megállóhely,Iklódbördőce,Hungary,MÁV Magyar Államvasutak Zrt.,Wikidata,46.603197222,16.603519444
wd_Q21890484,Ikrény vasútállomás,Ikrény,Hungary,Győr–Sopron–Ebenfurti Vasút,Wikidata,47.657648,17.52306
wd_Q25385520,Ilonatelep,Budapest XVI. kerülete,Hungary,MÁV-HÉV Helyiérdekű Vasút Zrt.,Wikidata,47.526663888,19.229466666
wd_Q22222767,Imremajor vasútállomás,Balatonfenyves,Hungary,MÁV Magyar Államvasutak Zrt.,Wikidata,46.680461111,17.499786111
wd_Q1097022,Indóház,Szolnok,Hungary,,Wikidata,47.167638888,20.180277777
wd_Q116978641,Inota megállóhely,,Hungary,MÁV Magyar Államvasutak Zrt.,Wikidata,47.197408,18.171153
wd_Q22071390,Ináncs megállóhely,Ináncs,Hungary,MÁV Magyar Államvasutak Zrt.,Wikidata,48.289259,21.053529
wd_Q21876092,Inárcs-Kakucs vasútállomás,Inárcs,Hungary,MÁV Magyar Államvasutak Zrt.,Wikidata,47.24711,19.317731
wd_Q22023398,Ipolyszög megállóhely,Ipolyszög,Hungary,MÁV Magyar Államvasutak Zrt.,Wikidata,48.054607,19.223943
wd_Q22025306,Ipolytarnóc vasútállomás,Ipolytarnóc,Hungary,MÁV Magyar Államvasutak Zrt.,Wikidata,48.236618,19.629149
wd_Q22023397,Ipolyvece megállóhely,Ipolyvece,Hungary,MÁV Magyar Államvasutak Zrt.,Wikidata,48.057431,19.107199
wd_Q21876981,Isaszeg vasútállomás,Isaszeg,Hungary,MÁV Magyar Államvasutak Zrt.,Wikidata,47.535128,19.390149
wd_Q3095805,Istvántelek megállóhely,Budapest,Hungary,MÁV Magyar Államvasutak Zrt.,Wikidata,47.5503,19.1063
wd_Q21869583,Ivacs megállóhely,Veresegyház,Hungary,MÁV Magyar Államvasutak Zrt.,Wikidata,47.64185,19.274211
wd_Q21876977,Iváncsa megállóhely,Iváncsa,Hungary,MÁV Magyar Államvasutak Zrt.,Wikidata,47.177812,18.812055
wd_Q102242921,Izsák vasútállomás,Izsák,Hungary,MÁV Magyar Államvasutak Zrt.,Wikidata,46.811638888,19.34125
wd_Q116978643,Izsófalva megállóhely,,Hungary,MÁV Magyar Államvasutak Zrt.,Wikidata,48.310826,20.652021
wd_Q116978645,Jakabszállás megállóhely,,Hungary,MÁV Magyar Államvasutak Zrt.,Wikidata,,
wd_Q116978644,Jakabszállási tanyák vasútállomás,Jakabszállás,Hungary,MÁV Magyar Államvasutak Zrt.,Wikidata,46.730177247,19.625985515
wd_Q22071310,Jobbágyi megállóhely,Jobbágyi,Hungary,MÁV Magyar Államvasutak Zrt.,Wikidata,47.829013888,19.687447222
wd_Q22045706,Justhmajor megállóhely,Gádoros,Hungary,MÁV Magyar Államvasutak Zrt.,Wikidata,46.619582,20.616441
wd_Q21888104,Ják-Balogunyom vasútállomás,Balogunyom,Hungary,Győr–Sopron–Ebenfurti Vasút,Wikidata,47.161358,16.630266
wd_Q22222664,Jákó-Nagybajom vasútállomás,Jákó,Hungary,MÁV Magyar Államvasutak Zrt.,Wikidata,46.344622222,17.555255555
wd_Q22086221,Jánkmajtis megállóhely,Jánkmajtis,Hungary,MÁV Magyar Államvasutak Zrt.,Wikidata,47.942133333,22.657069444
wd_Q22039038,Jánoshalma vasútállomás,Jánoshalma,Hungary,MÁV Magyar Államvasutak Zrt.,Wikidata,46.292748,19.330485
wd_Q23290213,Jánoshegy vasútállomás,Budapest,Hungary,MÁV Magyar Államvasutak Zrt.,Wikidata,47.5147372,18.9508614
wd_Q22115393,Jánosháza megállóhely,Jánosháza,Hungary,MÁV Magyar Államvasutak Zrt.,Wikidata,47.115758333,17.171775
wd_Q22138763,Jánossomorja vasútállomás,Jánossomorja,Hungary,Győr–Sopron–Ebenfurti Vasút,Wikidata,47.789055555,17.137583333
wd_Q22160074,Jánosszállás megállóhely,Szatymaz,Hungary,MÁV Magyar Államvasutak Zrt.,Wikidata,46.334272222,20.051169444
wd_Q22039381,Jászapáti vasútállomás,Jászapáti,Hungary,MÁV Magyar Államvasutak Zrt.,Wikidata,47.513611,20.155235
wd_Q21946195,Jászberény vasútállomás,Jászberény,Hungary,MÁV Magyar Államvasutak Zrt.,Wikidata,47.495536,19.89255
wd_Q21947873,Jászboldogháza-Jánoshida vasútállomás,Jászboldogháza,Hungary,MÁV Magyar Államvasutak Zrt.,Wikidata,47.36747,20.000986
wd_Q22039376,Jászdózsa megállóhely,Jászdózsa,Hungary,MÁV Magyar Államvasutak Zrt.,Wikidata,47.562809,20.028464
wd_Q21946859,Jászfényszaru vasútállomás,Jászfényszaru,Hungary,MÁV Pályaműködtetési Zrt.,Wikidata,47.593101,19.754154
wd_Q22039379,Jászkisér felső megállóhely,Jászkisér,Hungary,MÁV Magyar Államvasutak Zrt.,Wikidata,47.438186,20.202446
wd_Q22039377,Jászkisér vasútállomás,Jászkisér,Hungary,MÁV Magyar Államvasutak Zrt.,Wikidata,47.455971,20.203574
wd_Q22039384,Jászladány vasútállomás,Jászladány,Hungary,MÁV Magyar Államvasutak Zrt.,Wikidata,47.372943,20.158617
wd_Q22039097,Jászszentlászló vasútállomás,Jászszentlászló,Hungary,MÁV Magyar Államvasutak Zrt.,Wikidata,46.566327,19.753753
wd_Q22039367,Jászárokszállás vasútállomás,Jászárokszállás,Hungary,MÁV Magyar Államvasutak Zrt.,Wikidata,47.63607,19.97018
wd_Q22073983,Jósvafő-Aggtelek megállóhely,Perkupa,Hungary,,Wikidata,48.489766666,20.693833333
wd_Q22075973,Józsa megállóhely,Debrecen,Hungary,,Wikidata,47.600483333,21.584672222
wd_Q25834892,József Attila-telep,Szigetszentmiklós,Hungary,MÁV-HÉV Helyiérdekű Vasút Zrt.,Wikidata,47.337061,19.034506
wd_Q22046607,József Szanatórium megállóhely,Sarkad,Hungary,,Wikidata,46.704595,21.332856
wd_Q22053990,Kaba vasútállomás,Kaba,Hungary,MÁV Magyar Államvasutak Zrt.,Wikidata,47.368876,21.259309
wd_Q116978648,Kajdacs megállóhely,,Hungary,MÁV Magyar Államvasutak Zrt.,Wikidata,46.589065,18.650326
wd_Q116978649,Kakasszék megállóhely,,Hungary,MÁV Magyar Államvasutak Zrt.,Wikidata,46.530697,20.593865
wd_Q114985146,Kalocsa vasútállomás,Kalocsa,Hungary,MÁV Magyar Államvasutak Zrt.,Wikidata,46.5348238,18.9947391
wd_Q116978650,Kalocsa-Rakodó vasútállomás,Kalocsa,Hungary,MÁV Magyar Államvasutak Zrt.,Wikidata,46.53697,18.96125
wd_Q22160069,Kapitányság megállóhely,Balástya,Hungary,MÁV Magyar Államvasutak Zrt.,Wikidata,46.435308333,19.987627777
wd_Q22121909,Kapoly megállóhely,Kapoly,Hungary,MÁV Magyar Államvasutak Zrt.,Wikidata,46.71355,17.977747222
wd_Q22132184,Kaposfüred vasútállomás,Kaposvár,Hungary,MÁV Magyar Államvasutak Zrt.,Wikidata,46.414916666,17.759358333
wd_Q22222662,Kaposfő megállóhely,Kaposfő,Hungary,MÁV Magyar Államvasutak Zrt.,Wikidata,46.364191666,17.660438888
wd_Q22222639,Kaposhomok megállóhely,Taszár,Hungary,,Wikidata,46.36735,17.921811111
wd_Q22222661,Kaposmérő vasútállomás,Kaposmérő,Hungary,MÁV Magyar Államvasutak Zrt.,Wikidata,46.365394444,17.699602777
wd_Q22222634,Kapospula megállóhely,Kapospula,Hungary,MÁV Magyar Államvasutak Zrt.,Wikidata,46.373063888,18.096841666
wd_Q21998878,Kaposszekcső megállóhely,Kaposszekcső,Hungary,MÁV Magyar Államvasutak Zrt.,Wikidata,46.330948,18.143083
wd_Q22121934,Kaposszentjakab megállóhely,Kaposvár,Hungary,MÁV Magyar Államvasutak Zrt.,Wikidata,46.356605555,17.820125
wd_Q22132187,Kapostüskevár megállóhely,Kaposvár,Hungary,MÁV Magyar Államvasutak Zrt.,Wikidata,46.365966666,17.774230555
wd_Q12814852,Kaposvár vasútállomás,Kaposvár,Hungary,MÁV Magyar Államvasutak Zrt.,Wikidata,46.3529,17.7948
wd_Q22222660,Kaposújlak megállóhely,Kaposújlak,Hungary,MÁV Magyar Államvasutak Zrt.,Wikidata,46.366994444,17.724358333
wd_Q21890494,Kapuvár vasútállomás,Kapuvár,Hungary,Győr–Sopron–Ebenfurti Vasút,Wikidata,47.581923,17.048
wd_Q22116500,Karakószörcsök megállóhely,Karakószörcsök,Hungary,MÁV Magyar Államvasutak Zrt.,Wikidata,47.133625,17.288208333
wd_Q22047641,Karcag vasútállomás,Karcag,Hungary,MÁV Magyar Államvasutak Zrt.,Wikidata,47.303283,20.929028
wd_Q116978652,Karcag-Ipartelep megállóhely,,Hungary,MÁV Magyar Államvasutak Zrt.,Wikidata,47.337577,20.889236
wd_Q22047642,Karcag-Vásártér megállóhely,Karcag,Hungary,MÁV Magyar Államvasutak Zrt.,Wikidata,47.321869,20.907117
wd_Q22227194,Kardoskút vasútállomás,Kardoskút,Hungary,MÁV Magyar Államvasutak Zrt.,Wikidata,46.498205555,20.697602777
wd_Q26833844,Kardosrét megállóhely,Zirc,Hungary,MÁV Magyar Államvasutak Zrt.,Wikidata,47.282183333,17.878552777
wd_Q22041537,Karácsond megállóhely,Karácsond,Hungary,MÁV Magyar Államvasutak Zrt.,Wikidata,47.717078,20.045007
wd_Q25840090,Karácsony Sándor utca,Budapest XXI. kerülete,Hungary,MÁV-HÉV Helyiérdekű Vasút Zrt.,Wikidata,47.426788888,19.067302777
wd_Q22121910,Karád megállóhely,Karád,Hungary,MÁV Magyar Államvasutak Zrt.,Wikidata,46.681091666,17.874883333
wd_Q116978653,Kaskantyú vasútállomás,Kaskantyú,Hungary,MÁV Magyar Államvasutak Zrt.,Wikidata,46.670691747,19.389702526
wd_Q116978654,Kastélyosdombó megállóhely,Kastélyosdombó,Hungary,MÁV Magyar Államvasutak Zrt.,Wikidata,45.961192,17.619611
wd_Q16508021,Kastélypark megállóhely,Budapest XXII. kerülete,Hungary,MÁV Magyar Államvasutak Zrt.,Wikidata,47.3909,18.9902
wd_Q16507990,Kaszásdűlő,Budapest III. kerülete,Hungary,MÁV-HÉV Helyiérdekű Vasút Zrt.,Wikidata,47.556884,19.045306
wd_Q22030652,Katonatelep vasútállomás,Kecskemét,Hungary,MÁV Magyar Államvasutak Zrt.,Wikidata,46.963191666,19.718947222
wd_Q22071961,Kazincbarcika alsó megállóhely,Kazincbarcika,Hungary,MÁV Magyar Államvasutak Zrt.,Wikidata,48.254791666,20.649913888
wd_Q22071962,Kazincbarcika vasútállomás,Kazincbarcika,Hungary,MÁV Magyar Államvasutak Zrt.,Wikidata,48.264166666,20.628372222
wd_Q116337070,Kecel vasútállomás,Kecel,Hungary,MÁV Magyar Államvasutak Zrt.,Wikidata,46.5524648,19.2418526
wd_Q116337072,Kecel-Szilos megállóhely,Kecel,Hungary,MÁV Magyar Államvasutak Zrt.,Wikidata,46.5219128,19.1945906
wd_Q22086736,Kecskemét alsó vasútállomás,Kecskemét,Hungary,MÁV Magyar Államvasutak Zrt.,Wikidata,46.895705555,19.692236111
wd_Q3273512,Kecskemét vasútállomás,Kecskemét,Hungary,MÁV Magyar Államvasutak Zrt.,Wikidata,46.9136,19.7006
wd_Q22086735,Kecskemét-Máriaváros megállóhely,Kecskemét,Hungary,,Wikidata,46.901283333,19.675761111
wd_Q21877377,Kecskéd alsó megállóhely,Kecskéd,Hungary,MÁV Magyar Államvasutak Zrt.,Wikidata,47.520801,18.317028
wd_Q26833716,Kecskéd megállóhely,Kecskéd,Hungary,MÁV Magyar Államvasutak Zrt.,Wikidata,47.530058333,18.298275
wd_Q21877054,Kelebia vasútállomás,Szabadka,Hungary,MÁV Magyar Államvasutak Zrt.,Wikidata,46.194834,19.610268
wd_Q3194854,Kelenföld vasútállomás,Budapest XI. kerülete,Hungary,,Wikidata,47.4643261,19.02014
wd_Q2657073,Keleti pályaudvar,Budapest,Hungary,,Wikidata,47.500277777,19.081666666
wd_Q22054862,Kemecse vasútállomás,Kemecse,Hungary,MÁV Magyar Államvasutak Zrt.,Wikidata,48.065407,21.801639
wd_Q22115690,Kemendollár megállóhely,Kemendollár,Hungary,MÁV Magyar Államvasutak Zrt.,Wikidata,46.905738888,16.946558333
wd_Q22093514,Kemenesmihályfa megállóhely,Kemenesmihályfa,Hungary,MÁV Magyar Államvasutak Zrt.,Wikidata,47.278952777,17.109080555
wd_Q22115392,Kemenespálfa megállóhely,Kemenespálfa,Hungary,MÁV Magyar Államvasutak Zrt.,Wikidata,47.139283333,17.182944444
wd_Q22047677,Kenderes megállóhely,Kenderes,Hungary,,Wikidata,47.25433,20.686419
wd_Q22061493,Kengyel megállóhely,Kengyel,Hungary,MÁV Magyar Államvasutak Zrt.,Wikidata,47.089876,20.33988
wd_Q22059193,Kerekdomb megállóhely,Tiszakécske,Hungary,MÁV Magyar Államvasutak Zrt.,Wikidata,46.902446,20.046576
wd_Q36652269,Kerekegyháza alsó megállóhely,Kerekegyháza,Hungary,,Wikidata,46.9248929,19.5098176
wd_Q36485552,Kerekegyháza vasútállomás,Kerekegyháza,Hungary,,Wikidata,46.931642,19.48936
wd_Q25848560,Kerepes,Kerepes,Hungary,MÁV-HÉV Helyiérdekű Vasút Zrt.,Wikidata,47.553275,19.271208333
wd_Q123478488,Kerepesi út,Budapest VIII. kerülete,Hungary,Budapesti Közlekedési Zrt.,Wikidata,47.499709099,19.087449773
wd_Q22116501,Kerta vasútállomás,Kerta,Hungary,MÁV Magyar Államvasutak Zrt.,Wikidata,47.151455555,17.238394444
wd_Q21876859,Keszthely vasútállomás,Keszthely,Hungary,Győr–Sopron–Ebenfurti Vasút,Wikidata,46.758291666,17.247847222
wd_Q22002087,Keszőhidegkút-Gyönk vasútállomás,Keszőhidegkút,Hungary,MÁV Magyar Államvasutak Zrt.,Wikidata,46.597287,18.426395
wd_Q22043401,Kettőshalom megállóhely,Csongrád,Hungary,MÁV Magyar Államvasutak Zrt.,Wikidata,46.688976,20.021041
wd_Q116978661,Kilimán megállóhely,,Hungary,MÁV Magyar Államvasutak Zrt.,Wikidata,46.636982,16.983968
wd_Q21891727,Kimle-Károlyháza vasútállomás,Károlyháza,Hungary,MÁV Magyar Államvasutak Zrt.,Wikidata,47.804516,17.341857
wd_Q102245797,Királd megállóhely,Királd,Hungary,MÁV Magyar Államvasutak Zrt.,Wikidata,48.244305555,20.379972222
wd_Q22002201,Királyegyháza-Rigópuszta megállóhely,Királyegyháza,Hungary,MÁV Magyar Államvasutak Zrt.,Wikidata,45.989422,17.972253
wd_Q22121915,Kisbárapáti megállóhely,Kisbárapáti,Hungary,MÁV Magyar Államvasutak Zrt.,Wikidata,46.614997222,17.866791666
wd_Q21996834,Kisbér vasútállomás,Kisbér,Hungary,MÁV Magyar Államvasutak Zrt.,Wikidata,47.494221,18.024914
wd_Q22227358,Kiscsákó megállóhely,Nagyszénás,Hungary,MÁV Magyar Államvasutak Zrt.,Wikidata,46.719238888,20.717630555
wd_Q22119576,Kiscséripuszta vasútállomás,Polgárdi,Hungary,MÁV Magyar Államvasutak Zrt.,Wikidata,47.048058333,18.354933333
wd_Q22003455,Kisdobsza megállóhely,Kisdobsza,Hungary,MÁV Magyar Államvasutak Zrt.,Wikidata,46.011974,17.667102
wd_Q22059274,Kisfái megállóhely,Kecskemét,Hungary,MÁV Magyar Államvasutak Zrt.,Wikidata,46.888373,19.807295
wd_Q22074506,Kisfástanya megállóhely,Tiszalök,Hungary,MÁV Magyar Államvasutak Zrt.,Wikidata,47.989133333,21.469938888
wd_Q102245724,Kiskapud megállóhely,Ózd,Hungary,MÁV Magyar Államvasutak Zrt.,Wikidata,48.217027777,20.34625
wd_Q22222663,Kiskorpád vasútállomás,Kiskorpád,Hungary,MÁV Magyar Államvasutak Zrt.,Wikidata,46.362261111,17.6089
wd_Q22160075,Kiskundorozsma vasútállomás,Szeged,Hungary,MÁV Magyar Államvasutak Zrt.,Wikidata,46.271302777,20.090883333
wd_Q21989092,Kiskunfélegyháza vasútállomás,Kiskunfélegyháza,Hungary,MÁV Magyar Államvasutak Zrt.,Wikidata,46.707068,19.834302
wd_Q21877053,Kiskunhalas vasútállomás,Kiskunhalas,Hungary,MÁV Magyar Államvasutak Zrt.,Wikidata,46.433791,19.493869
wd_Q22030372,Kiskunlacháza vasútállomás,Kiskunlacháza,Hungary,MÁV Magyar Államvasutak Zrt.,Wikidata,47.18497,19.043663
wd_Q22039100,Kiskunmajsa vasútállomás,Kiskunmajsa,Hungary,MÁV Magyar Államvasutak Zrt.,Wikidata,46.501611111,19.727972222
wd_Q22047681,Kisköre vasútállomás,Kisköre,Hungary,MÁV Magyar Államvasutak Zrt.,Wikidata,47.495402,20.481543
wd_Q22047682,Kisköre-Tiszahíd megállóhely,Kisköre,Hungary,MÁV Magyar Államvasutak Zrt.,Wikidata,47.480774,20.507945
wd_Q22031528,Kiskőrös vasútállomás,Kiskőrös,Hungary,MÁV Magyar Államvasutak Zrt.,Wikidata,46.626185,19.297424
wd_Q116978662,Kismacs megállóhely,Debrecen,Hungary,MÁV Magyar Államvasutak Zrt.,Wikidata,47.550667,21.543644
wd_Q116978663,Kismargita megállóhely,Tiszacsege,Hungary,MÁV Magyar Államvasutak Zrt.,Wikidata,47.724003,21.108662
wd_Q22057729,Kismarja megállóhely,Kismarja,Hungary,MÁV Magyar Államvasutak Zrt.,Wikidata,47.243917,21.813949
wd_Q21866919,Kismaros megállóhely,Kismaros,Hungary,MÁV Magyar Államvasutak Zrt.,Wikidata,47.827353,19.010864
wd_Q26833885,Kismegyer megállóhely,Győrújbarát,Hungary,MÁV Magyar Államvasutak Zrt.,Wikidata,47.641677777,17.663797222
wd_Q22059420,Kismindszenti út megállóhely,Kiskunfélegyháza,Hungary,MÁV Magyar Államvasutak Zrt.,Wikidata,46.753668,19.88794
wd_Q23283619,Kisnémedi megállóhely,Kisnémedi,Hungary,MÁV Magyar Államvasutak Zrt.,Wikidata,47.724233333,19.2651
wd_Q3096689,Kispest vasútállomás,Budapest XIX. kerülete,Hungary,MÁV Magyar Államvasutak Zrt.,Wikidata,47.447916666,19.157194444
wd_Q105099902,Kisrárós megállóhely,Nógrádszakál,Hungary,MÁV Magyar Államvasutak Zrt.,Wikidata,48.2085276,19.5559308
wd_Q22086220,Kisszekeres megállóhely,Kisszekeres,Hungary,MÁV Magyar Államvasutak Zrt.,Wikidata,47.965880555,22.629819444
wd_Q22031469,Kisszállás vasútállomás,Kisszállás,Hungary,MÁV Magyar Államvasutak Zrt.,Wikidata,46.27877,19.538688
wd_Q22227359,Kisszénás vasútállomás,Csabacsűd,Hungary,MÁV Magyar Államvasutak Zrt.,Wikidata,46.751172222,20.721541666
wd_Q25848270,Kistarcsa,Kistarcsa,Hungary,MÁV Személyszállítási Zrt.,Wikidata,47.545847222,19.259877777
wd_Q25847855,"Kistarcsa, kórház",Kistarcsa,Hungary,MÁV Személyszállítási Zrt.,Wikidata,47.539205555,19.249288888
wd_Q1112295,Kistelek vasútállomás,Kistelek,Hungary,MÁV Magyar Államvasutak Zrt.,Wikidata,46.4661,19.9675
wd_Q22160045,Kisteleki szőlők megállóhely,Kistelek,Hungary,MÁV Magyar Államvasutak Zrt.,Wikidata,46.514255555,19.928566666
wd_Q22071290,Kisterenye vasútállomás,Bátonyterenye,Hungary,MÁV Magyar Államvasutak Zrt.,Wikidata,48.009592,19.831934
wd_Q22071288,Kisterenye-Bányatelep megállóhely,Bátonyterenye,Hungary,MÁV Magyar Államvasutak Zrt.,Wikidata,48.023576,19.830644
wd_Q116978664,Kistokaj megállóhely,,Hungary,MÁV Magyar Államvasutak Zrt.,Wikidata,48.030935,20.828725
wd_Q22002370,Kistótfalu megállóhely,Kistótfalu,Hungary,MÁV Magyar Államvasutak Zrt.,Wikidata,45.909477,18.315336
wd_Q22061711,Kistőke megállóhely,Szentes,Hungary,MÁV Magyar Államvasutak Zrt.,Wikidata,46.715735,20.281443
wd_Q22056397,Kisvarsány megállóhely,Kisvarsány,Hungary,MÁV Magyar Államvasutak Zrt.,Wikidata,48.151763,22.290188
wd_Q21866948,Kisvác megállóhely,Vác,Hungary,MÁV Magyar Államvasutak Zrt.,Wikidata,47.795354,19.113747
wd_Q22054871,Kisvárda vasútállomás,Kisvárda,Hungary,MÁV Magyar Államvasutak Zrt.,Wikidata,48.208961,22.07895
wd_Q22054872,Kisvárda-Hármasút megállóhely,Kisvárda,Hungary,MÁV Magyar Államvasutak Zrt.,Wikidata,48.228284,22.091842
wd_Q22227132,Kiszombor megálló megállóhely,Kiszombor,Hungary,MÁV Magyar Államvasutak Zrt.,Wikidata,46.191019444,20.430627777
wd_Q22227129,Kiszombor megállóhely,Kiszombor,Hungary,MÁV Magyar Államvasutak Zrt.,Wikidata,46.192111111,20.413616666
wd_Q22047678,Kisújszállás vasútállomás,Kisújszállás,Hungary,MÁV Magyar Államvasutak Zrt.,Wikidata,47.223918,20.751103
wd_Q22039311,Kitérőgyár megállóhely,Gyöngyös,Hungary,MÁV Magyar Államvasutak Zrt.,Wikidata,47.766556,19.935271
wd_Q19960439,Klotildliget megállóhely,Piliscsaba,Hungary,MÁV Magyar Államvasutak Zrt.,Wikidata,47.63775,18.846306
wd_Q22086724,Klábertelep megállóhely,Lajosmizse,Hungary,,Wikidata,47.006083333,19.551358333
wd_Q22078558,Kocsord alsó vasútállomás,Kocsord,Hungary,MÁV Magyar Államvasutak Zrt.,Wikidata,47.946347222,22.401438888
wd_Q22078557,Kocsord megállóhely,Kocsord,Hungary,MÁV Magyar Államvasutak Zrt.,Wikidata,47.942008333,22.375744444
wd_Q2412345,Kodály körönd,Budapest VI. kerülete,Hungary,Budapesti Közlekedési Zrt.,Wikidata,47.5092606,19.0693504
wd_Q116978665,Kolontár megállóhely,,Hungary,MÁV Magyar Államvasutak Zrt.,Wikidata,47.089147,17.476828
wd_Q22073985,Komjáti megállóhely,Komjáti,Hungary,MÁV Magyar Államvasutak Zrt.,Wikidata,48.546208333,20.756488888
wd_Q22122282,Komló vasútállomás,Komló,Hungary,MÁV Magyar Államvasutak Zrt.,Wikidata,46.189061111,18.265330555
wd_Q22054874,Komoró vasútállomás,Komoró,Hungary,MÁV Magyar Államvasutak Zrt.,Wikidata,48.305066,22.118202
wd_Q116978666,Komádi vasútállomás,Komádi,Hungary,MÁV Magyar Államvasutak Zrt.,Wikidata,46.976011,21.491274
wd_Q15122963,Komárom vasútállomás,Komárom,Hungary,MÁV Magyar Államvasutak Zrt.,Wikidata,47.7494,18.1136
wd_Q116978667,Komárom-Rendező vasútállomás,Komárom,Hungary,MÁV Magyar Államvasutak Zrt.,Wikidata,47.748603,18.12539
wd_Q116978668,Kondoros vasútállomás,Kondoros,Hungary,MÁV Magyar Államvasutak Zrt.,Wikidata,46.755618,20.79067
wd_Q22076761,Kondoroskert megállóhely,Debrecen,Hungary,MÁV Magyar Államvasutak Zrt.,Wikidata,47.525163888,21.713644444
wd_Q22057750,Konyár vasútállomás,Konyár,Hungary,MÁV Magyar Államvasutak Zrt.,Wikidata,47.323592,21.666169
wd_Q22057722,Konyári Sóstófürdő megállóhely,Hosszúpályi,Hungary,MÁV Magyar Államvasutak Zrt.,Wikidata,47.324091,21.74545
wd_Q116978669,Kopáncs vasútállomás,Hódmezővásárhely,Hungary,MÁV Magyar Államvasutak Zrt.,Wikidata,46.38088,20.25215
wd_Q22075342,Korlát-Vizsoly megállóhely,Vizsoly,Hungary,MÁV Magyar Államvasutak Zrt.,Wikidata,48.364738888,21.219186111
wd_Q2524878,Kossuth Lajos tér,Budapest V. kerülete,Hungary,,Wikidata,47.505555555,19.046666666
wd_Q33184131,Kossuth Lajos utca,Budapest XXI. kerülete,Hungary,,Wikidata,47.435947,19.070551
wd_Q116978672,Kovácshida megállóhely,Kovácshida,Hungary,MÁV Magyar Államvasutak Zrt.,Wikidata,45.837285,18.189222
wd_Q21997272,Kulcs megállóhely,Kulcs,Hungary,MÁV Magyar Államvasutak Zrt.,Wikidata,47.051035,18.897407
wd_Q22039040,Kunfehértó vasútállomás,Kunfehértó,Hungary,MÁV Magyar Államvasutak Zrt.,Wikidata,46.355903,19.416887
wd_Q22061505,Kungyalu megállóhely,Kunszentmárton,Hungary,MÁV Magyar Államvasutak Zrt.,Wikidata,46.908325,20.267924
wd_Q22047684,Kunhegyes vasútállomás,Kunhegyes,Hungary,MÁV Magyar Államvasutak Zrt.,Wikidata,47.376481,20.640859
wd_Q22047651,Kunmadaras vasútállomás,Kunmadaras,Hungary,MÁV Magyar Államvasutak Zrt.,Wikidata,47.415224,20.793042
wd_Q22030366,Kunszentmiklós-Tass vasútállomás,Kunszentmiklós,Hungary,MÁV Magyar Államvasutak Zrt.,Wikidata,47.018324,19.100203
wd_Q22059474,Kunszentmárton vasútállomás,Kunszentmárton,Hungary,MÁV Magyar Államvasutak Zrt.,Wikidata,46.848309,20.293459
wd_Q22159826,Kunszállás megállóhely,Városföld,Hungary,MÁV Magyar Államvasutak Zrt.,Wikidata,46.781047222,19.76865
wd_Q22002093,Kurd vasútállomás,Kurd,Hungary,MÁV Magyar Államvasutak Zrt.,Wikidata,46.450265,18.31837
wd_Q22222665,Kutas megállóhely,Kutas,Hungary,MÁV Magyar Államvasutak Zrt.,Wikidata,46.325975,17.453391666
wd_Q94612450,Kvassay híd,Budapest XXI. kerülete,Hungary,MÁV-HÉV Helyiérdekű Vasút Zrt.,Wikidata,47.457418,19.071182
wd_Q116978647,Kádárta megállóhely,,Hungary,MÁV Magyar Államvasutak Zrt.,Wikidata,47.126019,17.953184
wd_Q22002192,Kákics megállóhely,Kákics,Hungary,,Wikidata,45.904782,17.852301
wd_Q21877067,Kál-Kápolna vasútállomás,Kál,Hungary,MÁV Magyar Államvasutak Zrt.,Wikidata,47.734101,20.254031
wd_Q22077263,Kállósemjén vasútállomás,Kállósemjén,Hungary,MÁV Magyar Államvasutak Zrt.,Wikidata,47.854452777,21.934991666
wd_Q2524860,Kálvin tér,Budapest,Hungary,,Wikidata,47.489722222,19.061944444
wd_Q22117633,Kámon megállóhely,Szombathely,Hungary,Győr–Sopron–Ebenfurti Vasút,Wikidata,47.2543,16.625880555
wd_Q30308634,Kápolna megállóhely,Kápolna,Hungary,MÁV Magyar Államvasutak Zrt.,Wikidata,47.760806,20.234966
wd_Q21876945,Kápolnásnyék vasútállomás,Kápolnásnyék,Hungary,MÁV Magyar Államvasutak Zrt.,Wikidata,47.245411,18.692727
wd_Q22091772,Káptalanfüred megállóhely,Balatonalmádi,Hungary,MÁV Magyar Államvasutak Zrt.,Wikidata,47.010166666,18.003972222
wd_Q116978651,Kárász-Köblény megállóhely,,Hungary,MÁV Magyar Államvasutak Zrt.,Wikidata,46.277276,18.311404
wd_Q22054861,Kék megállóhely,Kék,Hungary,MÁV Magyar Államvasutak Zrt.,Wikidata,48.0933,21.883959
wd_Q116978657,Kémes megállóhely,Kémes,Hungary,MÁV Magyar Államvasutak Zrt.,Wikidata,45.829257,18.097033
wd_Q25834597,Kén utca,Budapest IX. kerülete,Hungary,MÁV-HÉV Helyiérdekű Vasút Zrt.,Wikidata,47.454992,19.086515
wd_Q21923139,Kétegyháza vasútállomás,Kétegyháza,Hungary,MÁV Magyar Államvasutak Zrt.,Wikidata,46.532601,21.171828
wd_Q116978658,Kéthalom megállóhely,,Hungary,MÁV Magyar Államvasutak Zrt.,Wikidata,47.001154,21.00091
wd_Q57315252,Kéthely megállóhely,Kéthely,Hungary,MÁV Magyar Államvasutak Zrt.,Wikidata,46.645577777,17.411480555
wd_Q21922875,Kétpó megállóhely,Kétpó,Hungary,MÁV Magyar Államvasutak Zrt.,Wikidata,47.077021,20.487835
wd_Q116978660,Kétújfalu megállóhely,Kétújfalu,Hungary,MÁV Magyar Államvasutak Zrt.,Wikidata,45.970137,17.720389
wd_Q22076222,Kétútköz megállóhely,Egerfarmos,Hungary,MÁV Magyar Államvasutak Zrt.,Wikidata,47.694375,20.564494444
wd_Q21890489,Kóny vasútállomás,Kóny,Hungary,Győr–Sopron–Ebenfurti Vasút,Wikidata,47.632288,17.357336
wd_Q22076181,Kónya megállóhely,Balmazújváros,Hungary,MÁV Magyar Államvasutak Zrt.,Wikidata,47.600697222,21.237638888
wd_Q22043405,Kónyaszék megállóhely,Csongrád,Hungary,MÁV Magyar Államvasutak Zrt.,Wikidata,46.699672,20.073674
wd_Q21887537,Kópháza megállóhely,Kópháza,Hungary,Győr–Sopron–Ebenfurti Vasút,Wikidata,47.632653,16.637017
wd_Q22043855,Kórógyszentgyörgy megállóhely,Szegvár,Hungary,MÁV Magyar Államvasutak Zrt.,Wikidata,46.564332,20.225143
wd_Q116978670,Kótaj megállóhely,,Hungary,MÁV Magyar Államvasutak Zrt.,Wikidata,,
wd_Q116978671,Kótpuszta megállóhely,Vésztő,Hungary,MÁV Magyar Államvasutak Zrt.,Wikidata,46.959269,21.335144
wd_Q116978676,Kölesd-Alsótengelic megállóhely,,Hungary,MÁV Magyar Államvasutak Zrt.,Wikidata,46.539003,18.672915
wd_Q102243233,Köncsög megállóhely,Ágasegyháza,Hungary,MÁV Magyar Államvasutak Zrt.,Wikidata,46.85275,19.52025
wd_Q21888102,Körmend vasútállomás,Körmend,Hungary,Győr–Sopron–Ebenfurti Vasút,Wikidata,47.016074,16.597384
wd_Q21877376,Környe vasútállomás,Környe,Hungary,MÁV Magyar Államvasutak Zrt.,Wikidata,47.542948,18.333699
wd_Q21914403,Körösladány vasútállomás,Körösladány,Hungary,MÁV Magyar Államvasutak Zrt.,Wikidata,46.970064,21.085825
wd_Q116978677,Körösnagyharsány megállóhely,Körösnagyharsány,Hungary,MÁV Magyar Államvasutak Zrt.,Wikidata,47.012843,21.64097
wd_Q116978679,Körösszakál vasútállomás,Körösszakál,Hungary,MÁV Magyar Államvasutak Zrt.,Wikidata,47.008103,21.606123
wd_Q116978678,Körösújfalu megállóhely,Körösújfalu,Hungary,MÁV Magyar Államvasutak Zrt.,Wikidata,46.967622,21.395768
wd_Q22046613,Kötegyán vasútállomás,Kötegyán,Hungary,MÁV Magyar Államvasutak Zrt.,Wikidata,46.758601,21.479553
wd_Q25833895,Közvágóhíd,Budapest IX. kerülete,Hungary,MÁV-HÉV Helyiérdekű Vasút Zrt.,Wikidata,47.466168,19.077244
wd_Q111505430,Közvágóhíd megállóhely,Budapest IX. kerülete,Hungary,,Wikidata,47.468303,19.0750607
wd_Q22002390,Középmező megállóhely,Mohács,Hungary,MÁV Magyar Államvasutak Zrt.,Wikidata,45.995904,18.669224
wd_Q22003449,Középrigóc vasútállomás,Barcs,Hungary,MÁV Magyar Államvasutak Zrt.,Wikidata,45.970482,17.524884
wd_Q22044004,Kútvölgy vasútállomás,Hódmezővásárhely,Hungary,MÁV Magyar Államvasutak Zrt.,Wikidata,46.459384,20.452029
wd_Q22093510,Külsővat megállóhely,Külsővat,Hungary,MÁV Magyar Államvasutak Zrt.,Wikidata,47.280038888,17.221652777
wd_Q116978680,Küngös megállóhely,,Hungary,MÁV Magyar Államvasutak Zrt.,Wikidata,47.070447,18.168633
wd_Q18005403,Kőbánya alsó megállóhely,Budapest,Hungary,MÁV Magyar Államvasutak Zrt.,Wikidata,47.4829,19.1272
wd_Q18005405,Kőbánya felső vasútállomás,Budapest X. kerülete,Hungary,MÁV Magyar Államvasutak Zrt.,Wikidata,47.4918,19.1338
wd_Q64222310,Kőbánya-Hizlaló vasútállomás,Budapest X. kerülete,Hungary,MÁV Magyar Államvasutak Zrt.,Wikidata,47.477841,19.122323
wd_Q674350,Kőbánya-Kispest,Budapest,Hungary,,Wikidata,47.463333333,19.149166666
wd_Q3096714,Kőbánya-Kispest vasútállomás,Budapest X. kerülete,Hungary,MÁV Magyar Államvasutak Zrt.,Wikidata,47.4631,19.1491
wd_Q116978675,Kőbánya-Teher vasútállomás,Budapest X. kerülete,Hungary,MÁV Magyar Államvasutak Zrt.,Wikidata,47.491557,19.12145
wd_Q116978674,Kőbányai vontatóvágány vasútállomás,Budapest X. kerülete,Hungary,MÁV Magyar Államvasutak Zrt.,Wikidata,47.462656,19.156034
wd_Q30308565,Kőkútpuszta megállóhely,Sirok,Hungary,MÁV Magyar Államvasutak Zrt.,Wikidata,47.900925,20.182689
wd_Q22117639,Kőszeg vasútállomás,Kőszeg,Hungary,Győr–Sopron–Ebenfurti Vasút,Wikidata,47.381513888,16.556780555
wd_Q22117638,Kőszegfalva megállóhely,Kőszeg,Hungary,Győr–Sopron–Ebenfurti Vasút,Wikidata,47.361775,16.56745
wd_Q21876243,Lajosmizse alsó megállóhely,Lajosmizse,Hungary,MÁV Magyar Államvasutak Zrt.,Wikidata,47.022758333,19.550186111
wd_Q21876154,Lajosmizse vasútállomás,Lajosmizse,Hungary,MÁV Magyar Államvasutak Zrt.,Wikidata,47.028428,19.54238
wd_Q22059196,Lakitelek vasútállomás,Lakitelek,Hungary,MÁV Magyar Államvasutak Zrt.,Wikidata,46.872949,20.003897
wd_Q2523452,Lehel tér,Budapest XIII. kerülete,Hungary,,Wikidata,47.518055555,19.060555555
wd_Q22132161,Lengyeltóti vasútállomás,Lengyeltóti,Hungary,MÁV Magyar Államvasutak Zrt.,Wikidata,46.66071,17.61334
wd_Q22116530,Lenti vasútállomás,Lenti,Hungary,MÁV Magyar Államvasutak Zrt.,Wikidata,46.621247222,16.529652777
wd_Q22116529,Lentiszombathely megállóhely,Lenti,Hungary,MÁV Magyar Államvasutak Zrt.,Wikidata,46.611258333,16.572530555
wd_Q22119578,Lepsény vasútállomás,Lepsény,Hungary,MÁV Magyar Államvasutak Zrt.,Wikidata,46.9874,18.247483333
wd_Q116978683,Lesencetomaj vasútállomás,Lesencetomaj,Hungary,MÁV Magyar Államvasutak Zrt.,Wikidata,46.875613,17.37857
wd_Q22056099,Levelek-Magy megállóhely,Magy,Hungary,MÁV Magyar Államvasutak Zrt.,Wikidata,47.947952,21.993687
wd_Q21891721,Levél megállóhely,Levél,Hungary,MÁV Magyar Államvasutak Zrt.,Wikidata,47.889817,17.192171
wd_Q19960530,Leányvár vasútállomás,Leányvár,Hungary,MÁV Magyar Államvasutak Zrt.,Wikidata,47.688028,18.771889
wd_Q22056071,Ligettanya megállóhely,Ófehértó,Hungary,,Wikidata,47.951598,22.071304
wd_Q22025304,Litke megállóhely,Litke,Hungary,MÁV Magyar Államvasutak Zrt.,Wikidata,48.215879,19.59866
wd_Q116978685,Lovasberény vasútállomás,Lovasberény,Hungary,MÁV Magyar Államvasutak Zrt.,Wikidata,47.303645,18.559234
wd_Q22041538,Ludas vasútállomás,Ludas,Hungary,MÁV Magyar Államvasutak Zrt.,Wikidata,47.723988,20.095641
wd_Q22025113,Ludányhalászi megállóhely,Ludányhalászi,Hungary,MÁV Magyar Államvasutak Zrt.,Wikidata,48.132481,19.52946
wd_Q22117636,Lukácsháza alsó megállóhely,Lukácsháza,Hungary,Győr–Sopron–Ebenfurti Vasút,Wikidata,47.326644444,16.585230555
wd_Q22117637,Lukácsháza megállóhely,Lukácsháza,Hungary,Győr–Sopron–Ebenfurti Vasút,Wikidata,47.340769444,16.580402777
wd_Q123478728,Lumumba utca,Budapest XIV. kerülete,Hungary,Budapesti Közlekedési Zrt.,Wikidata,47.502095263,19.124994651
wd_Q21996778,Lábatlan vasútállomás,Lábatlan,Hungary,MÁV Magyar Államvasutak Zrt.,Wikidata,47.752163,18.514686
wd_Q116978681,Ládi-Rakodó vasútállomás,Miskolc,Hungary,MÁV Magyar Államvasutak Zrt.,Wikidata,48.08708,20.721
wd_Q116978682,Látókép megállóhely,Debrecen,Hungary,MÁV Magyar Államvasutak Zrt.,Wikidata,47.558655,21.499013
wd_Q26833625,Lázi megállóhely,Lázi,Hungary,MÁV Magyar Államvasutak Zrt.,Wikidata,47.470097222,17.835522222
wd_Q21891726,Lébény-Mosonszentmiklós vasútállomás,Mosonszentmiklós,Hungary,MÁV Magyar Államvasutak Zrt.,Wikidata,47.755783,17.425313
wd_Q116978684,Létavértes vasútállomás,Létavértes,Hungary,MÁV Magyar Államvasutak Zrt.,Wikidata,47.393607,21.878998
wd_Q26833867,Lókút megállóhely,Olaszfalu,Hungary,,Wikidata,47.218925,17.899944444
wd_Q21887962,Lövő vasútállomás,Lövő,Hungary,Győr–Sopron–Ebenfurti Vasút,Wikidata,47.509657,16.777295
wd_Q21923135,Lőkösháza vasútállomás,Lőkösháza,Hungary,MÁV Magyar Államvasutak Zrt.,Wikidata,46.432108,21.237629
wd_Q22071312,Lőrinci megállóhely,Lőrinci,Hungary,MÁV Magyar Államvasutak Zrt.,Wikidata,47.737694444,19.673916666
005521001,MISKOLC,Miskolc,Hungary,MÁV,known_stations,,
wd_Q118125500,Macs vasútállomás,Debrecen,Hungary,MÁV Magyar Államvasutak Zrt.,Wikidata,47.563055,21.519062
wd_Q19960460,Magdolnavölgy megállóhely,Piliscsaba,Hungary,MÁV Magyar Államvasutak Zrt.,Wikidata,47.647833,18.818444
wd_Q21924507,Maglód vasútállomás,Maglód,Hungary,MÁV Magyar Államvasutak Zrt.,Wikidata,47.438893,19.340729
wd_Q21924514,Maglódi nyaraló megállóhely,Maglód,Hungary,MÁV Magyar Államvasutak Zrt.,Wikidata,47.434168,19.363469
wd_Q22227175,Magyarbánhegyes vasútállomás,Magyarbánhegyes,Hungary,MÁV Magyar Államvasutak Zrt.,Wikidata,46.451038888,20.969205555
wd_Q22002381,Magyarbóly vasútállomás,Magyarbóly,Hungary,MÁV Magyar Államvasutak Zrt.,Wikidata,45.834977,18.490664
wd_Q22227155,Magyarcsanád megállóhely,Magyarcsanád,Hungary,MÁV Magyar Államvasutak Zrt.,Wikidata,46.174605555,20.610275
wd_Q22122278,Magyarhertelend megállóhely,Magyarhertelend,Hungary,MÁV Magyar Államvasutak Zrt.,Wikidata,46.1931,18.156538888
wd_Q22138358,Magyarkeresztúr-Zsebeháza megállóhely,Zsebeháza,Hungary,Győr–Sopron–Ebenfurti Vasút,Wikidata,47.514236111,17.176183333
wd_Q22023359,Magyarkút megállóhely,Verőce,Hungary,MÁV Magyar Államvasutak Zrt.,Wikidata,47.849109,19.046717
wd_Q22023348,Magyarkút-Verőce megállóhely,Verőce,Hungary,MÁV Magyar Államvasutak Zrt.,Wikidata,47.831285,19.040274
wd_Q22025892,Magyarnándor vasútállomás,Magyarnándor,Hungary,MÁV Magyar Államvasutak Zrt.,Wikidata,47.972323,19.357954
wd_Q116978686,Magyarszerdahely megállóhely,Újudvar,Hungary,MÁV Magyar Államvasutak Zrt.,Wikidata,46.549496,16.980901
wd_Q22122279,Magyarszék megállóhely,Magyarszék,Hungary,MÁV Magyar Államvasutak Zrt.,Wikidata,46.210188888,18.186041666
wd_Q22039495,Maklár vasútállomás,Maklár,Hungary,MÁV Magyar Államvasutak Zrt.,Wikidata,47.807953,20.404618
wd_Q22227133,Makó vasútállomás,Makó,Hungary,MÁV Magyar Államvasutak Zrt.,Wikidata,46.204586111,20.474761111
wd_Q116978687,Makó-Újváros vasútállomás,Makó,Hungary,MÁV Magyar Államvasutak Zrt.,Wikidata,46.231268,20.496023
wd_Q119142206,Makó-Újvásártér megállóhely,Makó,Hungary,MÁV Magyar Államvasutak Zrt.,Wikidata,46.21627,20.512389
wd_Q57315253,Marcali vasútállomás,Marcali,Hungary,MÁV Magyar Államvasutak Zrt.,Wikidata,46.580655555,17.421402777
wd_Q22093549,Marcaltő megállóhely,Egyházaskesző,Hungary,MÁV Magyar Államvasutak Zrt.,Wikidata,47.427738888,17.348938888
wd_Q16507987,"Margit híd, budai hídfő",Budapest II. kerülete,Hungary,MÁV-HÉV Helyiérdekű Vasút Zrt.,Wikidata,47.51483,19.039285
wd_Q21877028,Maroshegy megállóhely,Székesfehérvár,Hungary,MÁV Magyar Államvasutak Zrt.,Wikidata,47.158911111,18.406725
wd_Q22061479,Martfű vasútállomás,Martfű,Hungary,MÁV Magyar Államvasutak Zrt.,Wikidata,47.020813888,20.292061111
wd_Q21876938,Martonvásár vasútállomás,Martonvásár,Hungary,MÁV Magyar Államvasutak Zrt.,Wikidata,47.320617,18.781251
wd_Q21998917,Mecsekalja-Cserkút vasútállomás,Pécs,Hungary,MÁV Magyar Államvasutak Zrt.,Wikidata,46.060163,18.152123
wd_Q22122285,Mecsekjánosi megállóhely,Komló,Hungary,MÁV Magyar Államvasutak Zrt.,Wikidata,46.216322222,18.241938888
wd_Q22122280,Mecsekpölöske megállóhely,Mecsekpölöske,Hungary,MÁV Magyar Államvasutak Zrt.,Wikidata,46.224094444,18.213527777
wd_Q22227176,Medgyesegyháza vasútállomás,Medgyesegyháza,Hungary,MÁV Magyar Államvasutak Zrt.,Wikidata,46.496375,21.030427777
wd_Q21946203,Meggyespele megállóhely,Jászberény,Hungary,MÁV Magyar Államvasutak Zrt.,Wikidata,47.441076,19.939495
wd_Q113396425,Meggyespuszta megállóhely,Szentkirályszabadja,Hungary,,Wikidata,,
wd_Q21924546,Mende vasútállomás,Mende,Hungary,MÁV Magyar Államvasutak Zrt.,Wikidata,47.426716,19.439849
wd_Q22121926,Mernye vasútállomás,Mernye,Hungary,MÁV Magyar Államvasutak Zrt.,Wikidata,46.508122222,17.832383333
wd_Q57315250,Mesztegnyő megállóhely,Mesztegnyő,Hungary,MÁV Magyar Államvasutak Zrt.,Wikidata,46.507888888,17.432927777
wd_Q123478624,Mexikói út,Budapest XIV. kerülete,Hungary,Budapesti Közlekedési Zrt.,Wikidata,47.500871387,19.113533961
wd_Q21923131,Mezőberény vasútállomás,Mezőberény,Hungary,MÁV Magyar Államvasutak Zrt.,Wikidata,46.814708,21.012946
wd_Q635795,Mezőcsát vasútállomás,Mezőcsát,Hungary,MÁV Magyar Államvasutak Zrt.,Wikidata,47.825,20.9156
wd_Q22132511,Mezőfalva vasútállomás,Mezőfalva,Hungary,MÁV Magyar Államvasutak Zrt.,Wikidata,46.905347222,18.810508333
wd_Q22227159,Mezőhegyes vasútállomás,Mezőhegyes,Hungary,MÁV Magyar Államvasutak Zrt.,Wikidata,46.310841666,20.81585
wd_Q22074427,Mezőkeresztes-Mezőnyárád vasútállomás,Mezőnyárád,Hungary,MÁV Magyar Államvasutak Zrt.,Wikidata,47.845152777,20.6696
wd_Q22227174,Mezőkovácsháza felső megállóhely,Mezőkovácsháza,Hungary,MÁV Magyar Államvasutak Zrt.,Wikidata,46.415908333,20.919147222
wd_Q22227173,Mezőkovácsháza vasútállomás,Mezőkovácsháza,Hungary,MÁV Magyar Államvasutak Zrt.,Wikidata,46.408033333,20.899897222
wd_Q22074426,Mezőkövesd felső megállóhely,Mezőkövesd,Hungary,MÁV Magyar Államvasutak Zrt.,Wikidata,47.806388888,20.589819444
wd_Q22074424,Mezőkövesd vasútállomás,Mezőkövesd,Hungary,MÁV Magyar Államvasutak Zrt.,Wikidata,47.797255555,20.567605555
wd_Q22093507,Mezőlak vasútállomás,Mezőlak,Hungary,MÁV Magyar Államvasutak Zrt.,Wikidata,47.323544444,17.364205555
wd_Q21898144,Mezőpeterd vasútállomás,Mezőpeterd,Hungary,MÁV Magyar Államvasutak Zrt.,Wikidata,47.17623,21.625632
wd_Q22076224,Mezőtárkány megállóhely,Mezőtárkány,Hungary,MÁV Magyar Államvasutak Zrt.,Wikidata,47.725169444,20.480169444
wd_Q21923012,Mezőtúr vasútállomás,Mezőtúr,Hungary,MÁV Magyar Államvasutak Zrt.,Wikidata,47.013466,20.619487
wd_Q22074412,Mezőzombor vasútállomás,Mezőzombor,Hungary,MÁV Magyar Államvasutak Zrt.,Wikidata,48.156908333,21.267602777
wd_Q22093508,Mihályháza megállóhely,Mihályháza,Hungary,MÁV Magyar Államvasutak Zrt.,Wikidata,47.318502777,17.329344444
wd_Q116978690,Mikepércs megállóhely,,Hungary,MÁV Magyar Államvasutak Zrt.,Wikidata,47.436045,21.62005
wd_Q22086734,Miklóstelep megállóhely,Kecskemét,Hungary,MÁV Magyar Államvasutak Zrt.,Wikidata,46.913447222,19.630808333
wd_Q61983742,Mikófalva megállóhely,Mikófalva,Hungary,,Wikidata,48.055959,20.321967
wd_Q25834709,Millenniumtelep,Budapest XX. kerülete,Hungary,MÁV-HÉV Helyiérdekű Vasút Zrt.,Wikidata,47.379839,19.105062
wd_Q102221162,Millér vasútállomás,Szolnok,Hungary,,Wikidata,47.179944444,20.239277777
wd_Q22043856,Mindszent vasútállomás,Mindszent,Hungary,MÁV Magyar Államvasutak Zrt.,Wikidata,46.524021,20.19389
wd_Q830801,Miskolc-Gömöri vasútállomás,Miskolc,Hungary,MÁV Magyar Államvasutak Zrt.,Wikidata,48.1065667,20.8005811
wd_Q113394123,Miskolc-Rendező vasútállomás,Miskolc,Hungary,MÁV Magyar Államvasutak Zrt.,Wikidata,48.0930119,20.8006091
wd_Q116978691,Miskolc-Repülőtér vasútállomás,Miskolc,Hungary,MÁV Magyar Államvasutak Zrt.,Wikidata,48.133898,20.788818
wd_Q854118,Miskolc-Tiszai vasútállomás,Miskolc,Hungary,MÁV Magyar Államvasutak Zrt.,Wikidata,48.09888889,20.80972222
wd_Q25848983,Mogyoród,Mogyoród,Hungary,MÁV-HÉV Helyiérdekű Vasút Zrt.,Wikidata,47.595952777,19.271625
wd_Q102144009,Moha vasútállomás,Moha,Hungary,MÁV Magyar Államvasutak Zrt.,Wikidata,47.246138888,18.340638888
wd_Q66724673,Moha-Rakodó vasútállomás,Fehérvárcsurgó,Hungary,MÁV Magyar Államvasutak Zrt.,Wikidata,47.274234,18.30628
wd_Q22025893,Mohora megállóhely,Mohora,Hungary,MÁV Magyar Államvasutak Zrt.,Wikidata,47.996728,19.346495
wd_Q22002392,Mohács vasútállomás,Mohács,Hungary,MÁV Magyar Államvasutak Zrt.,Wikidata,46.002515,18.684524
wd_Q22003466,Molvány megállóhely,Molvány,Hungary,MÁV Magyar Államvasutak Zrt.,Wikidata,46.035169,17.748365
wd_Q21921437,Monor vasútállomás,Monor,Hungary,MÁV Magyar Államvasutak Zrt.,Wikidata,47.345144,19.437259
wd_Q21921440,Monorierdő megállóhely,Monorierdő,Hungary,MÁV Magyar Államvasutak Zrt.,Wikidata,47.308515,19.499858
wd_Q116978692,Monostorpályi megállóhely,,Hungary,MÁV Magyar Államvasutak Zrt.,Wikidata,47.390611,21.774651
wd_Q21891728,Mosonmagyaróvár vasútállomás,Mosonmagyaróvár,Hungary,MÁV Magyar Államvasutak Zrt.,Wikidata,47.850564,17.266354
wd_Q22138764,Mosonszolnok vasútállomás,Mosonszolnok,Hungary,Győr–Sopron–Ebenfurti Vasút,Wikidata,47.852569444,17.160502777
wd_Q22121264,Murakeresztúr vasútállomás,Murakeresztúr,Hungary,MÁV Magyar Államvasutak Zrt.,Wikidata,46.363833333,16.876636111
wd_Q21923133,Murony vasútállomás,Murony,Hungary,MÁV Magyar Államvasutak Zrt.,Wikidata,46.757024,21.038046
wd_Q22075330,Mád vasútállomás,Mád,Hungary,MÁV Magyar Államvasutak Zrt.,Wikidata,48.189966666,21.268797222
wd_Q21998403,Mágocs-Alsómocsolád vasútállomás,Alsómocsolád,Hungary,MÁV Magyar Államvasutak Zrt.,Wikidata,46.310311,18.222193
wd_Q22056392,Mándok vasútállomás,Mándok,Hungary,MÁV Magyar Államvasutak Zrt.,Wikidata,48.327221,22.196428
wd_Q21877010,Máriabesnyő megállóhely,Gödöllő,Hungary,MÁV Magyar Államvasutak Zrt.,Wikidata,47.595743,19.389575
wd_Q116978688,Máriagyűd megállóhely,Siklós,Hungary,MÁV Magyar Államvasutak Zrt.,Wikidata,45.866045,18.270547
wd_Q21877050,Máriahullámtelep megállóhely,Balatonmáriafürdő,Hungary,MÁV Magyar Államvasutak Zrt.,Wikidata,46.704925,17.43485
wd_Q22077264,Máriapócs megállóhely,Máriapócs,Hungary,MÁV Magyar Államvasutak Zrt.,Wikidata,47.852925,22.019144444
wd_Q49477991,Máriaszőlőtelep megállóhely,Balatonmáriafürdő,Hungary,MÁV Magyar Államvasutak Zrt.,Wikidata,46.70273,17.411676
wd_Q21866951,Máriaudvar megállóhely,Vác,Hungary,MÁV Magyar Államvasutak Zrt.,Wikidata,47.752487,19.164223
wd_Q22116492,Márkó megállóhely,Márkó,Hungary,MÁV Magyar Államvasutak Zrt.,Wikidata,47.126930555,17.810777777
wd_Q22002387,Márok megállóhely,Márok,Hungary,MÁV Magyar Államvasutak Zrt.,Wikidata,45.886835,18.499095
wd_Q22043857,Mártély megállóhely,Mindszent,Hungary,MÁV Magyar Államvasutak Zrt.,Wikidata,46.473293,20.236157
wd_Q30308360,Mátraballa megállóhely,Mátraballa,Hungary,MÁV Magyar Államvasutak Zrt.,Wikidata,47.984642,20.024148
wd_Q30308299,Mátraderecske megállóhely,Mátraderecske,Hungary,MÁV Magyar Államvasutak Zrt.,Wikidata,47.946406,20.077955
wd_Q30308428,Mátramindszent megállóhely,Mátramindszent,Hungary,MÁV Magyar Államvasutak Zrt.,Wikidata,47.99731,19.938793
wd_Q116978689,Mátranovák-Homokterenye megállóhely,Mátranovák,Hungary,MÁV Magyar Államvasutak Zrt.,Wikidata,48.033707,19.969781
wd_Q22071285,Mátraszőlős-Hasznos megállóhely,Tar,Hungary,MÁV Magyar Államvasutak Zrt.,Wikidata,47.938783,19.70671
wd_Q22071292,Mátraverebély megállóhely,Mátraverebély,Hungary,MÁV Magyar Államvasutak Zrt.,Wikidata,47.968347,19.778743
wd_Q22071309,Mátravidéki Erőmű vasútállomás,Lőrinci,Hungary,MÁV Magyar Államvasutak Zrt.,Wikidata,47.719644444,19.673797222
wd_Q25840272,Mátyásföld alsó,Budapest XVI. kerülete,Hungary,MÁV-HÉV Helyiérdekű Vasút Zrt.,Wikidata,47.515961111,19.207408333
wd_Q25840268,"Mátyásföld, Imre utca",Budapest XVI. kerülete,Hungary,MÁV-HÉV Helyiérdekű Vasút Zrt.,Wikidata,47.513722222,19.200211111
wd_Q25840262,"Mátyásföld, repülőtér",Budapest XVI. kerülete,Hungary,MÁV-HÉV Helyiérdekű Vasút Zrt.,Wikidata,47.511866666,19.194125
wd_Q60333255,Mátéházapuszta vasútállomás,Baja,Hungary,MÁV Magyar Államvasutak Zrt.,Wikidata,46.150149,19.063929
wd_Q22056393,Mátészalka vasútállomás,Mátészalka,Hungary,MÁV Magyar Államvasutak Zrt.,Wikidata,47.951,22.31372
wd_Q21998419,Máza-Szászvár vasútállomás,Máza,Hungary,MÁV Magyar Államvasutak Zrt.,Wikidata,46.279113,18.40903
wd_Q22046614,Méhkerék megállóhely,Méhkerék,Hungary,MÁV Magyar Államvasutak Zrt.,Wikidata,46.774322,21.455559
wd_Q22039037,Mélykút vasútállomás,Mélykút,Hungary,MÁV Magyar Államvasutak Zrt.,Wikidata,46.212902,19.370415
wd_Q22093493,Ménfőcsanak felső megállóhely,Győr,Hungary,MÁV Magyar Államvasutak Zrt.,Wikidata,47.637777777,17.614419444
wd_Q22093492,Ménfőcsanak megállóhely,Győr,Hungary,MÁV Magyar Államvasutak Zrt.,Wikidata,47.621630555,17.599169444
wd_Q22086727,Méntelek megállóhely,Kecskemét,Hungary,MÁV Magyar Államvasutak Zrt.,Wikidata,46.978722222,19.570691666
wd_Q22071392,Méra megállóhely,Méra,Hungary,MÁV Magyar Államvasutak Zrt.,Wikidata,48.363019444,21.140225
wd_Q22040986,Mónosbél vasútállomás,Mónosbél,Hungary,MÁV Magyar Államvasutak Zrt.,Wikidata,48.032086,20.329826
wd_Q21996836,Mór vasútállomás,Mór,Hungary,MÁV Magyar Államvasutak Zrt.,Wikidata,47.36949,18.188733
wd_Q930433,Móricz Zsigmond körtér,Budapest XI. kerülete,Hungary,,Wikidata,47.477222222,19.0475
wd_Q106303576,Mórágy megállóhely,Mórágy,Hungary,MÁV Magyar Államvasutak Zrt.,Wikidata,46.236108333,18.627361111
wd_Q116978693,Mórágy-Alsónána megállóhely,,Hungary,MÁV Magyar Államvasutak Zrt.,Wikidata,46.221771,18.662346
wd_Q25840055,Müpa – Nemzeti Színház,Budapest IX. kerülete,Hungary,MÁV-HÉV Helyiérdekű Vasút Zrt.,Wikidata,47.469733333,19.070113888
wd_Q21998452,Mőcsény megállóhely,Mőcsény,Hungary,MÁV Magyar Államvasutak Zrt.,Wikidata,46.257004,18.594527
wd_Q22121789,Nagyatád vasútállomás,Nagyatád,Hungary,MÁV Magyar Államvasutak Zrt.,Wikidata,46.228444444,17.354288888
wd_Q22222637,Nagyberki megállóhely,Nagyberki,Hungary,MÁV Magyar Államvasutak Zrt.,Wikidata,46.356202777,18.0078
wd_Q22071286,Nagybátony vasútállomás,Bátonyterenye,Hungary,MÁV Magyar Államvasutak Zrt.,Wikidata,47.979746,19.819422
wd_Q21887952,Nagycenk vasútállomás,Nagycenk,Hungary,Győr–Sopron–Ebenfurti Vasút,Wikidata,47.601148,16.690126
wd_Q22076763,Nagycsere vasútállomás,Debrecen,Hungary,MÁV Magyar Államvasutak Zrt.,Wikidata,47.523780555,21.763341666
wd_Q116978694,Nagycsány megállóhely,Nagycsány,Hungary,MÁV Magyar Államvasutak Zrt.,Wikidata,45.877059,17.946398
wd_Q22041482,Nagycsécs megállóhely,Nagycsécs,Hungary,MÁV Magyar Államvasutak Zrt.,Wikidata,47.953707,20.94636
wd_Q22056395,Nagydobos megállóhely,Nagydobos,Hungary,MÁV Magyar Államvasutak Zrt.,Wikidata,48.054135,22.311363
wd_Q21997758,Nagydorog vasútállomás,Nagydorog,Hungary,MÁV Magyar Államvasutak Zrt.,Wikidata,46.615436,18.649727
wd_Q22056457,Nagyecsed vasútállomás,Nagyecsed,Hungary,MÁV Magyar Államvasutak Zrt.,Wikidata,47.864878,22.385432
wd_Q26833848,Nagyesztergár megállóhely,Nagyesztergár,Hungary,,Wikidata,47.292475,17.891427777
wd_Q26833690,Nagygyimót megállóhely,Nagygyimót,Hungary,MÁV Magyar Államvasutak Zrt.,Wikidata,47.342244444,17.560158333
wd_Q116978696,Nagyhalász megállóhely,,Hungary,MÁV Magyar Államvasutak Zrt.,Wikidata,,
wd_Q116978695,Nagyhalászi Kendergyár vasútállomás,Nagyhalász,Hungary,MÁV Magyar Államvasutak Zrt.,Wikidata,48.1346,21.7442
wd_Q116978697,Nagyharsány vasútállomás,Nagyharsány,Hungary,MÁV Magyar Államvasutak Zrt.,Wikidata,45.84803,18.380015
wd_Q22076178,Nagyhát megállóhely,Balmazújváros,Hungary,MÁV Magyar Államvasutak Zrt.,Wikidata,47.581216666,21.44565
wd_Q25840233,Nagyicce,Budapest XVI. kerülete,Hungary,MÁV-HÉV Helyiérdekű Vasút Zrt.,Wikidata,47.507008333,19.167777777
wd_Q21996833,Nagyigmánd-Bábolna vasútállomás,Nagyigmánd,Hungary,MÁV Magyar Államvasutak Zrt.,Wikidata,47.630876,18.050738
wd_Q21876856,Nagykanizsa vasútállomás,Nagykanizsa,Hungary,MÁV Magyar Államvasutak Zrt.,Wikidata,46.440780555,16.987275
wd_Q22117533,Nagykapornak vasútállomás,Nagykapornak,Hungary,MÁV Magyar Államvasutak Zrt.,Wikidata,46.832158333,16.935041666
wd_Q22132506,Nagykarácsony felső megállóhely,Nagykarácsony,Hungary,MÁV Magyar Államvasutak Zrt.,Wikidata,46.865944444,18.782894444
wd_Q22132507,Nagykarácsony megállóhely,Nagykarácsony,Hungary,MÁV Magyar Államvasutak Zrt.,Wikidata,46.848669444,18.7658
wd_Q22057731,Nagykereki vasútállomás,Nagykereki,Hungary,MÁV Magyar Államvasutak Zrt.,Wikidata,47.190764,21.800397
wd_Q22077262,Nagykálló vasútállomás,Nagykálló,Hungary,MÁV Magyar Államvasutak Zrt.,Wikidata,47.870894444,21.825686111
wd_Q21924830,Nagykáta vasútállomás,Nagykáta,Hungary,MÁV Magyar Államvasutak Zrt.,Wikidata,47.409878,19.737553
wd_Q21925558,Nagykőrös vasútállomás,Nagykőrös,Hungary,MÁV Magyar Államvasutak Zrt.,Wikidata,47.038237,19.760199
wd_Q22227156,Nagylak megállóhely,Nagylak,Hungary,MÁV Magyar Államvasutak Zrt.,Wikidata,46.170102777,20.708147222
wd_Q22227157,Nagylaki Kendergyár megállóhely,Nagylak,Hungary,MÁV Magyar Államvasutak Zrt.,Wikidata,46.188988888,20.717369444
wd_Q21914413,Nagylapos megállóhely,Gyomaendrőd,Hungary,MÁV Magyar Államvasutak Zrt.,Wikidata,46.976755,20.745658
wd_Q22002142,Nagylók vasútállomás,Nagylók,Hungary,MÁV Magyar Államvasutak Zrt.,Wikidata,46.979315,18.63572
wd_Q114985144,Nagymacs vasútállomás,Debrecen,Hungary,MÁV Magyar Államvasutak Zrt.,Wikidata,47.5686129,21.4806892
wd_Q116978698,Nagymajor megállóhely,Tiszacsege,Hungary,MÁV Magyar Államvasutak Zrt.,Wikidata,47.653645,20.986621
wd_Q21866921,Nagymaros vasútállomás,Nagymaros,Hungary,MÁV Magyar Államvasutak Zrt.,Wikidata,47.779872,18.95171
wd_Q21866920,Nagymaros-Visegrád megállóhely,Nagymaros,Hungary,MÁV Magyar Államvasutak Zrt.,Wikidata,47.785798,18.956018
wd_Q21998439,Nagymányok megállóhely,Nagymányok,Hungary,MÁV Magyar Államvasutak Zrt.,Wikidata,46.279595,18.457096
wd_Q22002389,Nagynyárád megállóhely,Nagynyárád,Hungary,MÁV Magyar Államvasutak Zrt.,Wikidata,45.953425,18.564942
wd_Q58454682,Nagynyír megállóhely,Kecskemét,Hungary,MÁV Magyar Államvasutak Zrt.,Wikidata,46.9433,19.585477777
wd_Q22023394,Nagyoroszi vasútállomás,Nagyoroszi,Hungary,MÁV Magyar Államvasutak Zrt.,Wikidata,47.993856,19.100657
wd_Q22003464,Nagypeterd megállóhely,Nagypeterd,Hungary,MÁV Magyar Államvasutak Zrt.,Wikidata,46.038068,17.897919
wd_Q22115938,Nagyrákos megállóhely,Nagyrákos,Hungary,MÁV Magyar Államvasutak Zrt.,Wikidata,46.827233333,16.455658333
wd_Q22117277,Nagyrécse vasútállomás,Nagykanizsa,Hungary,MÁV Magyar Államvasutak Zrt.,Wikidata,46.463786111,17.043586111
wd_Q22093515,Nagysimonyi megállóhely,Nagysimonyi,Hungary,MÁV Magyar Államvasutak Zrt.,Wikidata,47.265597222,17.057538888
wd_Q22086219,Nagyszekeres megállóhely,Nagyszekeres,Hungary,MÁV Magyar Államvasutak Zrt.,Wikidata,47.975897222,22.613491666
wd_Q21876927,Nagyszentjános vasútállomás,Nagyszentjános,Hungary,MÁV Magyar Államvasutak Zrt.,Wikidata,47.705402,17.869914
wd_Q22227357,Nagyszénás vasútállomás,Nagyszénás,Hungary,MÁV Magyar Államvasutak Zrt.,Wikidata,46.672794444,20.674497222
wd_Q23294183,Nagytétény vasútállomás,Budapest XXII. kerülete,Hungary,MÁV Magyar Államvasutak Zrt.,Wikidata,47.387969444,18.974422222
wd_Q3097159,Nagytétény-Diósd vasútállomás,Budapest XXII. kerülete,Hungary,MÁV Magyar Államvasutak Zrt.,Wikidata,47.3981,18.9741
wd_Q1215164,Nagytótipuszta,,Hungary,,Wikidata,46.97798333,21.53788056
wd_Q22061707,Nagytőke vasútállomás,Nagytőke,Hungary,MÁV Magyar Államvasutak Zrt.,Wikidata,46.763305555,20.291622222
wd_Q45208976,Nagyvisnyó-Dédes megállóhely,Nagyvisnyó,Hungary,MÁV Magyar Államvasutak Zrt.,Wikidata,48.143467,20.432023
wd_Q253156,Nagyvárad tér,Budapest,Hungary,,Wikidata,47.478888888,19.088888888
wd_Q22227189,Nagyér megállóhely,Nagyér,Hungary,MÁV Magyar Államvasutak Zrt.,Wikidata,46.37075,20.737361111
wd_Q22041539,Nagyút vasútállomás,Nagyút,Hungary,MÁV Magyar Államvasutak Zrt.,Wikidata,47.726627,20.162138
wd_Q22056026,Napkor megállóhely,Napkor,Hungary,MÁV Magyar Államvasutak Zrt.,Wikidata,47.948678,21.873186
wd_Q45209120,Nekézseny megállóhely,Nekézseny,Hungary,MÁV Magyar Államvasutak Zrt.,Wikidata,48.163055555,20.425111111
wd_Q22092256,Nemesgulács-Kisapáti megállóhely,Kisapáti,Hungary,MÁV Magyar Államvasutak Zrt.,Wikidata,46.836983333,17.476341666
wd_Q22093550,Nemesgörzsöny megállóhely,Nemesgörzsöny,Hungary,MÁV Magyar Államvasutak Zrt.,Wikidata,47.402844444,17.376633333
wd_Q22003465,Nemeske megállóhely,Nemeske,Hungary,MÁV Magyar Államvasutak Zrt.,Wikidata,46.023593,17.707263
wd_Q22115394,Nemeskeresztúr vasútállomás,Nemeskeresztúr,Hungary,MÁV Magyar Államvasutak Zrt.,Wikidata,47.093213888,17.183922222
wd_Q22093538,Nemeskocs megállóhely,Nemeskocs,Hungary,MÁV Magyar Államvasutak Zrt.,Wikidata,47.203930555,17.188027777
wd_Q116978699,Nemeskér-Egyházasfalu megállóhely,,Hungary,Győr–Sopron–Ebenfurti Vasút,Wikidata,47.47832,16.78515
wd_Q97191129,Nemesvita megállóhely,Nemesvita,Hungary,,Wikidata,46.837415,17.401475
wd_Q30308470,Nemti megállóhely,Nemti,Hungary,MÁV Magyar Államvasutak Zrt.,Wikidata,48.003828,19.902023
wd_Q21996781,Neszmély vasútállomás,Neszmély,Hungary,MÁV Magyar Államvasutak Zrt.,Wikidata,47.734413,18.345195
wd_Q23292887,Normafa megállóhely,Budapest,Hungary,,Wikidata,47.4998598,18.9707692
wd_Q22071393,Novajidrány vasútállomás,Novajidrány,Hungary,MÁV Magyar Államvasutak Zrt.,Wikidata,48.403852777,21.170230555
wd_Q21996760,Nyergesújfalu felső megállóhely,Nyergesújfalu,Hungary,MÁV Magyar Államvasutak Zrt.,Wikidata,47.7623565,18.5407566
wd_Q21996758,Nyergesújfalu vasútállomás,Nyergesújfalu,Hungary,MÁV Magyar Államvasutak Zrt.,Wikidata,47.761156,18.561562
wd_Q591798,Nyugati pályaudvar,Budapest,Hungary,,Wikidata,47.510833333,19.055833333
wd_Q22059269,Nyárjas megállóhely,Nyárlőrinc,Hungary,MÁV Magyar Államvasutak Zrt.,Wikidata,46.857686,19.922987
wd_Q22059270,Nyárlőrinc alsó megállóhely,Nyárlőrinc,Hungary,MÁV Magyar Államvasutak Zrt.,Wikidata,46.864064,19.878661
wd_Q22059271,Nyárlőrinc megállóhely,Nyárlőrinc,Hungary,MÁV Magyar Államvasutak Zrt.,Wikidata,46.870083,19.851544
wd_Q22059272,Nyárlőrinci szőlők megállóhely,Nyárlőrinc,Hungary,MÁV Magyar Államvasutak Zrt.,Wikidata,46.877557,19.82816
wd_Q22159968,Nyársapát vasútállomás,Nyársapát,Hungary,MÁV Magyar Államvasutak Zrt.,Wikidata,47.100319444,19.792544444
wd_Q22041484,Nyékládháza vasútállomás,Nyékládháza,Hungary,MÁV Magyar Államvasutak Zrt.,Wikidata,47.992598,20.840348
wd_Q22077101,Nyíradony vasútállomás,Nyíradony,Hungary,MÁV Magyar Államvasutak Zrt.,Wikidata,47.699022222,21.902508333
wd_Q22054866,Nyírbogdány vasútállomás,Nyírbogdány,Hungary,MÁV Magyar Államvasutak Zrt.,Wikidata,48.082346,21.855046
wd_Q22077176,Nyírbogát megállóhely,Nyírbogát,Hungary,MÁV Magyar Államvasutak Zrt.,Wikidata,47.793238888,22.067141666
wd_Q22077190,Nyírbátor vasútállomás,Nyírbátor,Hungary,MÁV Magyar Államvasutak Zrt.,Wikidata,47.842602777,22.131641666
wd_Q22056458,Nyírcsaholy megállóhely,Nyírcsaholy,Hungary,MÁV Magyar Államvasutak Zrt.,Wikidata,47.908072,22.348326
wd_Q22077181,Nyírcsászári megállóhely,Nyírcsászári,Hungary,MÁV Magyar Államvasutak Zrt.,Wikidata,47.865825,22.179391666
wd_Q22056021,Nyíregyháza külső vasútállomás,Nyíregyháza,Hungary,MÁV Magyar Államvasutak Zrt.,Wikidata,47.943049,21.740128
wd_Q21877068,Nyíregyháza vasútállomás,Nyíregyháza,Hungary,MÁV Magyar Államvasutak Zrt.,Wikidata,47.9453,21.7062
wd_Q116978700,Nyíregyháza-Átrakó vasútállomás,Nyíregyháza,Hungary,MÁV Magyar Államvasutak Zrt.,Wikidata,47.941678,21.710052
wd_Q22077173,Nyírgelse vasútállomás,Nyírgelse,Hungary,MÁV Magyar Államvasutak Zrt.,Wikidata,47.750913888,21.987916666
wd_Q22117133,Nyírlak megállóhely,Sümeg,Hungary,MÁV Magyar Államvasutak Zrt.,Wikidata,46.997597222,17.247516666
wd_Q22056041,Nyírmada vasútállomás,Nyírmada,Hungary,MÁV Magyar Államvasutak Zrt.,Wikidata,48.059123,22.203257
wd_Q22077184,Nyírmeggyes megállóhely,Nyírmeggyes,Hungary,MÁV Magyar Államvasutak Zrt.,Wikidata,47.922588888,22.256566666
wd_Q22077171,Nyírmihálydi megállóhely,Nyírmihálydi,Hungary,MÁV Magyar Államvasutak Zrt.,Wikidata,47.737402777,21.958788888
wd_Q22074496,Nyírtelek vasútállomás,Nyírtelek,Hungary,MÁV Magyar Államvasutak Zrt.,Wikidata,48.004705555,21.616411111
wd_Q22076766,Nyírábrány vasútállomás,Nyírábrány,Hungary,MÁV Magyar Államvasutak Zrt.,Wikidata,47.523825,22.016647222
wd_Q21876806,Nyúl megállóhely,Nyúl,Hungary,MÁV Magyar Államvasutak Zrt.,Wikidata,47.587657,17.698226
wd_Q102109229,Nádasd megállóhely,Nádasd,Hungary,Győr–Sopron–Ebenfurti Vasút,Wikidata,46.966527777,16.603
wd_Q111502389,Nádorkert megállóhely,Budapest XI. kerülete,Hungary,,Wikidata,47.469371621,19.056802144
wd_Q721970,Népliget,Budapest,Hungary,,Wikidata,47.475555555,19.098611111
wd_Q111511170,Népliget megállóhely,Budapest X. kerülete,Hungary,,Wikidata,47.472774642,19.107284033
wd_Q22023372,Nógrád vasútállomás,Nógrád,Hungary,MÁV Magyar Államvasutak Zrt.,Wikidata,47.902171,19.047104
wd_Q22025891,Nógrádkövesd vasútállomás,Nógrádkövesd,Hungary,MÁV Magyar Államvasutak Zrt.,Wikidata,47.879491,19.371241
wd_Q22025115,Nógrádszakál vasútállomás,Nógrádszakál,Hungary,MÁV Magyar Államvasutak Zrt.,Wikidata,48.17807,19.521654
wd_Q22076184,Ohat-Pusztakócs vasútállomás,Egyek,Hungary,MÁV Magyar Államvasutak Zrt.,Wikidata,47.623352777,20.951027777
wd_Q22002197,Okorág-Kárászpuszta megállóhely,Okorág,Hungary,MÁV Magyar Államvasutak Zrt.,Wikidata,45.933849,17.864918
wd_Q1029098,Oktogon,Budapest VI. kerülete,Hungary,Budapesti Közlekedési Zrt.,Wikidata,47.505,19.063333333
wd_Q22046616,Okány vasútállomás,Okány,Hungary,MÁV Magyar Államvasutak Zrt.,Wikidata,46.892546,21.339236
wd_Q26833868,Olaszfalu megállóhely,Zirc,Hungary,,Wikidata,47.249502777,17.887591666
wd_Q22074887,Olaszliszka-Tolcsva vasútállomás,Vámosújfalu,Hungary,MÁV Magyar Államvasutak Zrt.,Wikidata,48.258230555,21.448022222
wd_Q22071384,Onga vasútállomás,Onga,Hungary,MÁV Magyar Államvasutak Zrt.,Wikidata,48.121897,20.907508
wd_Q116978703,Ongaújfalu megállóhely,,Hungary,MÁV Magyar Államvasutak Zrt.,Wikidata,48.144309,20.91699
wd_Q1029127,Opera,Budapest VI. kerülete,Hungary,Budapesti Közlekedési Zrt.,Wikidata,47.502222222,19.058611111
wd_Q116978704,Orgovány vasútállomás,Orgovány,Hungary,MÁV Magyar Államvasutak Zrt.,Wikidata,46.7501,19.4812
wd_Q116978705,Ormosbánya megállóhely,,Hungary,MÁV Magyar Államvasutak Zrt.,Wikidata,48.333324,20.648676
wd_Q22056049,Oros megállóhely,Nyíregyháza,Hungary,MÁV Magyar Államvasutak Zrt.,Wikidata,47.9458,21.806394
wd_Q22227188,Orosháza felső megállóhely,Orosháza,Hungary,MÁV Magyar Államvasutak Zrt.,Wikidata,46.553522222,20.655772222
wd_Q22044059,Orosháza vasútállomás,Orosháza,Hungary,MÁV Magyar Államvasutak Zrt.,Wikidata,46.566194,20.664466
wd_Q22227351,Orosháza-Üveggyár megállóhely,Orosháza,Hungary,MÁV Magyar Államvasutak Zrt.,Wikidata,46.579880555,20.683413888
wd_Q21877079,Orosházi tanyák megállóhely,Orosháza,Hungary,MÁV Magyar Államvasutak Zrt.,Wikidata,46.596855,20.760652
wd_Q21877364,Oroszlány vasútállomás,Oroszlány,Hungary,MÁV Magyar Államvasutak Zrt.,Wikidata,47.487002,18.308829
wd_Q22116523,Ortaháza megállóhely,Ortaháza,Hungary,MÁV Magyar Államvasutak Zrt.,Wikidata,46.626452777,16.685227777
wd_Q22093516,Ostffyasszonyfa vasútállomás,Sárvár,Hungary,MÁV Magyar Államvasutak Zrt.,Wikidata,47.283944444,17.024233333
wd_Q22132183,Osztopán vasútállomás,Osztopán,Hungary,MÁV Magyar Államvasutak Zrt.,Wikidata,46.514455555,17.657177777
wd_Q116978708,Pacsmag megállóhely,,Hungary,MÁV Magyar Államvasutak Zrt.,Wikidata,46.62237,18.3717
wd_Q22115688,Pakod megállóhely,Pakod,Hungary,MÁV Magyar Államvasutak Zrt.,Wikidata,46.959097222,16.996597222
wd_Q26493380,Paks vasútállomás,Paks,Hungary,MÁV Magyar Államvasutak Zrt.,Wikidata,46.606673,18.85299
wd_Q55183979,Paks-Dunapart megállóhely,Paks,Hungary,MÁV Magyar Államvasutak Zrt.,Wikidata,46.627153,18.869125
wd_Q22002375,Palkonya megállóhely,Palkonya,Hungary,MÁV Magyar Államvasutak Zrt.,Wikidata,45.891444,18.394061
wd_Q114948386,Palotabozsok vasútállomás,Palotabozsok,Hungary,MÁV Magyar Államvasutak Zrt.,Wikidata,46.131972222,18.645444444
wd_Q22050856,Paládicspuszta megállóhely,Abony,Hungary,,Wikidata,47.175895,20.093232
wd_Q22132165,Pamuk megállóhely,Pamuk,Hungary,MÁV Magyar Államvasutak Zrt.,Wikidata,46.557211111,17.634088888
wd_Q22115937,Pankasz megállóhely,Pankasz,Hungary,MÁV Magyar Államvasutak Zrt.,Wikidata,46.836055555,16.497605555
wd_Q21876807,Pannonhalma vasútállomás,Pannonhalma,Hungary,MÁV Magyar Államvasutak Zrt.,Wikidata,47.547614,17.740665
wd_Q16508044,Pannóniatelep,Szentendre,Hungary,MÁV-HÉV Helyiérdekű Vasút Zrt.,Wikidata,47.6523,19.065
wd_Q116978711,Papkeszi vasútállomás,Papkeszi,Hungary,MÁV Magyar Államvasutak Zrt.,Wikidata,47.098217,18.089917
wd_Q33183602,Papírgyár,Budapest XXI. kerülete,Hungary,,Wikidata,47.435426,19.085154
wd_Q22086218,Penyige megállóhely,Penyige,Hungary,MÁV Magyar Államvasutak Zrt.,Wikidata,47.995316666,22.567219444
wd_Q116978713,Pereszteg megállóhely,,Hungary,Győr–Sopron–Ebenfurti Vasút,Wikidata,47.587843,16.721407
wd_Q22073982,Perkupa megállóhely,Perkupa,Hungary,MÁV Magyar Államvasutak Zrt.,Wikidata,48.471938888,20.691180555
wd_Q25834674,Pesterzsébet felső,Budapest XX. kerülete,Hungary,MÁV-HÉV Helyiérdekű Vasút Zrt.,Wikidata,47.438217,19.093564
wd_Q18005409,Pesterzsébet megállóhely,Budapest XX. kerülete,Hungary,MÁV Magyar Államvasutak Zrt.,Wikidata,47.4338,19.097
wd_Q96029828,Pesti indóház,Budapest VI. kerülete,Hungary,,Wikidata,47.510833333,19.0575
wd_Q18005414,Pestszentimre felső megállóhely,Budapest XVIII. kerülete,Hungary,MÁV Magyar Államvasutak Zrt.,Wikidata,47.414,19.1731
wd_Q18005412,Pestszentimre vasútállomás,Budapest XVIII. kerülete,Hungary,MÁV Magyar Államvasutak Zrt.,Wikidata,47.4025,19.1881
wd_Q18005416,Pestszentlőrinc vasútállomás,Budapest XVIII. kerülete,Hungary,MÁV Magyar Államvasutak Zrt.,Wikidata,47.455,19.1823
wd_Q109497090,Pestszentlőrinc-Kavicsbánya vasútállomás,Budapest XVIII. kerülete,Hungary,MÁV Magyar Államvasutak Zrt.,Wikidata,47.443708,19.209195
wd_Q84947674,Pestújhely megállóhely,Budapest XV. kerülete,Hungary,,Wikidata,47.531756,19.125708
wd_Q21876943,Pettend megállóhely,Kápolnásnyék,Hungary,MÁV Magyar Államvasutak Zrt.,Wikidata,47.262701,18.713055
wd_Q22160055,Petőfiszállás vasútállomás,Petőfiszállás,Hungary,MÁV Magyar Államvasutak Zrt.,Wikidata,46.617288888,19.865458333
wd_Q22160056,Petőfiszállási tanyák megállóhely,Petőfiszállás,Hungary,MÁV Magyar Államvasutak Zrt.,Wikidata,46.587744444,19.874780555
wd_Q22059417,Petőfiváros megállóhely,Kiskunfélegyháza,Hungary,MÁV Magyar Államvasutak Zrt.,Wikidata,46.725312,19.847392
wd_Q21890496,Petőháza vasútállomás,Petőháza,Hungary,Győr–Sopron–Ebenfurti Vasút,Wikidata,47.595659,16.889484
wd_Q21921441,Pilis vasútállomás,Pilis,Hungary,MÁV Magyar Államvasutak Zrt.,Wikidata,47.279401,19.537141
wd_Q19960458,Piliscsaba vasútállomás,Piliscsaba,Hungary,MÁV Magyar Államvasutak Zrt.,Wikidata,47.638222,18.829889
wd_Q19960521,Piliscsév megállóhely,Piliscsév,Hungary,MÁV Magyar Államvasutak Zrt.,Wikidata,47.673917,18.791333
wd_Q19960508,Pilisjászfalu megállóhely,Pilisjászfalu,Hungary,MÁV Magyar Államvasutak Zrt.,Wikidata,47.656167,18.796361
wd_Q19960500,Pilisvörösvár vasútállomás,Pilisvörösvár,Hungary,MÁV Magyar Államvasutak Zrt.,Wikidata,47.614222,18.902167
wd_Q2657037,Pillangó utca,Budapest X. kerülete,Hungary,,Wikidata,47.501111111,19.12
wd_Q22002085,Pincehely vasútállomás,Pincehely,Hungary,MÁV Magyar Államvasutak Zrt.,Wikidata,46.681243,18.430129
wd_Q21890497,Pinnye vasútállomás,Pinnye,Hungary,Győr–Sopron–Ebenfurti Vasút,Wikidata,47.600218,16.768983
wd_Q22059165,Piroska megállóhely,Szolnok,Hungary,MÁV Magyar Államvasutak Zrt.,Wikidata,47.146677,20.127904
wd_Q116978714,Piroska-Gyártelep vasútállomás,Szolnok,Hungary,MÁV Magyar Államvasutak Zrt.,Wikidata,47.137457712,20.144815116
wd_Q22031547,Pirtó vasútállomás,Pirtó,Hungary,MÁV Magyar Államvasutak Zrt.,Wikidata,46.49885,19.450108
wd_Q22031409,Pirtói szőlők megállóhely,Pirtó,Hungary,MÁV Magyar Államvasutak Zrt.,Wikidata,46.521341,19.434385
wd_Q21996775,Piszke megállóhely,Lábatlan,Hungary,MÁV Magyar Államvasutak Zrt.,Wikidata,47.753210274,18.477944433
wd_Q22227190,Pitvaros megállóhely,Pitvaros,Hungary,MÁV Magyar Államvasutak Zrt.,Wikidata,46.326311111,20.746130555
wd_Q22057755,Pocsaj-Esztár vasútállomás,Pocsaj,Hungary,MÁV Magyar Államvasutak Zrt.,Wikidata,47.28831,21.792802
wd_Q22072857,Pogonyipuszta megállóhely,Serényfalva,Hungary,,Wikidata,48.296391666,20.381575
wd_Q116978715,Polgár megállóhely,Polgár,Hungary,MÁV Magyar Államvasutak Zrt.,Wikidata,47.861634,21.130562
wd_Q22091038,Polgárdi vasútállomás,Polgárdi,Hungary,MÁV Magyar Államvasutak Zrt.,Wikidata,47.069697222,18.283694444
wd_Q22091121,Polgárdi-Ipartelepek vasútállomás,Polgárdi,Hungary,MÁV Magyar Államvasutak Zrt.,Wikidata,47.079355555,18.314186111
wd_Q22119577,Polgárdi-Tekerespuszta megállóhely,Polgárdi,Hungary,MÁV Magyar Államvasutak Zrt.,Wikidata,47.019036111,18.300602777
wd_Q16508043,Pomáz,Pomáz,Hungary,MÁV-HÉV Helyiérdekű Vasút Zrt.,Wikidata,47.643,19.0324
wd_Q22078562,Porcsalma-Tyukod megállóhely,Tyukod,Hungary,MÁV Magyar Államvasutak Zrt.,Wikidata,47.868055555,22.568394444
wd_Q22076221,Poroszló vasútállomás,Poroszló,Hungary,MÁV Magyar Államvasutak Zrt.,Wikidata,47.657919444,20.654563888
wd_Q21876837,Porpác vasútállomás,Bögöt,Hungary,Győr–Sopron–Ebenfurti Vasút,Wikidata,47.238804,16.832964
wd_Q22222670,Porrogszentkirály megállóhely,Porrogszentkirály,Hungary,MÁV Magyar Államvasutak Zrt.,Wikidata,46.253163888,17.020852777
wd_Q21947872,Portelek vasútállomás,Jászberény,Hungary,MÁV Magyar Államvasutak Zrt.,Wikidata,47.418011,19.958693
wd_Q21876814,Porva-Csesznek megállóhely,Csesznek,Hungary,MÁV Magyar Államvasutak Zrt.,Wikidata,47.326924,17.841404
wd_Q2656757,Puskás Ferenc Stadion,Budapest XIV. kerülete,Hungary,,Wikidata,47.5,19.105833333
wd_Q22132160,Pusztaberény megállóhely,Lengyeltóti,Hungary,MÁV Magyar Államvasutak Zrt.,Wikidata,46.686588888,17.594625
wd_Q22227355,Pusztabánréve megállóhely,Mezőtúr,Hungary,MÁV Magyar Államvasutak Zrt.,Wikidata,46.94,20.556813888
wd_Q26833692,Pusztagyimót megállóhely,Nagygyimót,Hungary,MÁV Magyar Államvasutak Zrt.,Wikidata,47.349641666,17.515030555
wd_Q22047644,Pusztakettős megállóhely,Tiszaszentimre,Hungary,MÁV Magyar Államvasutak Zrt.,Wikidata,47.453485,20.749826
wd_Q21946202,Pusztamonostor vasútállomás,Pusztamonostor,Hungary,MÁV Magyar Államvasutak Zrt.,Wikidata,47.564194,19.794286
wd_Q21922913,Pusztapó megállóhely,Kétpó,Hungary,MÁV Magyar Államvasutak Zrt.,Wikidata,47.092997,20.455824
wd_Q20055127,Pusztaszabolcs vasútállomás,Pusztaszabolcs,Hungary,MÁV Magyar Államvasutak Zrt.,Wikidata,47.139454,18.761435
wd_Q21924628,Pusztaszentistván megállóhely,Mende,Hungary,MÁV Magyar Államvasutak Zrt.,Wikidata,47.439567,19.470703
wd_Q116978716,Pusztaszenttornya megállóhely,Orosháza,Hungary,MÁV Magyar Államvasutak Zrt.,Wikidata,46.620866,20.679173
wd_Q22045696,Pusztatemplom megállóhely,Fábiánsebestyén,Hungary,MÁV Magyar Államvasutak Zrt.,Wikidata,46.6764,20.407255
wd_Q131178821,Pusztavám vasútállomás,Pusztavám,Hungary,MÁV Magyar Államvasutak Zrt.,Wikidata,47.413397,18.247451
wd_Q22072803,Putnok vasútállomás,Putnok,Hungary,MÁV Magyar Államvasutak Zrt.,Wikidata,48.286463888,20.437413888
005518001,PÉCS,Pécs,Hungary,MÁV,known_stations,,
wd_Q22140045,Pácsony vasútállomás,Pácsony,Hungary,Győr–Sopron–Ebenfurti Vasút,Wikidata,47.009755555,16.833813888
wd_Q116978709,Páhi vasútállomás,Páhi,Hungary,MÁV Magyar Államvasutak Zrt.,Wikidata,46.7111,19.3865
wd_Q22138359,Páli-Vadosfa megállóhely,Vadosfa,Hungary,Győr–Sopron–Ebenfurti Vasút,Wikidata,47.492247222,17.137344444
wd_Q22222768,Pálmajor megállóhely,Balatonfenyves,Hungary,,Wikidata,46.662766666,17.457541666
wd_Q21876801,Pápa vasútállomás,Pápa,Hungary,MÁV Magyar Államvasutak Zrt.,Wikidata,47.340572222,17.459088888
wd_Q26833680,Pápateszér vasútállomás,Pápateszér,Hungary,MÁV Magyar Államvasutak Zrt.,Wikidata,47.376033333,17.684288888
wd_Q22071291,Pásztó vasútállomás,Pásztó,Hungary,MÁV Magyar Államvasutak Zrt.,Wikidata,47.919017,19.688932
wd_Q22054869,Pátroha vasútállomás,Pátroha,Hungary,MÁV Magyar Államvasutak Zrt.,Wikidata,48.158715,21.99681
wd_Q116978712,Pátyod megállóhely,,Hungary,MÁV Magyar Államvasutak Zrt.,Wikidata,47.849156,22.613378
wd_Q19960431,Pázmáneum megállóhely,Piliscsaba,Hungary,MÁV Magyar Államvasutak Zrt.,Wikidata,47.630167,18.852472
wd_Q21876979,Pécel vasútállomás,Pécel,Hungary,MÁV Magyar Államvasutak Zrt.,Wikidata,47.493644,19.338621
wd_Q98398565,Pécs felső vasútállomás,Pécs,Hungary,MÁV Magyar Államvasutak Zrt.,Wikidata,46.090617,18.287654
wd_Q16902715,Pécs vasútállomás,Pécs,Hungary,MÁV Magyar Államvasutak Zrt.,Wikidata,46.0667,18.2256
wd_Q98398486,Pécs-Gyárváros megállóhely,Pécs,Hungary,MÁV Magyar Államvasutak Zrt.,Wikidata,46.081363888,18.261311111
wd_Q22002359,Pécs-Külváros vasútállomás,Pécs,Hungary,MÁV Magyar Államvasutak Zrt.,Wikidata,46.071741,18.240121
wd_Q98398612,Pécs-Vasas megállóhely,Pécs,Hungary,MÁV Magyar Államvasutak Zrt.,Wikidata,46.112552777,18.313941666
wd_Q22002362,Pécsbánya-Rendező vasútállomás,Pécs,Hungary,MÁV Magyar Államvasutak Zrt.,Wikidata,46.063993,18.270119
wd_Q22002366,Pécsudvard megállóhely,Pécsudvard,Hungary,MÁV Magyar Államvasutak Zrt.,Wikidata,46.009262,18.275456
wd_Q98398769,Pécsvárad vasútállomás,Pécsvárad,Hungary,MÁV Magyar Államvasutak Zrt.,Wikidata,46.156555555,18.424986111
wd_Q98398534,Pécsújhegy megállóhely,Pécs,Hungary,MÁV Magyar Államvasutak Zrt.,Wikidata,46.086280555,18.276425
wd_Q22003649,Péterhida-Komlósd megállóhely,Péterhida,Hungary,MÁV Magyar Államvasutak Zrt.,Wikidata,46.006659,17.358118
wd_Q22115140,Pétfürdő vasútállomás,Pétfürdő,Hungary,MÁV Magyar Államvasutak Zrt.,Wikidata,47.167272222,18.122486111
wd_Q22115689,Pókaszepetk vasútállomás,Pókaszepetk,Hungary,MÁV Magyar Államvasutak Zrt.,Wikidata,46.924475,16.971997222
wd_Q22138344,Pósfa megállóhely,Pósfa,Hungary,Győr–Sopron–Ebenfurti Vasút,Wikidata,47.326861111,16.855730555
wd_Q21997995,Pörböly vasútállomás,Pörböly,Hungary,MÁV Magyar Államvasutak Zrt.,Wikidata,46.199134,18.827916
wd_Q22117615,Pötréte megállóhely,Pötréte,Hungary,MÁV Magyar Államvasutak Zrt.,Wikidata,46.681977777,16.958038888
wd_Q2387571,Pöttyös utca,Budapest,Hungary,,Wikidata,47.468611111,19.116944444
wd_Q22025889,Püspökhatvan megállóhely,Püspökhatvan,Hungary,MÁV Magyar Államvasutak Zrt.,Wikidata,47.77282,19.368765
wd_Q21877072,Püspökladány vasútállomás,Püspökladány,Hungary,MÁV Magyar Államvasutak Zrt.,Wikidata,47.327809,21.128662
wd_Q22046817,Püspökladány-Vásártér megállóhely,Püspökladány,Hungary,MÁV Magyar Államvasutak Zrt.,Wikidata,47.319061,21.096129
wd_Q22140120,Püspökmolnári vasútállomás,Püspökmolnári,Hungary,Győr–Sopron–Ebenfurti Vasút,Wikidata,47.084880555,16.768572222
wd_Q12815768,Rajka vasútállomás,Rajka,Hungary,Győr–Sopron–Ebenfurti Vasút,Wikidata,47.9942,17.1925
wd_Q22074494,Rakamaz vasútállomás,Rakamaz,Hungary,MÁV Magyar Államvasutak Zrt.,Wikidata,48.120152777,21.474827777
wd_Q22117171,Raposka megállóhely,Raposka,Hungary,MÁV Magyar Államvasutak Zrt.,Wikidata,46.850841666,17.412463888
wd_Q21876808,Ravazd megállóhely,Pannonhalma,Hungary,MÁV Magyar Államvasutak Zrt.,Wikidata,47.530014,17.759616
wd_Q116978717,Recsk-Kőrakodó vasútállomás,Recsk,Hungary,MÁV Magyar Államvasutak Zrt.,Wikidata,47.928291,20.126489
wd_Q30308264,Recsk-Parádfürdő vasútállomás,Recsk,Hungary,MÁV Magyar Államvasutak Zrt.,Wikidata,47.931724,20.1077
wd_Q22002090,Regöly megállóhely,Regöly,Hungary,MÁV Magyar Államvasutak Zrt.,Wikidata,46.56883,18.396252
wd_Q116978718,Reje megállóhely,Tiszadob,Hungary,MÁV Magyar Államvasutak Zrt.,Wikidata,47.982011,21.202237
wd_Q22115396,Rigács megállóhely,Rigács,Hungary,MÁV Magyar Államvasutak Zrt.,Wikidata,47.060569444,17.199416666
wd_Q97656394,Romhány vasútállomás,Romhány,Hungary,MÁV Magyar Államvasutak Zrt.,Wikidata,47.9205997,19.2606329
wd_Q26833672,Románd megállóhely,Románd,Hungary,MÁV Magyar Államvasutak Zrt.,Wikidata,47.439369444,17.793430555
wd_Q22086223,Rozsály megállóhely,Rozsály,Hungary,MÁV Magyar Államvasutak Zrt.,Wikidata,47.912930555,22.782325
wd_Q116978719,Rudabánya vasútállomás,Rudabánya,Hungary,MÁV Magyar Államvasutak Zrt.,Wikidata,48.36759,20.629368
wd_Q116978720,Rudabánya-Teher vasútállomás,Rudabánya,Hungary,MÁV Magyar Államvasutak Zrt.,Wikidata,48.364081,20.632839
wd_Q21869599,Rudnaykert megállóhely,Váchartyán,Hungary,MÁV Magyar Államvasutak Zrt.,Wikidata,47.717439,19.258174
wd_Q22093553,Rábahíd megállóhely,Várkesző,Hungary,MÁV Magyar Államvasutak Zrt.,Wikidata,47.438536111,17.337675
wd_Q21890485,Rábapatona megállóhely,Rábapatona,Hungary,Győr–Sopron–Ebenfurti Vasút,Wikidata,47.649082,17.463039
wd_Q22093552,Rábapordány megállóhely,Rábapordány,Hungary,MÁV Magyar Államvasutak Zrt.,Wikidata,47.557438888,17.315236111
wd_Q21890487,Rábatamási vasútállomás,Rábatamási,Hungary,Győr–Sopron–Ebenfurti Vasút,Wikidata,47.592841,17.161589
wd_Q21997273,Rácalmás vasútállomás,Rácalmás,Hungary,MÁV Magyar Államvasutak Zrt.,Wikidata,47.02427,18.909804
wd_Q25834499,Ráckeve,Ráckeve,Hungary,MÁV-HÉV Helyiérdekű Vasút Zrt.,Wikidata,47.175563,18.941833
wd_Q22116533,Rádiháza megállóhely,Gutorfölde,Hungary,MÁV Magyar Államvasutak Zrt.,Wikidata,46.655083333,16.766563888
wd_Q12815863,Rákos vasútállomás,Budapest X. kerülete,Hungary,MÁV Magyar Államvasutak Zrt.,Wikidata,47.4887,19.1742
wd_Q19570148,Rákoscsaba megállóhely,Budapest XVII. kerülete,Hungary,MÁV Magyar Államvasutak Zrt.,Wikidata,47.492059,19.284319
wd_Q16522598,Rákoscsaba-Újtelep megállóhely,Budapest XVII. kerülete,Hungary,MÁV Magyar Államvasutak Zrt.,Wikidata,47.487241,19.271231
wd_Q25840216,Rákosfalva,Budapest XIV. kerülete,Hungary,MÁV-HÉV Helyiérdekű Vasút Zrt.,Wikidata,47.505097222,19.151747222
wd_Q19570002,Rákoshegy vasútállomás,Budapest XVII. kerülete,Hungary,MÁV Magyar Államvasutak Zrt.,Wikidata,47.467968,19.244845
wd_Q23296609,Rákoskeresztúr megállóhely,Budapest,Hungary,,Wikidata,47.487783333,19.243602777
wd_Q19569975,Rákoskert megállóhely,Budapest XVII. kerülete,Hungary,MÁV Magyar Államvasutak Zrt.,Wikidata,47.456594,19.295607
wd_Q12815865,Rákosliget megállóhely,Budapest XVII. kerülete,Hungary,MÁV Magyar Államvasutak Zrt.,Wikidata,47.4861,19.2581
wd_Q18005420,Rákospalota-Kertváros megállóhely,Budapest XV. kerülete,Hungary,MÁV Magyar Államvasutak Zrt.,Wikidata,47.5777,19.1223
wd_Q3097464,Rákospalota-Újpest vasútállomás,Budapest XV. kerülete,Hungary,MÁV Magyar Államvasutak Zrt.,Wikidata,47.5658,19.112
wd_Q1252489,Rákosrendező vasútállomás,Budapest XIV. kerülete,Hungary,MÁV Magyar Államvasutak Zrt.,Wikidata,47.5253,19.0894
wd_Q18005422,Rákosszentmihály vasútállomás,Budapest XVI. kerülete,Hungary,MÁV Magyar Államvasutak Zrt.,Wikidata,47.521232,19.146214
wd_Q3454149,Rákóczi tér,Budapest VIII. kerülete,Hungary,,Wikidata,47.4927,19.0717
wd_Q22056077,Rákóczitanya megállóhely,Vaja,Hungary,MÁV Magyar Államvasutak Zrt.,Wikidata,48.022126,22.177957
wd_Q22025301,Ráróspuszta megállóhely,Nógrádszakál,Hungary,MÁV Magyar Államvasutak Zrt.,Wikidata,48.20716,19.541279
wd_Q22075335,Rátka megállóhely,Rátka,Hungary,MÁV Magyar Államvasutak Zrt.,Wikidata,48.214416666,21.230177777
wd_Q21888108,Rátót megállóhely,Rátót,Hungary,Győr–Sopron–Ebenfurti Vasút,Wikidata,46.967606,16.433042
wd_Q22116531,Rédics vasútállomás,Rédics,Hungary,MÁV Magyar Államvasutak Zrt.,Wikidata,46.617977777,16.471122222
wd_Q22138348,Répcelak vasútállomás,Répcelak,Hungary,Győr–Sopron–Ebenfurti Vasút,Wikidata,47.419016666,17.009033333
wd_Q22121936,Répáspuszta megállóhely,Kaposvár,Hungary,MÁV Magyar Államvasutak Zrt.,Wikidata,46.430266666,17.847491666
wd_Q22132509,Rétszilas alsó megállóhely,Sárbogárd,Hungary,MÁV Magyar Államvasutak Zrt.,Wikidata,46.828830555,18.637183333
wd_Q21876872,Rétszilas vasútállomás,Sárbogárd,Hungary,MÁV Magyar Államvasutak Zrt.,Wikidata,46.814041,18.601431
wd_Q97656396,Rétság vasútállomás,Rétság,Hungary,MÁV Magyar Államvasutak Zrt.,Wikidata,47.9250173,19.1303931
wd_Q22091812,Révfülöp vasútállomás,Révfülöp,Hungary,MÁV Magyar Államvasutak Zrt.,Wikidata,46.829052777,17.632361111
wd_Q16508038,Rómaifürdő,Budapest III. kerülete,Hungary,MÁV-HÉV Helyiérdekű Vasút Zrt.,Wikidata,47.575296,19.048486
wd_Q22056332,Röszke vasútállomás,Röszke,Hungary,MÁV Magyar Államvasutak Zrt.,Wikidata,46.194043,20.03269
005517001,SZEGED,Szeged,Hungary,MÁV,known_stations,,
005520001,SZOLNOK,Szolnok,Hungary,MÁV,known_stations,,
wd_Q116978721,Sajóbábony vasútállomás,Sajóbábony,Hungary,MÁV Magyar Államvasutak Zrt.,Wikidata,48.167322,20.723348
wd_Q22071955,Sajóecseg vasútállomás,Sajóecseg,Hungary,MÁV Magyar Államvasutak Zrt.,Wikidata,48.185566666,20.766541666
wd_Q22072652,Sajókaza megállóhely,Sajóivánka,Hungary,MÁV Magyar Államvasutak Zrt.,Wikidata,48.272788888,20.582161111
wd_Q22071957,Sajókeresztúr megállóhely,Sajókeresztúr,Hungary,MÁV Magyar Államvasutak Zrt.,Wikidata,48.167944444,20.774116666
wd_Q102245954,Sajómercse megállóhely,Sajómercse,Hungary,,Wikidata,48.262444444,20.415027777
wd_Q22072968,Sajónémeti megállóhely,Sajónémeti,Hungary,MÁV Magyar Államvasutak Zrt.,Wikidata,48.270105555,20.366969444
wd_Q22071959,Sajószentpéter vasútállomás,Sajószentpéter,Hungary,MÁV Magyar Államvasutak Zrt.,Wikidata,48.222052777,20.708491666
wd_Q22071958,Sajószentpéter-Piactér megállóhely,Sajószentpéter,Hungary,MÁV Magyar Államvasutak Zrt.,Wikidata,48.219741666,20.726005555
wd_Q22041481,Sajószöged megállóhely,Sajószöged,Hungary,MÁV Magyar Államvasutak Zrt.,Wikidata,47.942459,20.98925
wd_Q22071260,Salgótarján külső vasútállomás,Salgótarján,Hungary,MÁV Magyar Államvasutak Zrt.,Wikidata,48.089299,19.791012
wd_Q539574,Salgótarján megállóhely,Salgótarján,Hungary,MÁV Magyar Államvasutak Zrt.,Wikidata,48.1049091,19.8062613
wd_Q21887975,Salköveskút-Vassurány megállóhely,Salköveskút,Hungary,Győr–Sopron–Ebenfurti Vasút,Wikidata,47.291117,16.703835
wd_Q22046612,Sarkad vasútállomás,Sarkad,Hungary,MÁV Magyar Államvasutak Zrt.,Wikidata,46.735537,21.398782
wd_Q22046611,Sarkadi Cukorgyár megállóhely,Sarkad,Hungary,MÁV Magyar Államvasutak Zrt.,Wikidata,46.729809,21.38389
wd_Q22046615,Sarkadkeresztúr megállóhely,Sarkadkeresztúr,Hungary,MÁV Magyar Államvasutak Zrt.,Wikidata,46.823152,21.417025
wd_Q25840248,Sashalom,Budapest XVI. kerülete,Hungary,MÁV-HÉV Helyiérdekű Vasút Zrt.,Wikidata,47.508958333,19.178752777
wd_Q57315170,Segesd megállóhely,Segesd,Hungary,MÁV Magyar Államvasutak Zrt.,Wikidata,46.339963888,17.344336111
wd_Q22002191,Sellye vasútállomás,Sellye,Hungary,MÁV Magyar Államvasutak Zrt.,Wikidata,45.873159,17.859188
wd_Q22160054,Selymes megállóhely,Kiskunfélegyháza,Hungary,MÁV Magyar Államvasutak Zrt.,Wikidata,46.655455555,19.853538888
wd_Q22071311,Selyp vasútállomás,Lőrinci,Hungary,MÁV Magyar Államvasutak Zrt.,Wikidata,47.75885,19.670913888
wd_Q2633721,Semmelweis Klinikák,Budapest,Hungary,,Wikidata,47.482777777,19.079166666
wd_Q21997323,Seregélyes megállóhely,Seregélyes,Hungary,MÁV Magyar Államvasutak Zrt.,Wikidata,47.12087,18.58155
wd_Q21997322,Seregélyes-Szőlőhegy megállóhely,Seregélyes,Hungary,MÁV Magyar Államvasutak Zrt.,Wikidata,47.119276,18.612774
wd_Q116978729,Siklós vasútállomás,Siklós,Hungary,MÁV Magyar Államvasutak Zrt.,Wikidata,45.85904,18.305791
wd_Q116978730,Siklósi szőlők megállóhely,Siklós,Hungary,MÁV Magyar Államvasutak Zrt.,Wikidata,45.863156,18.28631
wd_Q22000289,Simontornya vasútállomás,Simontornya,Hungary,MÁV Magyar Államvasutak Zrt.,Wikidata,46.756545,18.540781
wd_Q22227370,Sirató megállóhely,Szarvas,Hungary,MÁV Magyar Államvasutak Zrt.,Wikidata,46.840586111,20.609836111
wd_Q28833094,Sirok megállóhely,Sirok,Hungary,MÁV Magyar Államvasutak Zrt.,Wikidata,47.9156232,20.1745901
wd_Q21876867,Siófok vasútállomás,Siófok,Hungary,MÁV Magyar Államvasutak Zrt.,Wikidata,46.907577777,18.053538888
wd_Q116978731,Siófok-Teher vasútállomás,Siófok,Hungary,MÁV Magyar Államvasutak Zrt.,Wikidata,46.910156,18.061132
wd_Q22121892,Siójut megállóhely,Siójut,Hungary,MÁV Magyar Államvasutak Zrt.,Wikidata,46.880591666,18.125394444
wd_Q22121896,Sióvölgy megállóhely,Siófok,Hungary,MÁV Magyar Államvasutak Zrt.,Wikidata,46.911244444,18.076988888
wd_Q102243801,Solt vasútállomás,Solt,Hungary,MÁV Magyar Államvasutak Zrt.,Wikidata,46.801722222,19.010972222
wd_Q22031398,Soltszentimre megállóhely,Soltszentimre,Hungary,MÁV Magyar Államvasutak Zrt.,Wikidata,46.76851,19.263593
wd_Q22031517,Soltvadkert vasútállomás,Soltvadkert,Hungary,MÁV Magyar Államvasutak Zrt.,Wikidata,46.569765,19.395418
wd_Q19570076,Solymár megállóhely,Solymár,Hungary,MÁV Magyar Államvasutak Zrt.,Wikidata,47.595938,18.94937
wd_Q19758660,Solymártelep vasútállomás,Solymár,Hungary,,Wikidata,47.606111111,18.914722222
wd_Q22121894,Som-Nagyberény megállóhely,Som,Hungary,MÁV Magyar Államvasutak Zrt.,Wikidata,46.802833333,18.149388888
wd_Q22116499,Somlóvásárhely megállóhely,Somlóvásárhely,Hungary,MÁV Magyar Államvasutak Zrt.,Wikidata,47.124386111,17.368861111
wd_Q22121938,Somodor megállóhely,Somodor,Hungary,MÁV Magyar Államvasutak Zrt.,Wikidata,46.472419444,17.836688888
wd_Q22121928,Somogyaszaló megállóhely,Somogyaszaló,Hungary,MÁV Magyar Államvasutak Zrt.,Wikidata,46.453716666,17.840577777
wd_Q22132185,Somogyjád megállóhely,Somogyjád,Hungary,MÁV Magyar Államvasutak Zrt.,Wikidata,46.490688888,17.694455555
wd_Q22121911,Somogymeggyes megállóhely,Somogymeggyes,Hungary,MÁV Magyar Államvasutak Zrt.,Wikidata,46.720444444,17.920744444
wd_Q22222769,Somogyszentpál felső megállóhely,Somogyszentpál,Hungary,,Wikidata,46.649198,17.4719448
wd_Q22222770,Somogyszentpál vasútállomás,Somogyszentpál,Hungary,MÁV Magyar Államvasutak Zrt.,Wikidata,46.639022222,17.478480555
wd_Q21877082,Somogyszob vasútállomás,Somogyszob,Hungary,MÁV Magyar Államvasutak Zrt.,Wikidata,46.289066666,17.306963888
wd_Q22003645,Somogyudvarhely megállóhely,Somogyudvarhely,Hungary,MÁV Magyar Államvasutak Zrt.,Wikidata,46.16325,17.17948
wd_Q22132164,Somogyvár megállóhely,Somogyvár,Hungary,MÁV Magyar Államvasutak Zrt.,Wikidata,46.5805,17.634847222
wd_Q22071275,Somoskőújfalu vasútállomás,Somoskőújfalu,Hungary,MÁV Magyar Államvasutak Zrt.,Wikidata,48.155193,19.815728
wd_Q1007116,Sopron vasútállomás,Sopron,Hungary,Győr–Sopron–Ebenfurti Vasút,Wikidata,47.677777777,16.587777777
wd_Q22095560,Sopron-Déli pályaudvar,Sopron,Hungary,,Wikidata,47.685058333,16.573669444
wd_Q116978733,Sopron-Rendező vasútállomás,Sopron,Hungary,Győr–Sopron–Ebenfurti Vasút,Wikidata,47.668984,16.599364
wd_Q21887958,Sopronkövesd megállóhely,Sopronkövesd,Hungary,Győr–Sopron–Ebenfurti Vasút,Wikidata,47.54752,16.74855
wd_Q22140105,Sorkifalud megállóhely,Sorkifalud,Hungary,Győr–Sopron–Ebenfurti Vasút,Wikidata,47.136852777,16.719725
wd_Q25834704,Soroksár felső,Budapest XXIII. kerülete,Hungary,MÁV-HÉV Helyiérdekű Vasút Zrt.,Wikidata,47.409707,19.111913
wd_Q18005425,Soroksár vasútállomás,Budapest XXIII. kerülete,Hungary,MÁV Magyar Államvasutak Zrt.,Wikidata,47.402313,19.123175
wd_Q25834701,"Soroksár, Hősök tere",Budapest XXIII. kerülete,Hungary,MÁV-HÉV Helyiérdekű Vasút Zrt.,Wikidata,47.39943,19.11467
wd_Q102109017,Soroksár-Terminál vasútállomás,Budapest XXIII. kerülete,Hungary,MÁV Magyar Államvasutak Zrt.,Wikidata,47.374527777,19.114277777
wd_Q55743750,Soroksári út rendező vasútállomás,Budapest IX. kerülete,Hungary,MÁV Magyar Államvasutak Zrt.,Wikidata,47.451597,19.0869
wd_Q18005427,Soroksári út vasútállomás,Budapest IX. kerülete,Hungary,MÁV Magyar Államvasutak Zrt.,Wikidata,47.4575,19.0836
wd_Q22002199,Sumony megállóhely,Sumony,Hungary,MÁV Magyar Államvasutak Zrt.,Wikidata,45.960675,17.911749
wd_Q21876874,Szabadbattyán vasútállomás,Szabadbattyán,Hungary,MÁV Magyar Államvasutak Zrt.,Wikidata,47.105519444,18.387977777
wd_Q22002140,Szabadegyháza vasútállomás,Szabadegyháza,Hungary,MÁV Magyar Államvasutak Zrt.,Wikidata,47.082722,18.704358
wd_Q22119575,Szabadifürdő megállóhely,Siófok,Hungary,MÁV Magyar Államvasutak Zrt.,Wikidata,46.924386111,18.099938888
wd_Q22119574,Szabadisóstó vasútállomás,Siófok,Hungary,MÁV Magyar Államvasutak Zrt.,Wikidata,46.934086111,18.118530555
wd_Q25840068,Szabadkikötő,Budapest XXI. kerülete,Hungary,MÁV-HÉV Helyiérdekű Vasút Zrt.,Wikidata,47.444375,19.071619444
wd_Q116978736,Szabadkígyós vasútállomás,Szabadkígyós,Hungary,MÁV Magyar Államvasutak Zrt.,Wikidata,46.607568,21.122851
wd_Q22031393,Szabadszállás vasútállomás,Szabadszállás,Hungary,MÁV Magyar Államvasutak Zrt.,Wikidata,46.870442,19.210067
wd_Q19960378,Szabadságliget megállóhely,Pilisvörösvár,Hungary,MÁV Magyar Államvasutak Zrt.,Wikidata,47.625861,18.894139
wd_Q25840342,Szabadságtelep,Budapest XVI. kerülete,Hungary,MÁV-HÉV Helyiérdekű Vasút Zrt.,Wikidata,47.537444444,19.206116666
wd_Q21921719,Szajol vasútállomás,Szajol,Hungary,MÁV Magyar Államvasutak Zrt.,Wikidata,47.170413,20.295251
wd_Q114985232,Szakmár megállóhely,Kalocsa,Hungary,MÁV Magyar Államvasutak Zrt.,Wikidata,46.5260554,19.0697202
wd_Q22002091,Szakály-Hőgyész vasútállomás,Szakály,Hungary,MÁV Magyar Államvasutak Zrt.,Wikidata,46.523826,18.389305
wd_Q21998409,Szalatnak megállóhely,Szalatnak,Hungary,MÁV Magyar Államvasutak Zrt.,Wikidata,46.284645,18.288991
wd_Q102243278,Szalkszentmárton vasútállomás,Szalkszentmárton,Hungary,MÁV Magyar Államvasutak Zrt.,Wikidata,46.970888888,19.023861111
wd_Q22073981,Szalonna megállóhely,Szalonna,Hungary,MÁV Magyar Államvasutak Zrt.,Wikidata,48.448502777,20.722252777
wd_Q116978738,Szank vasútállomás,Szank,Hungary,MÁV Magyar Államvasutak Zrt.,Wikidata,46.55023,19.66724
wd_Q22093548,Szany-Rábaszentandrás vasútállomás,Szany,Hungary,MÁV Magyar Államvasutak Zrt.,Wikidata,47.460716666,17.315175
wd_Q36651202,Szarkás megállóhely,Kecskemét,Hungary,,Wikidata,46.9334,19.5491
wd_Q22227363,Szarvas vasútállomás,Szarvas,Hungary,MÁV Magyar Államvasutak Zrt.,Wikidata,46.860475,20.566741666
wd_Q22040985,Szarvaskő megállóhely,Szarvaskő,Hungary,MÁV Magyar Államvasutak Zrt.,Wikidata,47.988409,20.332589
wd_Q21998902,Szatina-Kishajmás megállóhely,Kishajmás,Hungary,MÁV Magyar Államvasutak Zrt.,Wikidata,46.202635,18.083759
wd_Q21995054,Szatymaz vasútállomás,Szatymaz,Hungary,MÁV Magyar Államvasutak Zrt.,Wikidata,46.345694444,20.043972222
wd_Q116978739,Szedres megállóhely,,Hungary,MÁV Magyar Államvasutak Zrt.,Wikidata,46.47849,18.717152
wd_Q1295359,Szeged vasútállomás,Szeged,Hungary,MÁV Magyar Államvasutak Zrt.,Wikidata,46.2397,20.1428
wd_Q116978740,Szeged-Rendező vasútállomás,Szeged,Hungary,MÁV Magyar Államvasutak Zrt.,Wikidata,46.230289,20.12525
wd_Q22044056,Szeged-Rókus vasútállomás,Szeged,Hungary,MÁV Magyar Államvasutak Zrt.,Wikidata,46.266194,20.125194
wd_Q123997046,Szeged-Tisza vasútállomás,Szeged,Hungary,MÁV Magyar Államvasutak Zrt.,Wikidata,46.235433,20.142427
wd_Q21914392,Szeghalom vasútállomás,Szeghalom,Hungary,MÁV Magyar Államvasutak Zrt.,Wikidata,47.01518,21.148097
wd_Q22074883,Szegi megállóhely,Szegi,Hungary,MÁV Magyar Államvasutak Zrt.,Wikidata,48.201002777,21.386705555
wd_Q22043851,Szegvár vasútállomás,Szegvár,Hungary,MÁV Magyar Államvasutak Zrt.,Wikidata,46.588452,20.249281
wd_Q21872326,Szekszárd vasútállomás,Szekszárd,Hungary,MÁV Magyar Államvasutak Zrt.,Wikidata,46.349297,18.712804
wd_Q21997756,Szekszárd-Palánk megállóhely,Szekszárd,Hungary,MÁV Magyar Államvasutak Zrt.,Wikidata,46.380866,18.728948
wd_Q22059472,Szelevény megállóhely,Szelevény,Hungary,MÁV Magyar Államvasutak Zrt.,Wikidata,46.811652777,20.195830555
wd_Q22039383,Szellőhát megállóhely,Jászkisér,Hungary,MÁV Magyar Államvasutak Zrt.,Wikidata,47.425609,20.188977
wd_Q18005431,Szemeretelep megállóhely,Budapest XVIII. kerülete,Hungary,MÁV Magyar Államvasutak Zrt.,Wikidata,47.444049,19.212756
wd_Q22073980,Szendrő felső megállóhely,Szendrő,Hungary,MÁV Magyar Államvasutak Zrt.,Wikidata,48.410002777,20.720127777
wd_Q22073979,Szendrő vasútállomás,Szendrő,Hungary,MÁV Magyar Államvasutak Zrt.,Wikidata,48.400325,20.721372222
wd_Q22073977,Szendrőlád megállóhely,Szendrőlád,Hungary,MÁV Magyar Államvasutak Zrt.,Wikidata,48.334225,20.731744444
wd_Q3501475,Szent Gellért tér – Műegyetem,Budapest XI. kerülete,Hungary,,Wikidata,47.4833,19.0542
wd_Q25840072,Szent Imre tér,Budapest XXI. kerülete,Hungary,MÁV-HÉV Helyiérdekű Vasút Zrt.,Wikidata,47.431236111,19.067663888
wd_Q25834703,Szent István utca,Budapest XXIII. kerülete,Hungary,MÁV-HÉV Helyiérdekű Vasút Zrt.,Wikidata,47.391748,19.114985
wd_Q22222669,Szenta vasútállomás,Szenta,Hungary,MÁV Magyar Államvasutak Zrt.,Wikidata,46.273705555,17.180947222
wd_Q22076759,Szentannapuszta megállóhely,Vámospércs,Hungary,MÁV Magyar Államvasutak Zrt.,Wikidata,47.519811111,21.965830555
wd_Q22003468,Szentdénes megállóhely,Nagypeterd,Hungary,MÁV Magyar Államvasutak Zrt.,Wikidata,46.0365,17.9271
wd_Q16508046,Szentendre,Szentendre,Hungary,MÁV-HÉV Helyiérdekű Vasút Zrt.,Wikidata,47.6609,19.0754
wd_Q9351294,Szentes vasútállomás,Szentes,Hungary,MÁV Magyar Államvasutak Zrt.,Wikidata,46.6576,20.2724
wd_Q22045699,Szentetornya megállóhely,Orosháza,Hungary,MÁV Magyar Államvasutak Zrt.,Wikidata,46.590946,20.628253
wd_Q21876839,Szentgotthárd vasútállomás,Szentgotthárd,Hungary,Győr–Sopron–Ebenfurti Vasút,Wikidata,46.957347,16.263313
wd_Q22116494,Szentgál vasútállomás,Szentgál,Hungary,MÁV Magyar Államvasutak Zrt.,Wikidata,47.136533333,17.707319444
wd_Q16508041,Szentistvántelep,Budakalász,Hungary,MÁV-HÉV Helyiérdekű Vasút Zrt.,Wikidata,47.6288,19.0433
wd_Q25849147,Szentjakab,Mogyoród,Hungary,MÁV-HÉV Helyiérdekű Vasút Zrt.,Wikidata,47.597275,19.290361111
wd_Q16508037,Szentlélek tér,Budapest III. kerülete,Hungary,MÁV-HÉV Helyiérdekű Vasút Zrt.,Wikidata,47.539701,19.047171
wd_Q22140113,Szentléránt megállóhely,Sorkifalud,Hungary,Győr–Sopron–Ebenfurti Vasút,Wikidata,47.121922222,16.733738888
wd_Q21877083,Szentlőrinc vasútállomás,Szentlőrinc,Hungary,MÁV Magyar Államvasutak Zrt.,Wikidata,46.033076,17.990684
wd_Q115779515,Szentmihálytelek megállóhely,Szeged,Hungary,,Wikidata,46.2187045,20.0755969
wd_Q21924829,Szentmártonkáta megállóhely,Szentmártonkáta,Hungary,MÁV Magyar Államvasutak Zrt.,Wikidata,47.432206,19.679828
wd_Q116978742,Szepes megállóhely,,Hungary,MÁV Magyar Államvasutak Zrt.,Wikidata,47.453767,21.612592
wd_Q116978741,Szepeshalom megállóhely,,Hungary,MÁV Magyar Államvasutak Zrt.,Wikidata,47.478341,21.598626
wd_Q22091925,Szepezdfürdő megállóhely,Balatonszepezd,Hungary,MÁV Magyar Államvasutak Zrt.,Wikidata,46.839722222,17.649716666
wd_Q22093501,Szerecseny megállóhely,Szerecseny,Hungary,MÁV Magyar Államvasutak Zrt.,Wikidata,47.469177777,17.547397222
wd_Q22074411,Szerencs vasútállomás,Szerencs,Hungary,MÁV Magyar Államvasutak Zrt.,Wikidata,48.155883333,21.21485
wd_Q22046814,Szerep megállóhely,Szerep,Hungary,MÁV Magyar Államvasutak Zrt.,Wikidata,47.234442,21.145796
wd_Q25835884,Szigetcsép,Szigetcsép,Hungary,MÁV-HÉV Helyiérdekű Vasút Zrt.,Wikidata,47.270046,18.956171
wd_Q25835136,Szigethalom,Szigethalom,Hungary,MÁV-HÉV Helyiérdekű Vasút Zrt.,Wikidata,47.329931,18.993611
wd_Q25835292,Szigethalom alsó,Szigethalom,Hungary,MÁV-HÉV Helyiérdekű Vasút Zrt.,Wikidata,47.321414,18.983561
wd_Q25834897,Szigetszentmiklós alsó,Szigetszentmiklós,Hungary,MÁV-HÉV Helyiérdekű Vasút Zrt.,Wikidata,47.336475,19.019749
wd_Q25834893,Szigetszentmiklós megállóhely,Szigetszentmiklós,Hungary,MÁV-HÉV Helyiérdekű Vasút Zrt.,Wikidata,47.344279,19.050335
wd_Q25834903,Szigetszentmiklós-Gyártelep,Szigetszentmiklós,Hungary,MÁV-HÉV Helyiérdekű Vasút Zrt.,Wikidata,47.333749,19.004201
wd_Q25835890,Szigetszentmárton-Szigetújfalu,Szigetszentmárton,Hungary,MÁV-HÉV Helyiérdekű Vasút Zrt.,Wikidata,47.228059,18.946054
wd_Q22003462,Szigetvár vasútállomás,Szigetvár,Hungary,MÁV Magyar Államvasutak Zrt.,Wikidata,46.043063,17.801966
wd_Q22041530,Szihalom megállóhely,Szihalom,Hungary,MÁV Magyar Államvasutak Zrt.,Wikidata,47.767181,20.492849
wd_Q22059267,Szikra megállóhely,Lakitelek,Hungary,MÁV Magyar Államvasutak Zrt.,Wikidata,46.858298,19.975365
wd_Q22071386,Szikszó vasútállomás,Szikszó,Hungary,MÁV Magyar Államvasutak Zrt.,Wikidata,48.201641,20.941738
wd_Q22071385,Szikszó-Vásártér megállóhely,Szikszó,Hungary,MÁV Magyar Államvasutak Zrt.,Wikidata,48.192934,20.934802
wd_Q116978743,Szikáncs megállóhely,Hódmezővásárhely,Hungary,MÁV Magyar Államvasutak Zrt.,Wikidata,46.361724,20.446404
wd_Q22138361,Szil-Sopronnémeti vasútállomás,Sopronnémeti,Hungary,Győr–Sopron–Ebenfurti Vasút,Wikidata,47.533377777,17.209561111
wd_Q25848810,Szilasliget,Kerepes,Hungary,MÁV-HÉV Helyiérdekű Vasút Zrt.,Wikidata,47.568058333,19.2746
wd_Q22040991,Szilvásvárad vasútállomás,Szilvásvárad,Hungary,MÁV Magyar Államvasutak Zrt.,Wikidata,48.113548,20.379019
wd_Q22040988,Szilvásvárad-Szalajkavölgy megállóhely,Szilvásvárad,Hungary,MÁV Magyar Államvasutak Zrt.,Wikidata,48.095608,20.382505
wd_Q22071956,Szirmabesenyő megállóhely,Szirmabesenyő,Hungary,MÁV Magyar Államvasutak Zrt.,Wikidata,48.147747222,20.782891666
wd_Q21866925,Szob alsó megállóhely,Szob,Hungary,MÁV Magyar Államvasutak Zrt.,Wikidata,47.818126,18.869066
wd_Q21866926,Szob vasútállomás,Szob,Hungary,MÁV Magyar Államvasutak Zrt.,Wikidata,47.821061,18.862018
wd_Q22023363,Szokolya vasútállomás,Szokolya,Hungary,MÁV Magyar Államvasutak Zrt.,Wikidata,47.871108,19.030638
wd_Q116978744,Szolnok Déli Ipartelepi rendező vasútállomás,Szolnok,Hungary,MÁV Magyar Államvasutak Zrt.,Wikidata,47.15478,20.13725
wd_Q12816327,Szolnok vasútállomás,Szolnok,Hungary,MÁV Magyar Államvasutak Zrt.,Wikidata,47.179568291,20.175714533
wd_Q116978745,Szolnok-Rendező vasútállomás,Szolnok,Hungary,MÁV Magyar Államvasutak Zrt.,Wikidata,47.183459,20.170422
wd_Q21872202,Szombathely vasútállomás,Szombathely,Hungary,Győr–Sopron–Ebenfurti Vasút,Wikidata,47.23737,16.632595
wd_Q116978746,Szombathely-Rendező vasútállomás,Szombathely,Hungary,Győr–Sopron–Ebenfurti Vasút,Wikidata,47.229261,16.637208
wd_Q21888103,Szombathely-Szőlős megállóhely,Szombathely,Hungary,Győr–Sopron–Ebenfurti Vasút,Wikidata,47.206466,16.641753
wd_Q22075994,Szorgalmatos megállóhely,Szorgalmatos,Hungary,MÁV Magyar Államvasutak Zrt.,Wikidata,47.978758333,21.365288888
wd_Q116978748,Szuhakálló-Múcsony megállóhely,,Hungary,MÁV Magyar Államvasutak Zrt.,Wikidata,48.281608,20.656355
wd_Q22071306,Szurdokpüspöki vasútállomás,Szurdokpüspöki,Hungary,MÁV Magyar Államvasutak Zrt.,Wikidata,47.8515,19.690286111
wd_Q26833718,Szák-Szend megállóhely,Szákszend,Hungary,MÁV Magyar Államvasutak Zrt.,Wikidata,47.516916,18.187264
wd_Q21877038,Szántód vasútállomás,Szántód,Hungary,MÁV Magyar Államvasutak Zrt.,Wikidata,46.862263888,17.89955
wd_Q21876900,Szár megállóhely,Szárliget,Hungary,MÁV Magyar Államvasutak Zrt.,Wikidata,47.485104,18.527632
wd_Q22002088,Szárazd megállóhely,Szárazd,Hungary,MÁV Magyar Államvasutak Zrt.,Wikidata,46.5753,18.420368
wd_Q102143778,Szárazrét megállóhely,Székesfehérvár,Hungary,MÁV Magyar Államvasutak Zrt.,Wikidata,47.200944444,18.381083333
wd_Q21890491,Szárföld megállóhely,Szárföld,Hungary,Győr–Sopron–Ebenfurti Vasút,Wikidata,47.589281,17.123
wd_Q21876903,Szárliget vasútállomás,Szárliget,Hungary,MÁV Magyar Államvasutak Zrt.,Wikidata,47.518346,18.495825
wd_Q22039380,Szászberek megállóhely,Szászberek,Hungary,MÁV Magyar Államvasutak Zrt.,Wikidata,47.320556,20.090947
wd_Q21998414,Szászvár megállóhely,Szászvár,Hungary,MÁV Magyar Államvasutak Zrt.,Wikidata,46.287362,18.369811
wd_Q21876970,Százhalombatta vasútállomás,Százhalombatta,Hungary,MÁV Magyar Államvasutak Zrt.,Wikidata,47.322483,18.89892
wd_Q2301391,Széchenyi fürdő,Budapest XIV. kerülete,Hungary,Budapesti Közlekedési Zrt.,Wikidata,47.517222222,19.080833333
wd_Q88469044,"Széchenyi-hegy, Gyermekvasút",Budapest,Hungary,Budapesti Közlekedési Zrt.,Wikidata,47.495237,18.979673
wd_Q23293144,Széchenyihegy vasútállomás,Budapest,Hungary,MÁV Magyar Államvasutak Zrt.,Wikidata,47.4941227,18.976704
wd_Q22025112,Szécsény vasútállomás,Szécsény,Hungary,MÁV Magyar Államvasutak Zrt.,Wikidata,48.092506,19.521224
wd_Q11086563,Székesfehérvár vasútállomás,Székesfehérvár,Hungary,MÁV Magyar Államvasutak Zrt.,Wikidata,47.183413,18.424716
wd_Q21995684,Székkutas vasútállomás,Székkutas,Hungary,MÁV Magyar Államvasutak Zrt.,Wikidata,46.504066666,20.540994444
wd_Q19758637,Szélhegy megállóhely,Solymár,Hungary,MÁV Magyar Államvasutak Zrt.,Wikidata,47.601111,18.928056
wd_Q2533009,Széll Kálmán tér,Budapest,Hungary,,Wikidata,47.506944444,19.024722222
wd_Q23288262,Szépjuhászné vasútállomás,Budapest,Hungary,MÁV Magyar Államvasutak Zrt.,Wikidata,47.5284007,18.9552207
wd_Q16508035,Szépvölgyi út,Budapest III. kerülete,Hungary,MÁV-HÉV Helyiérdekű Vasút Zrt.,Wikidata,47.527273,19.040131
wd_Q116978747,Szörény megállóhely,Szörény,Hungary,MÁV Magyar Államvasutak Zrt.,Wikidata,45.971905,17.679943
wd_Q22025886,Szügy megállóhely,Szügy,Hungary,MÁV Magyar Államvasutak Zrt.,Wikidata,48.036286,19.333062
wd_Q21866913,Sződ-Sződliget megállóhely,Sződliget,Hungary,MÁV Magyar Államvasutak Zrt.,Wikidata,47.727951,19.154856
wd_Q22002367,Szőkéd megállóhely,Szőkéd,Hungary,MÁV Magyar Államvasutak Zrt.,Wikidata,45.966982,18.290635
wd_Q21924727,Szőlősnyaraló megállóhely,Sülysáp,Hungary,,Wikidata,47.450703,19.559399
wd_Q21876922,Szőny megállóhely,Komárom,Hungary,MÁV Magyar Államvasutak Zrt.,Wikidata,47.735716,18.177084
wd_Q21996839,Szőny-Déli megállóhely,Komárom,Hungary,MÁV Magyar Államvasutak Zrt.,Wikidata,47.73687,18.143197
wd_Q22227131,Szőreg vasútállomás,Szeged,Hungary,MÁV Magyar Államvasutak Zrt.,Wikidata,46.2117,20.182616666
wd_Q73035949,Szőreg-Újtelep megállóhely,Szőreg,Hungary,,Wikidata,46.198333,20.198333
wd_Q22023994,Sáferkút megállóhely,Drégelypalánk,Hungary,MÁV Magyar Államvasutak Zrt.,Wikidata,48.028567,19.044313
wd_Q116978722,Sámod megállóhely,Sámod,Hungary,MÁV Magyar Államvasutak Zrt.,Wikidata,45.84456,18.039235
wd_Q21898145,Sáp vasútállomás,Sáp,Hungary,,Wikidata,47.25974,21.360785
wd_Q21997551,Sárbogárd vasútállomás,Sárbogárd,Hungary,MÁV Magyar Államvasutak Zrt.,Wikidata,46.896801,18.61187
wd_Q21999784,Sáregres megállóhely,Sáregres,Hungary,MÁV Magyar Államvasutak Zrt.,Wikidata,46.782617,18.589087
wd_Q22116532,Sárhida megállóhely,Sárhida,Hungary,MÁV Magyar Államvasutak Zrt.,Wikidata,46.755172222,16.851266666
wd_Q116978723,Sárkeresztúr megállóhely,,Hungary,MÁV Magyar Államvasutak Zrt.,Wikidata,47.009187,18.55274
wd_Q116978724,Sármellék vasútállomás,Sármellék,Hungary,MÁV Magyar Államvasutak Zrt.,Wikidata,46.709927,17.168508
wd_Q22002141,Sárosd vasútállomás,Sárosd,Hungary,MÁV Magyar Államvasutak Zrt.,Wikidata,47.039566,18.660214
wd_Q22074890,Sárospatak vasútállomás,Sárospatak,Hungary,MÁV Magyar Államvasutak Zrt.,Wikidata,48.325725,21.565905555
wd_Q116978725,Sárpentele megállóhely,Sárszentmihály,Hungary,MÁV Magyar Államvasutak Zrt.,Wikidata,47.168867,18.360445
wd_Q116978726,Sárpilis-Várdomb megállóhely,,Hungary,MÁV Magyar Államvasutak Zrt.,Wikidata,46.243584,18.720653
wd_Q22046813,Sárrétudvari megállóhely,Sárrétudvari,Hungary,MÁV Magyar Államvasutak Zrt.,Wikidata,47.231404,21.180702
wd_Q116978728,Sárszentmihály vasútállomás,Sárszentmihály,Hungary,MÁV Magyar Államvasutak Zrt.,Wikidata,47.170105,18.314803
wd_Q116978727,Sárszentágota megállóhely,,Hungary,MÁV Magyar Államvasutak Zrt.,Wikidata,46.977502,18.569608
wd_Q21876827,Sárvár vasútállomás,Sárvár,Hungary,MÁV Magyar Államvasutak Zrt.,Wikidata,47.25895,16.928933
wd_Q22057742,Sáránd vasútállomás,Mikepércs,Hungary,MÁV Magyar Államvasutak Zrt.,Wikidata,47.414271,21.625131
wd_Q21998892,Sásd vasútállomás,Sásd,Hungary,MÁV Magyar Államvasutak Zrt.,Wikidata,46.257212,18.104466
wd_Q102245654,Sáta megállóhely,Sáta,Hungary,MÁV Magyar Államvasutak Zrt.,Wikidata,48.185444444,20.382611111
wd_Q22074891,Sátoraljaújhely vasútállomás,Sátoraljaújhely,Hungary,MÁV Magyar Államvasutak Zrt.,Wikidata,48.385852777,21.657880555
wd_Q22117274,Sávoly vasútállomás,Sávoly,Hungary,MÁV Magyar Államvasutak Zrt.,Wikidata,46.609219444,17.235322222
wd_Q116978732,Sóly megállóhely,,Hungary,MÁV Magyar Államvasutak Zrt.,Wikidata,47.13003,18.037844
wd_Q33183495,Sósfürdő,Budapest XX. kerülete,Hungary,,Wikidata,47.436515,19.090701
wd_Q22054860,Sóstó megállóhely,Nyíregyháza,Hungary,MÁV Magyar Államvasutak Zrt.,Wikidata,47.997097,21.729034
wd_Q116978735,Sóstógyógyfürdő megállóhely,,Hungary,MÁV Magyar Államvasutak Zrt.,Wikidata,,
wd_Q22054863,Sóstóhegy vasútállomás,Nyíregyháza,Hungary,MÁV Magyar Államvasutak Zrt.,Wikidata,48.012295,21.74279
wd_Q21924653,Sülysáp vasútállomás,Sülysáp,Hungary,MÁV Magyar Államvasutak Zrt.,Wikidata,47.451842,19.527139
wd_Q22117134,Sümeg vasútállomás,Sümeg,Hungary,MÁV Magyar Államvasutak Zrt.,Wikidata,46.981055555,17.270666666
wd_Q22117137,Sümegi Bazaltbánya megállóhely,Sümeg,Hungary,MÁV Magyar Államvasutak Zrt.,Wikidata,46.952341666,17.292533333
wd_Q21996776,Süttő felső megállóhely,Süttő,Hungary,MÁV Magyar Államvasutak Zrt.,Wikidata,47.756908986,18.437562435
wd_Q21996779,Süttő vasútállomás,Süttő,Hungary,MÁV Magyar Államvasutak Zrt.,Wikidata,47.761286945,18.45489487
wd_Q22121891,Tab vasútállomás,Tab,Hungary,MÁV Magyar Államvasutak Zrt.,Wikidata,46.734072222,18.041097222
wd_Q22031508,Tabdi megállóhely,Tabdi,Hungary,MÁV Magyar Államvasutak Zrt.,Wikidata,46.679756,19.282572
wd_Q22039096,Tajó megállóhely,Kiskunmajsa,Hungary,MÁV Magyar Államvasutak Zrt.,Wikidata,46.47253,19.650164
wd_Q22030369,Taksony vasútállomás,Taksony,Hungary,MÁV Magyar Államvasutak Zrt.,Wikidata,47.320548,19.076661
wd_Q22074409,Taktaharkány vasútállomás,Taktaharkány,Hungary,MÁV Magyar Államvasutak Zrt.,Wikidata,48.091911111,21.129066666
wd_Q22074410,Taktaszada megállóhely,Taktaszada,Hungary,MÁV Magyar Államvasutak Zrt.,Wikidata,48.112530555,21.149452777
wd_Q73804149,Tamási vasútállomás,Tamási,Hungary,MÁV Magyar Államvasutak Zrt.,Wikidata,46.628212,18.289974
wd_Q22077094,Tamásipuszta megállóhely,Nyíradony,Hungary,MÁV Magyar Államvasutak Zrt.,Wikidata,47.632663888,21.795719444
wd_Q21876869,Tapolca vasútállomás,Tapolca,Hungary,MÁV Magyar Államvasutak Zrt.,Wikidata,46.877016666,17.428763888
wd_Q22071287,Tar vasútállomás,Tar,Hungary,MÁV Magyar Államvasutak Zrt.,Wikidata,47.956026,19.746348
wd_Q22074469,Tarcal vasútállomás,Tarcal,Hungary,MÁV Magyar Államvasutak Zrt.,Wikidata,48.12505,21.339894444
wd_Q113190754,Tardosi Kőbányák megállóhely,Mónosbél,Hungary,,Wikidata,48.008805,20.326968
wd_Q21886089,Tarjánpuszta vasútállomás,Tarjánpuszta,Hungary,MÁV Magyar Államvasutak Zrt.,Wikidata,47.504745,17.788806
wd_Q22047680,Tarnaszentmiklós vasútállomás,Tarnaszentmiklós,Hungary,MÁV Magyar Államvasutak Zrt.,Wikidata,47.547163,20.390295
wd_Q30308588,Tarnaszentmária megállóhely,Tarnaszentmária,Hungary,MÁV Magyar Államvasutak Zrt.,Wikidata,47.879259,20.197165
wd_Q22222640,Taszár vasútállomás,Taszár,Hungary,MÁV Magyar Államvasutak Zrt.,Wikidata,46.363527777,17.893719444
wd_Q15122554,Tata vasútállomás,Tata,Hungary,MÁV Magyar Államvasutak Zrt.,Wikidata,47.6647,18.3275
wd_Q12816463,Tatabánya vasútállomás,Tatabánya,Hungary,MÁV Magyar Államvasutak Zrt.,Wikidata,47.58559,18.393157
wd_Q22132162,Tatárvár megállóhely,Öreglak,Hungary,MÁV Magyar Államvasutak Zrt.,Wikidata,46.636566666,17.621222222
wd_Q22075989,Tedej megállóhely,Hajdúnánás,Hungary,MÁV Magyar Államvasutak Zrt.,Wikidata,47.902719444,21.404069444
wd_Q116978749,Teklafalu megállóhely,Teklafalu,Hungary,MÁV Magyar Államvasutak Zrt.,Wikidata,45.9576,17.733519
wd_Q22044064,Telekgerendás vasútállomás,Telekgerendás,Hungary,MÁV Magyar Államvasutak Zrt.,Wikidata,46.655898,20.963899
wd_Q21997759,Tengelic megállóhely,Tengelic,Hungary,MÁV Magyar Államvasutak Zrt.,Wikidata,46.51583,18.695126
wd_Q22056455,Tiborszállás megállóhely,Tiborszállás,Hungary,MÁV Magyar Államvasutak Zrt.,Wikidata,47.815312,22.402856
wd_Q25834646,Timót utca,Budapest IX. kerülete,Hungary,MÁV-HÉV Helyiérdekű Vasút Zrt.,Wikidata,47.447975,19.090429
wd_Q22059422,Tiszaalpár alsó megállóhely,Tiszaalpár,Hungary,MÁV Magyar Államvasutak Zrt.,Wikidata,46.790798,19.951498
wd_Q22059424,Tiszaalpár felső megállóhely,Tiszaalpár,Hungary,MÁV Magyar Államvasutak Zrt.,Wikidata,46.836168,19.976955
wd_Q22059423,Tiszaalpár megállóhely,Tiszaalpár,Hungary,MÁV Magyar Államvasutak Zrt.,Wikidata,46.818595,19.982657
wd_Q116978750,Tiszabercel megállóhely,,Hungary,MÁV Magyar Államvasutak Zrt.,Wikidata,,
wd_Q22054876,Tiszabezdéd megállóhely,Tiszabezdéd,Hungary,MÁV Magyar Államvasutak Zrt.,Wikidata,48.37131,22.144919
wd_Q116978751,Tiszacsege vasútállomás,Tiszacsege,Hungary,MÁV Magyar Államvasutak Zrt.,Wikidata,47.693647,21.00851
wd_Q116978752,Tiszadada megállóhely,Tiszadada,Hungary,MÁV Magyar Államvasutak Zrt.,Wikidata,48.019154,21.247299
wd_Q116978753,Tiszadob megállóhely,Tiszadob,Hungary,MÁV Magyar Államvasutak Zrt.,Wikidata,47.994866,21.207819
wd_Q22074509,Tiszaeszlár megállóhely,Tiszaeszlár,Hungary,MÁV Magyar Államvasutak Zrt.,Wikidata,48.010580555,21.492161111
wd_Q22061483,Tiszaföldvár vasútállomás,Tiszaföldvár,Hungary,MÁV Magyar Államvasutak Zrt.,Wikidata,46.975661111,20.276630555
wd_Q22047650,Tiszafüred vasútállomás,Tiszafüred,Hungary,MÁV Magyar Államvasutak Zrt.,Wikidata,47.627948,20.755804
wd_Q22047645,Tiszafüred-Gyártelep megállóhely,Tiszafüred,Hungary,MÁV Magyar Államvasutak Zrt.,Wikidata,47.616025,20.737166
wd_Q22059189,Tiszajenő alsó megállóhely,Tiszajenő,Hungary,MÁV Magyar Államvasutak Zrt.,Wikidata,47.017044,20.134536
wd_Q22059187,Tiszajenő-Vezseny megállóhely,Tiszajenő,Hungary,MÁV Magyar Államvasutak Zrt.,Wikidata,47.036507,20.142425
wd_Q22059192,Tiszakécske vasútállomás,Tiszakécske,Hungary,MÁV Magyar Államvasutak Zrt.,Wikidata,46.937469,20.081965
wd_Q22074505,Tiszalök vasútállomás,Tiszalök,Hungary,MÁV Magyar Államvasutak Zrt.,Wikidata,48.012861111,21.369341666
wd_Q116978754,Tiszalöki Vízművek megállóhely,Tiszalök,Hungary,MÁV Magyar Államvasutak Zrt.,Wikidata,48.017923,21.315286
wd_Q22074408,Tiszalúc megállóhely,Tiszalúc,Hungary,MÁV Magyar Államvasutak Zrt.,Wikidata,48.039544444,21.056583333
wd_Q30702354,Tiszapalkonya-Erőmű vasútállomás,Tiszaújváros,Hungary,MÁV Magyar Államvasutak Zrt.,Wikidata,47.909929,21.04864
wd_Q22059467,Tiszasas megállóhely,Tiszasas,Hungary,MÁV Magyar Államvasutak Zrt.,Wikidata,46.825788,20.08989
wd_Q22047648,Tiszaszentimre megállóhely,Tiszaszentimre,Hungary,MÁV Magyar Államvasutak Zrt.,Wikidata,47.49092,20.733336
wd_Q72939614,Tiszasziget-Újszentiván vasútállomás,Újszentiván,Hungary,,Wikidata,46.184444,20.17
wd_Q22047649,Tiszaszőlős vasútállomás,Tiszaszőlős,Hungary,MÁV Magyar Államvasutak Zrt.,Wikidata,47.555228,20.728176
wd_Q116978756,Tiszatelek megállóhely,,Hungary,MÁV Magyar Államvasutak Zrt.,Wikidata,,
wd_Q21921841,Tiszatenyő vasútállomás,Tiszatenyő,Hungary,MÁV Magyar Államvasutak Zrt.,Wikidata,47.135695,20.369639
wd_Q22059466,Tiszaug megállóhely,Tiszaug,Hungary,MÁV Magyar Államvasutak Zrt.,Wikidata,46.850475,20.074247222
wd_Q22059464,Tiszaug-Tiszahídfő megállóhely,Tiszaug,Hungary,MÁV Magyar Államvasutak Zrt.,Wikidata,46.866162,20.052436
wd_Q22075990,Tiszavasvári vasútállomás,Tiszavasvári,Hungary,MÁV Magyar Államvasutak Zrt.,Wikidata,47.945327777,21.375011111
wd_Q22059200,Tiszavárkony megállóhely,Tiszavárkony,Hungary,MÁV Magyar Államvasutak Zrt.,Wikidata,47.059397,20.142824
wd_Q22041478,Tiszaújváros vasútállomás,Tiszaújváros,Hungary,MÁV Magyar Államvasutak Zrt.,Wikidata,47.926054,21.030033
wd_Q22077096,Tisztavíz megállóhely,Nyíradony,Hungary,MÁV Magyar Államvasutak Zrt.,Wikidata,47.644513888,21.823805555
wd_Q22074470,Tokaj vasútállomás,Tokaj,Hungary,MÁV Magyar Államvasutak Zrt.,Wikidata,48.112991666,21.406988888
wd_Q21996752,Tokod vasútállomás,Tokod,Hungary,MÁV Magyar Államvasutak Zrt.,Wikidata,47.734604,18.674676
wd_Q97656235,Tolmács megállóhely,Tolmács,Hungary,MÁV Magyar Államvasutak Zrt.,Wikidata,47.9302799,19.1114491
wd_Q21997762,Tolna-Mözs vasútállomás,Tolna,Hungary,MÁV Magyar Államvasutak Zrt.,Wikidata,46.414847,18.750089
wd_Q22002084,Tolnanémedi vasútállomás,Tolnanémedi,Hungary,MÁV Magyar Államvasutak Zrt.,Wikidata,46.728926,18.477427
wd_Q22031459,Tompa megállóhely,Szabadka,Hungary,MÁV Magyar Államvasutak Zrt.,Wikidata,46.233472,19.577216
wd_Q22227454,Tompapuszta megállóhely,Battonya,Hungary,MÁV Magyar Államvasutak Zrt.,Wikidata,46.321011111,20.966975
wd_Q22121932,Toponár megállóhely,Kaposvár,Hungary,MÁV Magyar Államvasutak Zrt.,Wikidata,46.395716666,17.839869444
wd_Q21887972,Tormásliget megállóhely,Tormásliget,Hungary,Győr–Sopron–Ebenfurti Vasút,Wikidata,47.430308,16.78167
wd_Q22073986,Tornanádaska vasútállomás,Tornanádaska,Hungary,MÁV Magyar Államvasutak Zrt.,Wikidata,48.558019444,20.787097222
wd_Q22056400,Tornyospálca vasútállomás,Tornyospálca,Hungary,MÁV Magyar Államvasutak Zrt.,Wikidata,48.268426,22.202202
wd_Q25834712,Torontál utca,Budapest XXIII. kerülete,Hungary,MÁV-HÉV Helyiérdekű Vasút Zrt.,Wikidata,47.423097,19.105265
wd_Q22086185,Tunyogmatolcs alsó megállóhely,Tunyogmatolcs,Hungary,MÁV Magyar Államvasutak Zrt.,Wikidata,47.966091666,22.464808333
wd_Q22086181,Tunyogmatolcs megállóhely,Tunyogmatolcs,Hungary,MÁV Magyar Államvasutak Zrt.,Wikidata,47.9606,22.442630555
wd_Q21877020,Tura megállóhely,Tura,Hungary,MÁV Magyar Államvasutak Zrt.,Wikidata,47.6264,19.597194
wd_Q22054875,Tuzsér vasútállomás,Tuzsér,Hungary,MÁV Magyar Államvasutak Zrt.,Wikidata,48.342411,22.131642
wd_Q21876151,Táborfalva vasútállomás,Táborfalva,Hungary,MÁV Magyar Államvasutak Zrt.,Wikidata,47.098803,19.479039
wd_Q22075331,Tállya vasútállomás,Tállya,Hungary,MÁV Magyar Államvasutak Zrt.,Wikidata,48.228175,21.223044444
wd_Q21924847,Tápiógyörgye vasútállomás,Tápiógyörgye,Hungary,MÁV Magyar Államvasutak Zrt.,Wikidata,47.324965,19.949359
wd_Q21924789,Tápiószecső vasútállomás,Tápiószecső,Hungary,MÁV Magyar Államvasutak Zrt.,Wikidata,47.441336,19.620543
wd_Q21924845,Tápiószele vasútállomás,Tápiószele,Hungary,MÁV Magyar Államvasutak Zrt.,Wikidata,47.34625,19.873666
wd_Q21924835,Tápiószentmárton megállóhely,Tápiószentmárton,Hungary,MÁV Magyar Államvasutak Zrt.,Wikidata,47.373678,19.797366
wd_Q26833621,Tápszentmiklós megállóhely,Tápszentmiklós,Hungary,MÁV Magyar Államvasutak Zrt.,Wikidata,47.477222222,17.8675
wd_Q102145036,Tárkány-Csép megállóhely,Tárkány,Hungary,MÁV Magyar Államvasutak Zrt.,Wikidata,47.594722222,18.041111111
wd_Q21876936,Tárnok vasútállomás,Tárnok,Hungary,MÁV Magyar Államvasutak Zrt.,Wikidata,47.365795,18.874378
wd_Q21996736,Tát megállóhely,Tát,Hungary,MÁV Magyar Államvasutak Zrt.,Wikidata,47.741395643,18.647394329
wd_Q22054785,Téglás megállóhely,Téglás,Hungary,MÁV Magyar Államvasutak Zrt.,Wikidata,47.714613,21.684844
wd_Q3097158,Tétényliget megállóhely,Budapest XXII. kerülete,Hungary,MÁV Magyar Államvasutak Zrt.,Wikidata,47.3852,18.9554
wd_Q16508036,Tímár utca,Budapest III. kerülete,Hungary,MÁV-HÉV Helyiérdekű Vasút Zrt.,Wikidata,47.53355,19.044225
wd_Q22075964,Tócóvölgy vasútállomás,Debrecen,Hungary,MÁV Magyar Államvasutak Zrt.,Wikidata,47.5292,21.588677777
wd_Q102245229,Tófalu megállóhely,Tófalu,Hungary,MÁV Magyar Államvasutak Zrt.,Wikidata,47.7745,20.230666666
wd_Q22116522,Tófej megállóhely,Tófej,Hungary,MÁV Magyar Államvasutak Zrt.,Wikidata,46.669897222,16.800611111
wd_Q114985231,Tófürdő megállóhely,Debrecen,Hungary,MÁV Magyar Államvasutak Zrt.,Wikidata,47.5759022,21.4591331
wd_Q22059185,Tószeg vasútállomás,Tószeg,Hungary,MÁV Magyar Államvasutak Zrt.,Wikidata,47.098076,20.138383
wd_Q22227191,Tótkomlós vasútállomás,Tótkomlós,Hungary,MÁV Magyar Államvasutak Zrt.,Wikidata,46.408727777,20.7269
wd_Q21876913,Tóvároskert megállóhely,Tata,Hungary,MÁV Magyar Államvasutak Zrt.,Wikidata,47.647037,18.347959
wd_Q25835296,Tököl,Tököl,Hungary,MÁV-HÉV Helyiérdekű Vasút Zrt.,Wikidata,47.313302,18.974158
wd_Q21876890,Törökbálint megállóhely,Törökbálint,Hungary,MÁV Magyar Államvasutak Zrt.,Wikidata,47.449975,18.909622
wd_Q116978757,Törökfái vasútállomás,Kecskemét,Hungary,MÁV Magyar Államvasutak Zrt.,Wikidata,46.83331,19.64837
wd_Q21921850,Törökszentmiklós vasútállomás,Törökszentmiklós,Hungary,MÁV Magyar Államvasutak Zrt.,Wikidata,47.169615,20.411214
wd_Q117081716,Törökőr HÉV-állomás,Budapest X. kerülete,Hungary,MÁV-HÉV Helyiérdekű Vasút Zrt.,Wikidata,47.50047,19.114978
wd_Q22115693,Türje megállóhely,Türje,Hungary,MÁV Magyar Államvasutak Zrt.,Wikidata,46.995158333,17.094583333
wd_Q92015754,Tüskeszentpéter megállóhely,Zalaszentgrót,Hungary,MÁV Magyar Államvasutak Zrt.,Wikidata,46.970080555,17.077222222
wd_Q22116491,Tüskevár vasútállomás,Tüskevár,Hungary,MÁV Magyar Államvasutak Zrt.,Wikidata,47.128708333,17.331538888
wd_Q22059425,Tőserdő megállóhely,Lakitelek,Hungary,MÁV Magyar Államvasutak Zrt.,Wikidata,46.851171,19.980014
wd_Q26833682,Ugod vasútállomás,Ugod,Hungary,MÁV Magyar Államvasutak Zrt.,Wikidata,47.332558333,17.600188888
wd_Q21872939,Ukk vasútállomás,Ukk,Hungary,MÁV Magyar Államvasutak Zrt.,Wikidata,47.040591,17.196233
wd_Q102242726,Uzovicstelep megállóhely,Izsák,Hungary,MÁV Magyar Államvasutak Zrt.,Wikidata,46.804305555,19.297388888
wd_Q22117135,Uzsa vasútállomás,Uzsa,Hungary,MÁV Magyar Államvasutak Zrt.,Wikidata,46.920366666,17.331558333
wd_Q22117136,Uzsabánya alsó megállóhely,Uzsa,Hungary,MÁV Magyar Államvasutak Zrt.,Wikidata,46.898341666,17.345308333
wd_Q116978761,Uzsabánya vasútállomás,Uzsa,Hungary,MÁV Magyar Államvasutak Zrt.,Wikidata,46.893438,17.335852
wd_Q23289575,Vadaspark megállóhely,Budapest,Hungary,,Wikidata,47.5226909,18.9492718
wd_Q22072711,Vadna megállóhely,Vadna,Hungary,MÁV Magyar Államvasutak Zrt.,Wikidata,48.276263888,20.555922222
wd_Q22056075,Vaja-Rohod vasútállomás,Vaja,Hungary,MÁV Magyar Államvasutak Zrt.,Wikidata,48.006548,22.163491
wd_Q116978762,Vajszló megállóhely,Vajszló,Hungary,MÁV Magyar Államvasutak Zrt.,Wikidata,45.861701,17.98851
wd_Q21997750,Vajta vasútállomás,Vajta,Hungary,MÁV Magyar Államvasutak Zrt.,Wikidata,46.714161,18.647999
wd_Q98398625,Vasas-Hird megállóhely,Pécs,Hungary,MÁV Magyar Államvasutak Zrt.,Wikidata,46.118788888,18.336969444
wd_Q22138346,Vasegerszeg megállóhely,Vasegerszeg,Hungary,Győr–Sopron–Ebenfurti Vasút,Wikidata,47.374541666,16.928330555
wd_Q22140139,Vasvár vasútállomás,Vasvár,Hungary,Győr–Sopron–Ebenfurti Vasút,Wikidata,47.056967,16.800034
wd_Q22093500,Vaszar vasútállomás,Vaszar,Hungary,MÁV Magyar Államvasutak Zrt.,Wikidata,47.402527777,17.496283333
wd_Q19569795,Vasútmúzeum megállóhely,Budapest XIV. kerülete,Hungary,MÁV Magyar Államvasutak Zrt.,Wikidata,47.543888888,19.099166666
wd_Q116978763,Vasúttörténeti Park vasútállomás,Budapest XIV. kerülete,Hungary,MÁV Magyar Államvasutak Zrt.,Wikidata,47.541917,19.095615
wd_Q21921431,Vecsés vasútállomás,Vecsés,Hungary,MÁV Magyar Államvasutak Zrt.,Wikidata,47.408454,19.256438
wd_Q21921432,Vecsés-Kertekalja megállóhely,Vecsés,Hungary,MÁV Magyar Államvasutak Zrt.,Wikidata,47.403301,19.272838
wd_Q36632903,Vedresháza megállóhely,Tiszasziget,Hungary,,Wikidata,46.170622,20.144082
wd_Q21876947,Velence megállóhely,Velence,Hungary,MÁV Magyar Államvasutak Zrt.,Wikidata,47.226883,18.663787
wd_Q21876954,Velencefürdő megállóhely,Velence,Hungary,MÁV Magyar Államvasutak Zrt.,Wikidata,47.218629,18.648168
wd_Q21869585,Veresegyház vasútállomás,Veresegyház,Hungary,MÁV Magyar Államvasutak Zrt.,Wikidata,47.649125,19.288778
wd_Q30308604,Verpelét megállóhely,Verpelét,Hungary,MÁV Magyar Államvasutak Zrt.,Wikidata,47.855366,20.211904
wd_Q21866915,Verőce vasútállomás,Verőce,Hungary,MÁV Magyar Államvasutak Zrt.,Wikidata,47.823842,19.031346
wd_Q21890493,Veszkény megállóhely,Babót,Hungary,Győr–Sopron–Ebenfurti Vasút,Wikidata,47.587139,17.099935
wd_Q21872088,Veszprém vasútállomás,Veszprém,Hungary,MÁV Magyar Államvasutak Zrt.,Wikidata,47.118979,17.911302
wd_Q21876802,Veszprémvarsány vasútállomás,Veszprémvarsány,Hungary,MÁV Magyar Államvasutak Zrt.,Wikidata,47.443352,17.81862
wd_Q22138357,Vica megállóhely,Beled,Hungary,Győr–Sopron–Ebenfurti Vasút,Wikidata,47.477722222,17.111747222
wd_Q21869592,Vicziántelep megállóhely,Veresegyház,Hungary,MÁV Magyar Államvasutak Zrt.,Wikidata,47.67592,19.286117
wd_Q21877084,Villány vasútállomás,Villány,Hungary,MÁV Magyar Államvasutak Zrt.,Wikidata,45.877332,18.451527
wd_Q22002376,Villánykövesd megállóhely,Villánykövesd,Hungary,MÁV Magyar Államvasutak Zrt.,Wikidata,45.879825,18.426253
wd_Q22160073,Vilmaszállás megállóhely,Szatymaz,Hungary,MÁV Magyar Államvasutak Zrt.,Wikidata,46.366444444,20.030869444
wd_Q118978441,Vilonya-Királyszentistván megállóhely,Vilonya,Hungary,MÁV Magyar Államvasutak Zrt.,Wikidata,47.112073,18.053965
wd_Q22059268,Világoshegy megállóhely,Lakitelek,Hungary,MÁV Magyar Államvasutak Zrt.,Wikidata,46.855228,19.940003
wd_Q97656478,Világospuszta megállóhely,Romhány,Hungary,,Wikidata,47.920922,19.21467
wd_Q21876812,Vinye megállóhely,Bakonyszentlászló,Hungary,MÁV Magyar Államvasutak Zrt.,Wikidata,47.360184,17.819669
wd_Q22093509,Vinár vasútállomás,Vinár,Hungary,MÁV Magyar Államvasutak Zrt.,Wikidata,47.305727777,17.282552777
wd_Q1460235,Virágvölgy vasútállomás,Budapest,Hungary,MÁV Magyar Államvasutak Zrt.,Wikidata,47.5058353,18.9587408
wd_Q22074492,Virányos megállóhely,Tiszanagyfalu,Hungary,MÁV Magyar Államvasutak Zrt.,Wikidata,48.067922222,21.526105555
wd_Q22056396,Vitka megállóhely,Vásárosnamény,Hungary,MÁV Magyar Államvasutak Zrt.,Wikidata,48.095483,22.308155
wd_Q21890495,Vitnyéd-Csermajor megállóhely,Vitnyéd,Hungary,Győr–Sopron–Ebenfurti Vasút,Wikidata,47.582051,16.986843
wd_Q116978764,Vitézipuszta megállóhely,Teklafalu,Hungary,MÁV Magyar Államvasutak Zrt.,Wikidata,45.933833,17.738647
wd_Q116978765,Vizslás megállóhely,,Hungary,MÁV Magyar Államvasutak Zrt.,Wikidata,48.040071,19.806384
wd_Q22002374,Vokány megállóhely,Vokány,Hungary,MÁV Magyar Államvasutak Zrt.,Wikidata,45.89948,18.334267
wd_Q22117164,Vonyarcvashegy vasútállomás,Vonyarcvashegy,Hungary,MÁV Magyar Államvasutak Zrt.,Wikidata,46.755188888,17.318233333
wd_Q21850265,Vác vasútállomás,Vác,Hungary,MÁV Magyar Államvasutak Zrt.,Wikidata,47.782630555,19.132861111
wd_Q21866914,Vác-Alsóváros megállóhely,Vác,Hungary,MÁV Magyar Államvasutak Zrt.,Wikidata,47.773231,19.149483
wd_Q21869605,Váchartyán megállóhely,Váchartyán,Hungary,MÁV Magyar Államvasutak Zrt.,Wikidata,47.725311,19.249507
wd_Q23283208,Váckisújfalu megállóhely,Váckisújfalu,Hungary,MÁV Magyar Államvasutak Zrt.,Wikidata,47.705119444,19.340252777
wd_Q21869607,Vácrátót vasútállomás,Vácrátót,Hungary,MÁV Magyar Államvasutak Zrt.,Wikidata,47.732777,19.217916
wd_Q22138347,Vámoscsalád megállóhely,Vámoscsalád,Hungary,Győr–Sopron–Ebenfurti Vasút,Wikidata,47.385336111,16.961369444
wd_Q22039314,Vámosgyörk vasútállomás,Vámosgyörk,Hungary,MÁV Magyar Államvasutak Zrt.,Wikidata,47.686028,19.927639
wd_Q22076765,Vámospércs vasútállomás,Vámospércs,Hungary,MÁV Magyar Államvasutak Zrt.,Wikidata,47.517866666,21.893969444
wd_Q21998438,Váralja megállóhely,Váralja,Hungary,MÁV Magyar Államvasutak Zrt.,Wikidata,46.281115,18.436764
wd_Q22132186,Várda megállóhely,Várda,Hungary,MÁV Magyar Államvasutak Zrt.,Wikidata,46.460544444,17.725183333
wd_Q21996780,Várhegyalja megállóhely,Neszmély,Hungary,MÁV Magyar Államvasutak Zrt.,Wikidata,47.7374743,18.3679272
wd_Q22159823,Városföld vasútállomás,Városföld,Hungary,MÁV Magyar Államvasutak Zrt.,Wikidata,46.815830555,19.753608333
wd_Q22043402,Városi park megállóhely,Kiskunfélegyháza,Hungary,MÁV Magyar Államvasutak Zrt.,Wikidata,46.697449,19.866049
wd_Q22116495,Városlőd megállóhely,Városlőd,Hungary,MÁV Magyar Államvasutak Zrt.,Wikidata,47.144458333,17.653052777
wd_Q22116496,Városlőd-Kislőd vasútállomás,Kislőd,Hungary,MÁV Magyar Államvasutak Zrt.,Wikidata,47.133213888,17.629552777
wd_Q88470299,Városmajor,Budapest,Hungary,Budapesti Közlekedési Zrt.,Wikidata,47.509361111,19.012611111
wd_Q21872126,Várpalota vasútállomás,Várpalota,Hungary,MÁV Magyar Államvasutak Zrt.,Wikidata,47.194687,18.148922
wd_Q21998885,Vásárosdombó vasútállomás,Vásárosdombó,Hungary,MÁV Magyar Államvasutak Zrt.,Wikidata,46.310163,18.138728
wd_Q22056081,Vásárosnamény külső megállóhely,Vásárosnamény,Hungary,MÁV Magyar Államvasutak Zrt.,Wikidata,48.082119,22.25127
wd_Q22056084,Vásárosnamény vasútállomás,Vásárosnamény,Hungary,MÁV Magyar Államvasutak Zrt.,Wikidata,48.126557,22.305796
wd_Q33184240,Védgát utca,Budapest XXI. kerülete,Hungary,,Wikidata,47.435049,19.076288
wd_Q22227172,Végegyháza alsó megállóhely,Végegyháza,Hungary,MÁV Magyar Államvasutak Zrt.,Wikidata,46.367066666,20.866855555
wd_Q22227177,Végegyháza megállóhely,Végegyháza,Hungary,MÁV Magyar Államvasutak Zrt.,Wikidata,46.385055555,20.879236111
wd_Q21888797,Vép vasútállomás,Vép,Hungary,Győr–Sopron–Ebenfurti Vasút,Wikidata,47.236014,16.726991
wd_Q21876911,Vértesszőlős megállóhely,Vértesszőlős,Hungary,MÁV Magyar Államvasutak Zrt.,Wikidata,47.618846,18.37572
wd_Q21877074,Vésztő vasútállomás,Vésztő,Hungary,MÁV Magyar Államvasutak Zrt.,Wikidata,46.939108,21.263222
wd_Q22003652,Vízvár vasútállomás,Vízvár,Hungary,MÁV Magyar Államvasutak Zrt.,Wikidata,46.101341,17.239453
wd_Q22117283,Vörs megállóhely,Vörs,Hungary,MÁV Magyar Államvasutak Zrt.,Wikidata,46.663427777,17.260013888
wd_Q1029092,Vörösmarty tér,Budapest V. kerülete,Hungary,Budapesti Közlekedési Zrt.,Wikidata,47.496666666,19.050277777
wd_Q2413637,Vörösmarty utca,Budapest VI. kerülete,Hungary,Budapesti Közlekedési Zrt.,Wikidata,47.506944444,19.065833333
wd_Q19758627,Vörösvárbánya megállóhely,Pilisvörösvár,Hungary,MÁV Magyar Államvasutak Zrt.,Wikidata,47.609167,18.914167
wd_Q22071289,Zagyvapálfalva vasútállomás,Salgótarján,Hungary,MÁV Magyar Államvasutak Zrt.,Wikidata,48.067272,19.784993
wd_Q21923408,Zagyvarékas megállóhely,Zagyvarékas,Hungary,MÁV Magyar Államvasutak Zrt.,Wikidata,47.244287,20.097388
wd_Q22086224,Zajta megállóhely,Zajta,Hungary,MÁV Magyar Államvasutak Zrt.,Wikidata,47.902980555,22.795319444
wd_Q22115694,Zalabér-Batyk vasútállomás,Batyk,Hungary,MÁV Magyar Államvasutak Zrt.,Wikidata,46.98305,17.040586111
wd_Q22115857,Zalacséb-Salomvár vasútállomás,Zalacséb,Hungary,MÁV Magyar Államvasutak Zrt.,Wikidata,46.85785,16.661294444
wd_Q21872151,Zalaegerszeg vasútállomás,Zalaegerszeg,Hungary,MÁV Magyar Államvasutak Zrt.,Wikidata,46.8318,16.8475
wd_Q22115853,Zalaegerszeg-Ola megállóhely,Zalaegerszeg,Hungary,MÁV Magyar Államvasutak Zrt.,Wikidata,46.851666666,16.835555555
wd_Q22117132,Zalagyömörő megállóhely,Zalagyömörő,Hungary,MÁV Magyar Államvasutak Zrt.,Wikidata,47.010969444,17.220766666
wd_Q116978769,Zalahaláp vasútállomás,Zalahaláp,Hungary,MÁV Magyar Államvasutak Zrt.,Wikidata,46.912926,17.451527
wd_Q102109242,Zalaháshágy-Szőce megállóhely,Szőce,Hungary,Győr–Sopron–Ebenfurti Vasút,Wikidata,46.909361111,16.602722222
wd_Q22117275,Zalakomár vasútállomás,Zalakomár,Hungary,MÁV Magyar Államvasutak Zrt.,Wikidata,46.530016666,17.188252777
wd_Q21876833,Zalalövő vasútállomás,Zalalövő,Hungary,MÁV Magyar Államvasutak Zrt.,Wikidata,46.845577777,16.576558333
wd_Q22115859,Zalapatakalja megállóhely,Zalalövő,Hungary,MÁV Magyar Államvasutak Zrt.,Wikidata,46.845488888,16.604119444
wd_Q92021158,Zalaszentgrót vasútállomás,Zalaszentgrót,Hungary,MÁV Magyar Államvasutak Zrt.,Wikidata,46.951180555,17.081761111
wd_Q22115856,Zalaszentgyörgy megállóhely,Zalaszentgyörgy,Hungary,MÁV Magyar Államvasutak Zrt.,Wikidata,46.871880555,16.711461111
wd_Q22115691,Zalaszentiván vasútállomás,Zalaszentiván,Hungary,MÁV Magyar Államvasutak Zrt.,Wikidata,46.887536111,16.908725
wd_Q22117276,Zalaszentjakab vasútállomás,Zalaszentjakab,Hungary,MÁV Magyar Államvasutak Zrt.,Wikidata,46.491469444,17.135430555
wd_Q22140155,Zalaszentlőrinc megállóhely,Vasboldogasszony,Hungary,Győr–Sopron–Ebenfurti Vasút,Wikidata,46.914091666,16.877322222
wd_Q22117384,Zalaszentmihály-Pacsa vasútállomás,Zalaszentmihály,Hungary,MÁV Magyar Államvasutak Zrt.,Wikidata,46.723255555,16.951925
wd_Q21877036,Zamárdi felső vasútállomás,Zamárdi,Hungary,MÁV Magyar Államvasutak Zrt.,Wikidata,46.8865368,17.9718773
wd_Q21877037,Zamárdi megállóhely,Zamárdi,Hungary,MÁV Magyar Államvasutak Zrt.,Wikidata,46.8799049,17.9448381
wd_Q21866923,Zebegény megállóhely,Zebegény,Hungary,MÁV Magyar Államvasutak Zrt.,Wikidata,47.800748,18.909109
wd_Q22075975,Zelemér megállóhely,Hajdúböszörmény,Hungary,MÁV Magyar Államvasutak Zrt.,Wikidata,47.626758333,21.578391666
wd_Q16523874,Zichyújfalu vasútállomás,Zichyújfalu,Hungary,MÁV Magyar Államvasutak Zrt.,Wikidata,47.1247,18.6722
wd_Q116978770,Ziliz megállóhely,Ziliz,Hungary,MÁV Magyar Államvasutak Zrt.,Wikidata,48.240366,20.777429
wd_Q21876803,Zirc vasútállomás,Zirc,Hungary,MÁV Magyar Államvasutak Zrt.,Wikidata,47.266699,17.877878
wd_Q22222672,Zrínyitelep megállóhely,Csurgó,Hungary,MÁV Magyar Államvasutak Zrt.,Wikidata,46.275075,17.140816666
wd_Q22075348,Zsujta megállóhely,Gönc,Hungary,MÁV Magyar Államvasutak Zrt.,Wikidata,48.49225,21.264722222
wd_Q25848410,Zsófialiget megállóhely,Kistarcsa,Hungary,MÁV Személyszállítási Zrt.,Wikidata,47.548616666,19.264366666
wd_Q3098107,Zugló megállóhely,Budapest XIV. kerülete,Hungary,MÁV Magyar Államvasutak Zrt.,Wikidata,47.512,19.1002
wd_Q116978767,Zádor megállóhely,Zádor,Hungary,MÁV Magyar Államvasutak Zrt.,Wikidata,45.969352,17.65767
wd_Q21877070,Záhony vasútállomás,Záhony,Hungary,MÁV Magyar Államvasutak Zrt.,Wikidata,48.401857,22.183769
wd_Q116978768,Záhony-Rendező vasútállomás,Záhony,Hungary,MÁV Magyar Államvasutak Zrt.,Wikidata,48.391949,22.173254
wd_Q22121262,Zákány megállóhely,Zákány,Hungary,MÁV Magyar Államvasutak Zrt.,Wikidata,46.255013888,16.938030555
wd_Q22091796,Zánka-Erzsébettábor megállóhely,Zánka,Hungary,MÁV Magyar Államvasutak Zrt.,Wikidata,46.877463888,17.708516666
wd_Q22091802,Zánka-Köveskál vasútállomás,Zánka,Hungary,MÁV Magyar Államvasutak Zrt.,Wikidata,46.872836111,17.687738888
wd_Q22092245,Ábrahámhegy megállóhely,Ábrahámhegy,Hungary,MÁV Magyar Államvasutak Zrt.,Wikidata,46.814925,17.572036111
wd_Q15123893,Ács vasútállomás,Ács,Hungary,MÁV Magyar Államvasutak Zrt.,Wikidata,47.717,18.003861111
wd_Q22121893,Ádánd vasútállomás,Ádánd,Hungary,MÁV Magyar Államvasutak Zrt.,Wikidata,46.854069444,18.141352777
wd_Q102243173,Ágasegyháza vasútállomás,Ágasegyháza,Hungary,MÁV Magyar Államvasutak Zrt.,Wikidata,46.84425,19.456333333
wd_Q102243135,Ágasegyházi tanyák megállóhely,Ágasegyháza,Hungary,MÁV Magyar Államvasutak Zrt.,Wikidata,46.837,19.418277777
wd_Q116978572,Ágerdőmajor megállóhely,Vállaj,Hungary,MÁV Magyar Államvasutak Zrt.,Wikidata,47.775855,22.429806
wd_Q121742320,Ágfalva vasútállomás,Ágfalva,Hungary,,Wikidata,47.6906,16.5207
wd_Q102243921,Állampuszta megállóhely,Harta,Hungary,MÁV Magyar Államvasutak Zrt.,Wikidata,46.717944444,19.059055555
wd_Q8076660,Állatkert,Budapest XIV. kerülete,Hungary,,Wikidata,47.517777777,19.078055555
wd_Q22827383,Áporka megállóhely,Kiskunlacháza,Hungary,,Wikidata,47.228527777,19.054361111
wd_Q25840339,Árpádföld,Budapest XVI. kerülete,Hungary,MÁV-HÉV Helyiérdekű Vasút Zrt.,Wikidata,47.533205555,19.212055555
wd_Q22059266,Árpádszállás megállóhely,Lakitelek,Hungary,MÁV Magyar Államvasutak Zrt.,Wikidata,46.866469,19.989458
wd_Q102144646,Ászár megállóhely,Ászár,Hungary,MÁV Magyar Államvasutak Zrt.,Wikidata,47.518222222,18.006555555
wd_Q116978574,Ászár-Keményítőgyár megállóhely,Ászár,Hungary,MÁV Magyar Államvasutak Zrt.,Wikidata,47.5346,18.01759
wd_Q22002369,Áta vasútállomás,Áta,Hungary,MÁV Magyar Államvasutak Zrt.,Wikidata,45.935813,18.306991
wd_Q26833888,Écs megállóhely,Écs,Hungary,MÁV Magyar Államvasutak Zrt.,Wikidata,47.561083333,17.728866666
wd_Q96178553,Égerláp megállóhely,Balassagyarmat,Hungary,MÁV Magyar Államvasutak Zrt.,Wikidata,48.0564596,19.2558415
wd_Q21996850,Érd alsó megállóhely,Érd,Hungary,,Wikidata,47.379902,18.923877
wd_Q21876966,Érd felső megállóhely,Érd,Hungary,MÁV Magyar Államvasutak Zrt.,Wikidata,47.381315,18.922848
wd_Q21876968,Érd vasútállomás,Érd,Hungary,MÁV Magyar Államvasutak Zrt.,Wikidata,47.369991,18.901059
wd_Q21876963,Érdliget megállóhely,Érd,Hungary,MÁV Magyar Államvasutak Zrt.,Wikidata,47.389597,18.937125
wd_Q116978701,Óalmás megállóhely,Bácsalmás,Hungary,MÁV Magyar Államvasutak Zrt.,Wikidata,46.114817,19.255921
wd_Q3095884,Óbuda vasútállomás,Budapest III. kerülete,Hungary,MÁV Magyar Államvasutak Zrt.,Wikidata,47.5692,19.0322
wd_Q73266116,Óbéba vasútállomás,,Hungary,,Wikidata,46.129722222,20.223333333
wd_Q22059190,Óbög megállóhely,Tiszakécske,Hungary,MÁV Magyar Államvasutak Zrt.,Wikidata,46.962118,20.093649
wd_Q21876057,Ócsa vasútállomás,Ócsa,Hungary,MÁV Magyar Államvasutak Zrt.,Wikidata,47.301351,19.232493
wd_Q116978702,Ócsai szőlők megállóhely,,Hungary,MÁV Magyar Államvasutak Zrt.,Wikidata,47.286117,19.264118
wd_Q22056069,Ófehértó vasútállomás,Ófehértó,Hungary,MÁV Magyar Államvasutak Zrt.,Wikidata,47.940599,22.041278
wd_Q23688643,Ópaks vasútállomás,Paks,Hungary,,Wikidata,46.641191,18.879216
wd_Q22056394,Ópályi megállóhely,Ópályi,Hungary,MÁV Magyar Államvasutak Zrt.,Wikidata,47.997914,22.318243
wd_Q22072971,Ózd alsó megállóhely,Ózd,Hungary,MÁV Magyar Államvasutak Zrt.,Wikidata,48.234388888,20.318955555
wd_Q21877066,Ózd vasútállomás,Ózd,Hungary,MÁV Magyar Államvasutak Zrt.,Wikidata,48.222502777,20.294688888
wd_Q22078561,Ököritófülpös megállóhely,Ököritófülpös,Hungary,MÁV Magyar Államvasutak Zrt.,Wikidata,47.910880555,22.496452777
wd_Q21888946,Ölbő-Alsószeleste vasútállomás,Ölbő,Hungary,Győr–Sopron–Ebenfurti Vasút,Wikidata,47.300583333,16.843133333
wd_Q116337074,Öregcsertő megállóhely,Öregcsertő,Hungary,MÁV Magyar Államvasutak Zrt.,Wikidata,46.523722,19.118489
wd_Q22132163,Öreglak megállóhely,Öreglak,Hungary,MÁV Magyar Államvasutak Zrt.,Wikidata,46.608788888,17.632797222
wd_Q118455728,Örjeg megállóhely,Bács-Kiskun vármegye,Hungary,,Wikidata,,
wd_Q21876150,Örkény vasútállomás,Örkény,Hungary,MÁV Magyar Államvasutak Zrt.,Wikidata,47.133005,19.44713
wd_Q25840188,Örs vezér tere,Budapest XIV. kerülete,Hungary,MÁV-HÉV Helyiérdekű Vasút Zrt.,Wikidata,47.503638888,19.137491666
wd_Q22091787,Örvényes megállóhely,Örvényes,Hungary,MÁV Magyar Államvasutak Zrt.,Wikidata,46.912336111,17.818244444
wd_Q22115171,Öskü megállóhely,Öskü,Hungary,MÁV Magyar Államvasutak Zrt.,Wikidata,47.159769444,18.074866666
wd_Q116978707,Ötfa megállóhely,Kiskunmajsa,Hungary,MÁV Magyar Államvasutak Zrt.,Wikidata,46.538311,19.735669
wd_Q21891725,Öttevény vasútállomás,Öttevény,Hungary,MÁV Magyar Államvasutak Zrt.,Wikidata,47.719845,17.489149
wd_Q22222667,Ötvöskónyi megállóhely,Ötvöskónyi,Hungary,MÁV Magyar Államvasutak Zrt.,Wikidata,46.292713888,17.357919444
wd_Q2908334,Újbuda-központ,Budapest XI. kerülete,Hungary,,Wikidata,47.4742,19.046
wd_Q22059191,Újbög megállóhely,Tiszakécske,Hungary,MÁV Magyar Államvasutak Zrt.,Wikidata,46.987064,20.111084
wd_Q22054855,Újfehértó vasútállomás,Újfehértó,Hungary,MÁV Magyar Államvasutak Zrt.,Wikidata,47.814754,21.706495
wd_Q22056399,Újkenéz megállóhely,Újkenéz,Hungary,MÁV Magyar Államvasutak Zrt.,Wikidata,48.251159,22.221487
wd_Q21887966,Újkér megállóhely,Egyházasfalu,Hungary,Győr–Sopron–Ebenfurti Vasút,Wikidata,47.457852,16.786645
wd_Q116978758,Újmezőhegyes megállóhely,Mezőhegyes,Hungary,MÁV Magyar Államvasutak Zrt.,Wikidata,46.310967,20.791637
wd_Q84844308,Újpalota megállóhely,Budapest XIV. kerülete,Hungary,MÁV Magyar Államvasutak Zrt.,Wikidata,47.5316,19.126206
wd_Q3095885,Újpest megállóhely,Budapest XIII. kerülete,Hungary,MÁV Magyar Államvasutak Zrt.,Wikidata,47.558794,19.079624
wd_Q2061439,Újpest-központ,Budapest IV. kerülete,Hungary,,Wikidata,47.560277777,19.090555555
wd_Q2632136,Újpest-városkapu,Budapest,Hungary,,Wikidata,47.558611111,19.080277777
wd_Q21877055,Újszeged vasútállomás,Szeged,Hungary,MÁV Magyar Államvasutak Zrt.,Wikidata,46.241897222,20.160183333
wd_Q73349402,Újszentiván megállóhely,Újszentiván,Hungary,,Wikidata,46.186389,20.195
wd_Q116978759,Újszentmargita megállóhely,Újszentmargita,Hungary,MÁV Magyar Államvasutak Zrt.,Wikidata,47.744477,21.113975
wd_Q21877061,Újszász vasútállomás,Újszász,Hungary,MÁV Magyar Államvasutak Zrt.,Wikidata,47.28578,20.066746
wd_Q36631780,Újszőreg megállóhely,Szőreg,Hungary,,Wikidata,46.229131,20.173581
wd_Q116978760,Újtikos megállóhely,Újtikos,Hungary,MÁV Magyar Államvasutak Zrt.,Wikidata,47.9162,21.17517
wd_Q22117597,Újudvar vasútállomás,Újudvar,Hungary,MÁV Magyar Államvasutak Zrt.,Wikidata,46.519316666,16.979952777
wd_Q22132512,Újvenyim megállóhely,Baracs,Hungary,MÁV Magyar Államvasutak Zrt.,Wikidata,46.937180555,18.871288888
wd_Q22045704,Újváros megállóhely,Árpádhalom,Hungary,MÁV Magyar Államvasutak Zrt.,Wikidata,46.660497,20.536215
wd_Q22086732,Úrihegy megállóhely,Kecskemét,Hungary,MÁV Magyar Államvasutak Zrt.,Wikidata,46.918019444,19.620505555
wd_Q21921434,Üllő vasútállomás,Üllő,Hungary,MÁV Magyar Államvasutak Zrt.,Wikidata,47.390753,19.350892
wd_Q22046816,Ürmöshát megállóhely,Püspökladány,Hungary,MÁV Magyar Államvasutak Zrt.,Wikidata,47.267322,21.091449
wd_Q3096086,Üröm megállóhely,Budapest III. kerülete,Hungary,MÁV Magyar Államvasutak Zrt.,Wikidata,47.580833,19.001796
wd_Q21997811,Őcsény megállóhely,Őcsény,Hungary,MÁV Magyar Államvasutak Zrt.,Wikidata,46.318803,18.742477
wd_Q21869594,Őrbottyán vasútállomás,Őrbottyán,Hungary,MÁV Magyar Államvasutak Zrt.,Wikidata,47.685574,19.283957
wd_Q22025109,Őrhalom megállóhely,Őrhalom,Hungary,MÁV Magyar Államvasutak Zrt.,Wikidata,48.078753,19.403765
wd_Q22115939,Őriszentpéter vasútállomás,Őriszentpéter,Hungary,MÁV Magyar Államvasutak Zrt.,Wikidata,46.829152777,16.416127777
wd_Q22121265,Őrtilos vasútállomás,Őrtilos,Hungary,MÁV Magyar Államvasutak Zrt.,Wikidata,46.297816666,16.887669444
wd_Q22160072,Őszeszék megállóhely,Balástya,Hungary,MÁV Magyar Államvasutak Zrt.,Wikidata,46.390355555,20.015855555
